,id,company_name,address_1,address_2,city,state_province,postal_code,url,description,duplicate_id,duplicate_type,cluster id,confidence
0,850f83f0-8ad7-4d1e-81c0-c7b19e5d380c,depressive and bipolar support alliance whatcom county,800 chestnut str.,suite 1c,bellingham,wa,98225,,,9a1a5f22-ee70-407d-a112-1e01891871a2,street_dupblanked,0,0.9986917972781955
1,db0ab21f-64d9-469a-a25f-33e8765716f1,bellingham parks and recreation division,210 lottie street,,bellingham,wa,98225,https://cob.org/services/recreation,the parks and recreation department supports a healthy community by providing high quality parks and recreation services.,,,69,1.0
2,9febd2f6-0a23-4a3e-979c-34add947efe9,mount baker school district,4956 deming road,,deming,wa,98244,http://www.mtbaker.wednet.edu,public school district.,,,70,1.0
3,9ccfe539-c0b7-48c9-83e0-f19a630a1916,mount baker school district,4956 deming rd,,deming,wa,98244,http://www.mtbaker.wednet.edu,public school district.,9febd2f6-0a23-4a3e-979c-34add947efe9,street_dup,71,1.0
4,d358eaa9-bee0-48b6-b61e-ee8e68657950,bellingham technical college,3028 lindbergh avenue,,bellingham,wa,98225,https://www.btc.edu,"bellingham technical college provides student-centered, high-quality professional technical education for todays needs and tomorrows opportunities.",,,72,1.0
5,be0a773e-0805-41d5-b884-0e13f6e76333,bellingham school district,1306 dupont street,,bellingham,wa,98225,http://bellinghamschools.org,public school district.,,,73,1.0
6,bc708449-8da2-4b49-9013-a99c0dcf0e2a,nooksack valley school district,3326 east badger road,,everson,wa,98247,https://www.nv.k12.wa.us,public school district.,,,4,0.7982345191071608
7,e6979b8b-2a0f-4a63-a72a-9c7d57182732,nooksack valley school district,3326 east badger road,,everson,wa,98247,https://www.nv.k12.wa.us,public school district.,bc708449-8da2-4b49-9013-a99c0dcf0e2a,street_dup,74,1.0
8,32f7173d-dd86-460c-ba98-ecaabb7d749e,western washington university,516 high street,,bellingham,wa,98225,http://www.wwu.edu,pubic university.,,,75,1.0
9,70488e02-330c-4a70-8abe-47f49682e3b1,western washington university,516 high street,room 540,bellingham,wa,98225,http://www.wwu.edu,pubic university.,,,10,0.44362601640930466
10,b26da0e5-6f88-4fc0-bbd4-92640a1c6663,western washington university,516 high street,room 265,bellingham,wa,98225,http://www.wwu.edu,pubic university.,,,10,0.44362601640930466
11,8c3c833c-1388-4355-ac68-54d35825c339,western washington university,516 high st,room 265,bellingham,wa,98225,http://www.wwu.edu,pubic university.,b26da0e5-6f88-4fc0-bbd4-92640a1c6663,street_dup,10,0.3686234890968587
12,d249a591-54dc-4ed1-8b83-00de8b867511,western washington university,516 high street,"2nd floor, room 256",bellingham,wa,98225,http://www.wwu.edu,pubic university.,,,10,0.44362601640930466
13,467c449a-b181-48ee-bf4d-a2972a4d1447,western washington university,188 east college way,room 453,bellingham,wa,98225,http://www.wwu.edu,pubic university.,,,76,1.0
14,f042c536-2e0d-4cce-b102-23e2b9a3d27b,western washington university,516 high street,room 280,bellingham,wa,98225,http://www.wwu.edu,pubic university.,,,10,0.44362601640930466
15,7c421088-67c7-4ebd-935a-2265af6bf01c,western washington university,516 high str,room 280,bellingham,wa,98225,http://www.wwu.edu,pubic university.,f042c536-2e0d-4cce-b102-23e2b9a3d27b,street_dup,10,0.38418248968678537
16,a6fd9a0c-1b69-4251-8042-4b1a1d69c346,western washington university,516 high street,,bellingham,wa,98225,http://www.wwu.edu,pubic university.,,,77,1.0
17,cae6d8d6-8fd3-44a7-a169-3fec15fc5a01,western washington university,516 high str.,,bellingham,wa,98225,http://www.wwu.edu,pubic university.,a6fd9a0c-1b69-4251-8042-4b1a1d69c346,street_dup,78,1.0
18,d6380640-01fb-4391-a800-4a3ca284bbba,ferndale school district,6041 vista drive,,ferndale,wa,98248,http://www.ferndalesd.org,public school district.,,,79,1.0
19,52093785-7005-4848-b6ac-ddd6c86b62eb,point roberts food bank,323 evergreen way,,point roberts,wa,98281,http://www.harmonywebdesigns.com/pointrobertschurch/announcements.htm,the point roberts food bank provides food for those individuals at or below the poverty level as well as low income individuals.,,,80,1.0
20,ba172206-2c85-44b2-a95c-ba7eb49bfb1d,river of life community church,4037 valley highway,,deming,wa,98244,,river of life community church has an outward focus. from helping feed and clothe our neighbors outreaches focused on kids reaching our hispanic neighbors through our maple falls church.,,,9,0.755623459815979
21,4e69bfbe-3c28-4736-9078-42c09f66ba0a,river of life community church,4037 valley highway,,deming,wa,98244,,river of life community church has an outward focus. from helping feed and clothe our neighbors outreaches focused on kids reaching our hispanic neighbors through our maple falls church.,ba172206-2c85-44b2-a95c-ba7eb49bfb1d,street_dup,9,0.755623459815979
22,f692dfa4-b73b-4ccc-82a5-ef3a28a7a447,saint vincent de paul - sacred heart church,1110 14th street,,bellingham,wa,98225,https://www.shbham.org,a faith based organization that offers assistance to people in need.,,,11,0.3752857682237979
23,d78e7bff-242f-4ce5-a3da-21d0f4e672e3,community assistance program,382 boblett street,,blaine,wa,98230,http://blainecap.org,"provides community-based social services to residents of blaine, birch bay, custer, and point roberts.",,,81,1.0
24,79cdeae1-d1ac-4715-8f83-0f5a621a0340,community assistance program,902 adelia street,,blaine,wa,98230,http://blainecap.org,"provides community-based social services to residents of blaine, birch bay, custer, and point roberts.",,,82,1.0
25,a7f70e54-efd1-4264-9afc-4c5a9a8ab063,community assistance program,902 adelia street,,blaine,wa,98230,http://blainecap.org,"provides community-based social services to residents of blaine, birch bay, custer, and point roberts.",79cdeae1-d1ac-4715-8f83-0f5a621a0340,street_dup,83,1.0
26,f5d804fd-59fa-425a-a5d3-1d019d0bbd11,community assistance program,508 g street,,blaine,wa,98230,http://blainecap.org,"provides community-based social services to residents of blaine, birch bay, custer, and point roberts.",,,84,1.0
27,13d3c0df-4deb-4816-8e47-49dfa6ea1d79,whatcom hospice,2800 douglas avenue,,bellingham,wa,98225,http://whatcomhospice.org,"provides services for patients with a life limiting illness of six months or less, and their families. services address medical, emotional, respite, and spiritual concerns.",,,85,1.0
28,97f75f06-9fc2-432b-85d3-4fb7fce6d1a1,whatcom hospice,3001 squalicum parkway,suite 11,bellingham,wa,98225,http://whatcomhospice.org,"provides services for patients with a life limiting illness of six months or less, and their families. services address medical, emotional, respite, and spiritual concerns.",,,49,0.47473001269749315
29,a19357f0-726e-497a-b838-0de62a438015,whatcom hospice,3001 squalicum parkway,suite 11,bellingham,wa,98225,http://whatcomhospice.org,"provides services for patients with a life limiting illness of six months or less, and their families. services address medical, emotional, respite, and spiritual concerns.",97f75f06-9fc2-432b-85d3-4fb7fce6d1a1,street_dup,49,0.47473001269749315
30,2eef7d1e-33aa-4b42-afff-e7e5ba8b20eb,blaine community/senior center,763 g street,,blaine,wa,98230,https://www.blaineseniorcenter.org,senior center.,,,86,1.0
31,a68a4a84-cfbe-429a-ac77-65be9bdf0002,blaine community/senior center,763 g st.,,blaine,wa,98230,https://www.blaineseniorcenter.org,senior center.,2eef7d1e-33aa-4b42-afff-e7e5ba8b20eb,street_dup,87,1.0
32,90cb3fb4-6fa7-4eac-adb4-5a3664fbfdb3,whatcom transportation authority (wta),4111 bakerview spur,,bellingham,wa,98226,http://www.ridewta.com,"provides fixed route, paratransit and vanpool service throughout whatcom county.",,,88,1.0
33,226cb0ae-cd0b-4113-9595-a1528e375911,whatcom county parks and recreation department,3373 mount baker highway,,bellingham,wa,98226,http://www.co.whatcom.wa.us/1787/parks-recreation,"the goal of the parks and recreation department is to enrich the quality of life for the community and preserve the natural and cultural heritage of the county through provision of outstanding parks and trails, open space and natural areas, as well as recreational activities and senior services.",,,39,0.6127721111436153
34,105cc812-05ae-4d23-8d56-d43096385659,whatcom county health department,509 girard street,,bellingham,wa,98225,http://www.whatcomcounty.us/360/health-department,to lead the community in promoting health and preventing disease by providing opportunities for the people in the community to thrive in a safe and healthy environment.,,,89,1.0
35,85a94cdd-49c7-493b-96de-291921e3456b,whatcom county health department,509 girard st.,,bellingham,wa,98225,http://www.whatcomcounty.us/360/health-department,to lead the community in promoting health and preventing disease by providing opportunities for the people in the community to thrive in a safe and healthy environment.,105cc812-05ae-4d23-8d56-d43096385659,street_dup,90,1.0
36,001b25b0-efc7-49f0-9705-06e5fcc20dd4,whatcom county health department,1500 north state street,,bellingham,wa,98225,http://www.whatcomcounty.us/360/health-department,to lead the community in promoting health and preventing disease by providing opportunities for the people in the community to thrive in a safe and healthy environment.,,,12,0.4253436783178447
37,0e2fa2ae-6751-4fc3-a0ea-3f59b0fbc365,whatcom county health department,4255 mitchell way,,bellingham,wa,98226,http://www.whatcomcounty.us/360/health-department,to lead the community in promoting health and preventing disease by providing opportunities for the people in the community to thrive in a safe and healthy environment.,,,91,1.0
38,9baec3e4-8ac7-4eae-8c35-68ebbb29d3ab,bellingham whatcom county housing authorities,208 unity st,,bellingham,wa,98225,http://www.bellinghamhousing.org,the housing authority of the city of bellingham is a local government agency that serves thousands of residents in whatcom county. the bellingham housing authority and the whatcom county housing authority work together to provide needed housing in our community.,,,92,1.0
39,d34449ef-9ded-41d6-ae9b-a7f5bf6fc04c,bellingham whatcom county housing authorities,208 unity st,,bellingham,wa,98225,http://www.bellinghamhousing.org,the housing authority of the city of bellingham is a local government agency that serves thousands of residents in whatcom county. the bellingham housing authority and the whatcom county housing authority work together to provide needed housing in our community.,9baec3e4-8ac7-4eae-8c35-68ebbb29d3ab,street_dup,93,1.0
40,19d2f881-6af2-406e-96dd-f1518eaadbcf,whatcom county courts,311 grand avenue,suite 501,bellingham,wa,98225,http://www.courts.wa.gov/court_dir/orgs/296.html,civil and criminal courts.,,,13,0.47917941267986786
41,50ca4a84-88d5-4867-9caf-aa5058d1ce81,whatcom county courts,1020 north state street,,bellingham,wa,98225,http://www.courts.wa.gov/court_dir/orgs/296.html,civil and criminal courts.,,,94,1.0
42,dfc75e1e-f43d-41e0-9982-ca8d511effab,whatcom county courts,1020 north state street,,bellingham,wa,98225,http://www.courts.wa.gov/court_dir/orgs/296.html,civil and criminal courts.,50ca4a84-88d5-4867-9caf-aa5058d1ce81,street_dup,95,1.0
43,c1221a15-553b-404b-adca-90ed812cecbb,whatcom county courts,311 grand avenue,suite 301,bellingham,wa,98225,http://www.courts.wa.gov/court_dir/orgs/296.html,civil and criminal courts.,,,13,0.47917941267986786
44,0380a388-0df3-4877-833f-d41696a851db,whatcom county courts,311 grand avenue,suite 401,bellingham,wa,98225,http://www.courts.wa.gov/court_dir/orgs/296.html,civil and criminal courts.,,,13,0.47917941267986786
45,ccd69a32-bf5e-4b86-8675-753563ebb426,whatcom county courts,311 grand avenue,suite 401,bellingham,wa,98225,http://www.courts.wa.gov/court_dir/orgs/296.html,civil and criminal courts.,0380a388-0df3-4877-833f-d41696a851db,street_dup,13,0.47917941267986786
46,ec6170ac-52b9-48cc-8171-e3a08cce2119,whatcom county courts,2014 c street,,bellingham,wa,98225,http://www.courts.wa.gov/court_dir/orgs/296.html,civil and criminal courts.,,,96,1.0
47,5dccfd44-b839-45ee-a587-1c03ddb97ced,whatcom county courts,2014 c st.,,bellingham,wa,98225,http://www.courts.wa.gov/court_dir/orgs/296.html,civil and criminal courts.,ec6170ac-52b9-48cc-8171-e3a08cce2119,street_dup,97,1.0
48,9fde2109-aac7-4e39-bacd-62d294a6f3e4,whatcom county courts,435 martin st,suite 4000,blaine,wa,98230,http://www.courts.wa.gov/court_dir/orgs/296.html,civil and criminal courts.,,,14,0.4243024030193223
49,3f5105eb-f830-49f8-8064-90e2b2ee069a,whatcom county courts,111 w main st,,everson,wa,98247,http://www.courts.wa.gov/court_dir/orgs/296.html,civil and criminal courts.,,,15,0.61418276201071
50,5e43a51e-9709-47ef-b19e-0309b2b382fb,whatcom county courts,5694 2nd avenue,,ferndale,wa,98248,http://www.courts.wa.gov/court_dir/orgs/296.html,civil and criminal courts.,,,16,0.4264532966236947
51,f0d8c565-0391-4ef9-8e52-f86422594d2b,whatcom county courts,5694 2nd ave.,,ferndale,wa,98248,http://www.courts.wa.gov/court_dir/orgs/296.html,civil and criminal courts.,5e43a51e-9709-47ef-b19e-0309b2b382fb,street_dup,16,0.42640845277103556
52,12d08cee-c0d1-44b2-9ae0-eabc6c1ada0d,whatcom county courts,205 4th street,,lynden,wa,98264,http://www.courts.wa.gov/court_dir/orgs/296.html,civil and criminal courts.,,,17,0.7593149520198541
53,3ccb12b5-bf08-4bab-97f7-dd524d7d0ff1,whatcom county courts,433 cherry street,,sumas,wa,98295,http://www.courts.wa.gov/court_dir/orgs/296.html,civil and criminal courts.,,,98,1.0
54,4c8d150f-9ab9-42e7-bdd4-ba9563e74c2a,whatcom county sheriffs office,311 grand avenue,,bellingham,wa,98225,http://www.co.whatcom.wa.us/sheriff/,law enforcement agency.,,,99,1.0
55,b07ddfef-6f69-47f5-8ab7-ffd4b595d6e7,whatcom county sheriffs office,311 grand avenue,,bellingham,wa,98225,http://www.co.whatcom.wa.us/sheriff/,law enforcement agency.,4c8d150f-9ab9-42e7-bdd4-ba9563e74c2a,street_dup,100,1.0
56,522c687c-7c9c-45d4-8430-1011f6ff0890,lydia place,1701 gladstone street,,bellingham,wa,98229,http://www.lydiaplace.org,the mission of lydia place is to disrupt the cycle of homelessness and promote sustained independence for current and future generations.,,,101,1.0
57,74f50588-b37f-4e5b-abf4-4fcfa34c197b,vietnam veterans of america 165,625 north state street,,bellingham,wa,98225,http://www.vva165.org,services for veterans of vietnam and the vietnam-era and their families.,,,102,1.0
58,4ad1cab3-0d70-4dbd-bf88-53989dfda269,vietnam veterans of america 165,625 north state st,,bellingham,wa,98225,http://www.vva165.org,services for veterans of vietnam and the vietnam-era and their families.,74f50588-b37f-4e5b-abf4-4fcfa34c197b,street_dup,103,1.0
59,fe690b07-739d-4a77-b2f4-60597a843c8d,blaine food bank,500 c street,,blaine,wa,98230,https://www.blainefoodbank.org,community food bank that offers food to anyone in need.,,,104,1.0
60,5febabba-7fb9-4bbc-8339-3b81999f0321,brigid collins family support center,1231 north garden street,suite 200,bellingham,wa,98225,http://www.brigidcollins.org,"works to end child abuse in both whatcom and skagit counties. connects with local law enforcement jurisdictions, prosecuting attorneys, medical providers, child protection workers and therapists from both counties.",,,105,1.0
61,c32e5da3-a6b3-4671-b74b-bc589f3df8c4,whatcom humane society,2172 division street,,bellingham,wa,98226,http://www.whatcomhumane.org,"advocate for animals by educating the community to promote humane treatment and respect for animals and provide for abandoned, injured, abused or neglected animals.",,,106,1.0
62,aa83f305-5f02-4e33-a898-0b6f2427fd34,whatcom humane society,2172 division st.,,bellingham,wa,98226,http://www.whatcomhumane.org,"advocate for animals by educating the community to promote humane treatment and respect for animals and provide for abandoned, injured, abused or neglected animals.",c32e5da3-a6b3-4671-b74b-bc589f3df8c4,street_dup,107,1.0
63,d0092c33-fcdc-4ee9-9da0-72b198519258,interfaith coalition of whatcom county,495 east bakerview road,,bellingham,wa,98226,http://www.interfaith-coalition.org,interfaith coalition collaborates with agencies and faith communities to fill gaps in human services and to meet housing and other needs of marginalized people.,,,108,1.0
64,1b2cb28c-2338-48e5-9679-ac5f69ca616e,interfaith coalition of whatcom county,495 east bakerview rd,,bellingham,wa,98226,http://www.interfaith-coalition.org,interfaith coalition collaborates with agencies and faith communities to fill gaps in human services and to meet housing and other needs of marginalized people.,d0092c33-fcdc-4ee9-9da0-72b198519258,street_dup,109,1.0
65,a04334d2-1d51-4a76-b275-ab96503f65f2,interfaith coalition of whatcom county,400 north commercial street,,bellingham,wa,98225,http://www.interfaith-coalition.org,interfaith coalition collaborates with agencies and faith communities to fill gaps in human services and to meet housing and other needs of marginalized people.,,,110,1.0
66,ea8c56c5-68b9-487e-9058-7a7dc407da74,northwest braille services,6162 aquarius avenue,,ferndale,wa,98248,,a non-profit agency providing braille services.,,,111,1.0
67,97a131f7-2e10-4e22-b20b-65f9c1a1b5bf,boys and girls clubs of whatcom county,1715 kentucky street,,bellingham,wa,98229,http://www.whatcomclubs.org,provides affordable after school youth services in whatcom county.,,,112,1.0
68,29486f85-fc8f-4b0c-92f2-ca830a1616c2,boys and girls clubs of whatcom county,1715 kentucky str,,bellingham,wa,98229,http://www.whatcomclubs.org,provides affordable after school youth services in whatcom county.,97a131f7-2e10-4e22-b20b-65f9c1a1b5bf,street_dup,113,1.0
69,3ab8d19e-8e94-4a18-893a-9e49df6ef7ca,boys and girls clubs of whatcom county,2015 cherry street,,ferndale,wa,98248,http://www.whatcomclubs.org,provides affordable after school youth services in whatcom county.,,,114,1.0
70,5ce05c7e-467a-49a5-9194-b5ecba1bc19f,boys and girls clubs of whatcom county,2015 cherry str.,,ferndale,wa,98248,http://www.whatcomclubs.org,provides affordable after school youth services in whatcom county.,3ab8d19e-8e94-4a18-893a-9e49df6ef7ca,street_dup,115,1.0
71,d0d806f7-796f-472c-b0da-d50d25f2d169,boys and girls clubs of whatcom county,8800 bender road,,lynden,wa,98264,http://www.whatcomclubs.org,provides affordable after school youth services in whatcom county.,,,116,1.0
72,0dd5360a-787f-4603-9c03-16ce5a5cfb2c,boys and girls clubs of whatcom county,8800 bender rd.,,lynden,wa,98264,http://www.whatcomclubs.org,provides affordable after school youth services in whatcom county.,d0d806f7-796f-472c-b0da-d50d25f2d169,street_dup,117,1.0
73,ab966448-5d4a-4e89-a438-e815a9fa2b57,boys and girls clubs of whatcom county,635 8th street,,blaine,wa,98230,http://www.whatcomclubs.org,provides affordable after school youth services in whatcom county.,,,118,1.0
74,99c0982b-fd3e-45cf-a9da-c7a4abb24521,we care of whatcom county,3550 meridian street,suite 2,bellingham,wa,98225,,"provides inexpensive clothing, furniture and housewares to residents of whatcom county.",,,18,0.9843519279953278
75,7f9c5536-e9f0-4747-aba9-e5f7e2546fbd,we care of whatcom county,3550 meridian st,suite 2,bellingham,wa,98225,,"provides inexpensive clothing, furniture and housewares to residents of whatcom county.",99c0982b-fd3e-45cf-a9da-c7a4abb24521,street_dup,18,0.9768227545347866
76,af402bd9-b70c-4dd2-9e71-d4edd40f376c,hope house,207 kentucky street,,bellingham,wa,98225,https://www.assumption.org/hope-house.html,"hope house is a multi-service center and collaborative effort between multiple non-profit agencies to provide clothing, housewares, emergency food, hygiene, personal care, diapers, school supplies, flashlights, soaps and supplies for those in need.",,,42,0.9907813071341335
77,fd2b7496-0898-427b-b99f-2b14f6572208,whatcom county pregnancy clinic,1310 north state street,,bellingham,wa,98225,http://www.whatcomclinic.com,"provides services for educating, equipping, and empowering individuals and families facing an unplanned pregnancy by offering a compassionate and confidential environment for patients to be heard and to receive accurate information and medical care.",,,119,1.0
78,6f3d7f6e-ad62-4ab9-b000-710f342e68a5,new way ministries,205 south british columbia avenue,,lynden,wa,98264,http://www.christianhopeassociation.org,"a non-profit faith based organization that provides transitional housing for women and their children. a program designed to assist families in crisis by providing stable housing, dependable income and resources for help and encouragement.",,,120,1.0
79,f42d1612-5f9b-4c58-881c-baa96d95ff34,new way ministries,205 south british columbia ave,,lynden,wa,98264,http://www.christianhopeassociation.org,"a non-profit faith based organization that provides transitional housing for women and their children. a program designed to assist families in crisis by providing stable housing, dependable income and resources for help and encouragement.",6f3d7f6e-ad62-4ab9-b000-710f342e68a5,street_dup,121,1.0
80,18f8e8cf-e401-4aa0-becb-7bc0d3d772e9,catholic community services of western washington in whatcom county,1133 railroad avenue,suite 100,bellingham,wa,98225,http://www.ccsww.org,"provides social, mental health and chemical dependency services to residents of whatcom county.",,,19,0.6139541855191024
81,1647daaf-2129-4372-bdd3-411c627408fc,catholic community services of western washington in whatcom county,515 lakeway drive,,bellingham,wa,98225,http://www.ccsww.org,"provides social, mental health and chemical dependency services to residents of whatcom county.",,,122,1.0
82,d4417f41-34f6-4f9f-a1bd-a1f4593bd5d6,catholic community services of western washington in whatcom county,515 lakeway drive,,bellingham,wa,98225,http://www.ccsww.org,"provides social, mental health and chemical dependency services to residents of whatcom county.",1647daaf-2129-4372-bdd3-411c627408fc,street_dup,123,1.0
83,03cba5ef-140c-4075-9439-0286a4871981,pflag whatcom,405 east holly street,,bellingham,wa,98225,http://www.whatcompflag.org,"a volunteer group providing support, education and advocacy for lgbtq people, their family and friends.",,,124,1.0
84,7a4e11d8-fb8d-40b5-8ef4-c57c54bc9e8f,"work opportunities, inc.",192 east bakerview road,202,bellingham,wa,98226,http://www.workopportunities.org,"an agency which provides vocational rehabilitation and employment services to persons with mental, physical, emotional and sensory disabilities, so they might obtain the training and employment experiences they need to achieve economic self-sufficiency. www.workopportunities.org",,,5,0.47473001269749315
85,668f0fa5-fd6e-4601-9b66-393d33e35d67,whatcom transportation authority (wta),4111 bakerview spur,,bellingham,wa,98226,http://www.ridewta.com,"provides fixed route, paratransit and vanpool service throughout whatcom county.",90cb3fb4-6fa7-4eac-adb4-5a3664fbfdb3,street_dup,125,1.0
86,f77c636d-b7c8-4d93-9e5b-1136feaaaa64,"work opportunities, inc.",192 east bakerview road,202,bellingham,wa,98226,http://www.workopportunities.org,"an agency which provides vocational rehabilitation and employment services to persons with mental, physical, emotional and sensory disabilities, so they might obtain the training and employment experiences they need to achieve economic self-sufficiency. www.workopportunities.org",7a4e11d8-fb8d-40b5-8ef4-c57c54bc9e8f,street_dup,5,0.47473001269749315
87,94e8fad6-977e-490c-8c48-417db8fa1da2,bellingham food bank,1824 ellis street,,bellingham,wa,98225,http://bellinghamfoodbank.org,"bellingham food bank provides emergency food to those in need residing in bellingham. it is the lead agency for whatcom county food banks in ferndale, lynden, everson, deming, blaine, and lummi island.",,,126,1.0
88,bfaf77dd-8990-4738-aa52-799fe0b835bb,bellingham food bank,1824 ellis st,,bellingham,wa,98225,http://bellinghamfoodbank.org,"bellingham food bank provides emergency food to those in need residing in bellingham. it is the lead agency for whatcom county food banks in ferndale, lynden, everson, deming, blaine, and lummi island.",94e8fad6-977e-490c-8c48-417db8fa1da2,street_dup,127,1.0
89,f4671d94-838c-47b9-baab-001d5468ea39,bellingham food bank,4173 meridian street,,bellingham,wa,98226,http://bellinghamfoodbank.org,"bellingham food bank provides emergency food to those in need residing in bellingham. it is the lead agency for whatcom county food banks in ferndale, lynden, everson, deming, blaine, and lummi island.",,,20,0.2822040886878334
90,ba25d498-2997-4667-bd4b-a34b6c41d3ac,bellingham food bank,4173 meridian st,,bellingham,wa,98226,http://bellinghamfoodbank.org,"bellingham food bank provides emergency food to those in need residing in bellingham. it is the lead agency for whatcom county food banks in ferndale, lynden, everson, deming, blaine, and lummi island.",f4671d94-838c-47b9-baab-001d5468ea39,street_dup,20,0.32492330351078247
91,dd41872b-3b71-407a-953e-5d621a41a3b0,bellingham food bank,2717 alderwood avenue,,bellingham,wa,98225,http://bellinghamfoodbank.org,"bellingham food bank provides emergency food to those in need residing in bellingham. it is the lead agency for whatcom county food banks in ferndale, lynden, everson, deming, blaine, and lummi island.",,,128,1.0
92,2bf48829-8717-463a-87c9-e1199c36e677,bellingham food bank,2717 alderwood ave,,bellingham,wa,98225,http://bellinghamfoodbank.org,"bellingham food bank provides emergency food to those in need residing in bellingham. it is the lead agency for whatcom county food banks in ferndale, lynden, everson, deming, blaine, and lummi island.",dd41872b-3b71-407a-953e-5d621a41a3b0,street_dup,129,1.0
93,a0bfddb4-80be-453c-8c1d-79ed0d513458,bellingham food bank,2020 cornwall avenue,,bellingham,wa,98225,http://bellinghamfoodbank.org,"bellingham food bank provides emergency food to those in need residing in bellingham. it is the lead agency for whatcom county food banks in ferndale, lynden, everson, deming, blaine, and lummi island.",,,130,1.0
94,41dfaa91-a587-425e-9c49-54cac63138a5,bellingham food bank,1175 jersey street,,bellingham,wa,98225,http://bellinghamfoodbank.org,"bellingham food bank provides emergency food to those in need residing in bellingham. it is the lead agency for whatcom county food banks in ferndale, lynden, everson, deming, blaine, and lummi island.",,,131,1.0
95,c54843a2-ecc1-4b50-880d-c4b79f9ecce1,bellingham food bank,1175 jersey st,,bellingham,wa,98225,http://bellinghamfoodbank.org,"bellingham food bank provides emergency food to those in need residing in bellingham. it is the lead agency for whatcom county food banks in ferndale, lynden, everson, deming, blaine, and lummi island.",41dfaa91-a587-425e-9c49-54cac63138a5,street_dup,132,1.0
96,daddda7c-8b16-4713-af98-13c7440a4b18,bellingham public library,210 central avenue,,bellingham,wa,98225,http://www.bellinghampubliclibrary.org,"provides library services, circulating 1.6 million items annually to more than 59,000 registered cardholders. it is a department of the city of bellingham and is funded by city taxes.",,,21,0.43269934338423865
97,f66b7c10-eb70-4134-ba75-aeb101effcf1,bellingham public library,210 central ave.,,bellingham,wa,98225,http://www.bellinghampubliclibrary.org,"provides library services, circulating 1.6 million items annually to more than 59,000 registered cardholders. it is a department of the city of bellingham and is funded by city taxes.",daddda7c-8b16-4713-af98-13c7440a4b18,street_dup,133,1.0
98,d0d0ea41-97cb-499f-b604-4beb722ab782,bellingham public library,1117 12th street,,bellingham,wa,98225,http://www.bellinghampubliclibrary.org,"provides library services, circulating 1.6 million items annually to more than 59,000 registered cardholders. it is a department of the city of bellingham and is funded by city taxes.",,,11,0.3721231353244062
99,ea449034-9c60-4fbd-840a-53506eeb9dd9,bellingham public library,1117 12th st.,,bellingham,wa,98225,http://www.bellinghampubliclibrary.org,"provides library services, circulating 1.6 million items annually to more than 59,000 registered cardholders. it is a department of the city of bellingham and is funded by city taxes.",d0d0ea41-97cb-499f-b604-4beb722ab782,street_dup,134,1.0
100,166b6305-d5aa-456f-9bdf-b3a332e5cae1,bellingham public library,3111 newmarket street,suite 103,bellingham,wa,98226,http://www.bellinghampubliclibrary.org,"provides library services, circulating 1.6 million items annually to more than 59,000 registered cardholders. it is a department of the city of bellingham and is funded by city taxes.",,,22,0.9988524217884777
101,58912172-bc67-4c77-ae87-0ff80499cb35,blue skies for children,2505 cedarwood avenue,suite 5,bellingham,wa,98225,http://www.blueskiesforchildren.org,"blue skies for children is a 501(c)3 organization located in whatcom county that grants little wishes for homeless, low-income and foster youth, ages 6-18.",,,135,1.0
102,72653354-85c7-4ea9-85b3-e560f7e92a38,camp fire samish,1321 king street,3,bellingham,wa,98229,http://www.campfiresamishcouncil.org,"camp fires all-inclusive programs provide a nurturing, constructive and fun environments for young people to discover their sparks - unique skills, passions, and interests through club programs, self-reliance classes, community service, and camp experiences.",,,136,1.0
103,02f84b74-cc07-4885-b5ca-cbcef6d3eafe,camp fire samish,1321 king str,3,bellingham,wa,98229,http://www.campfiresamishcouncil.org,"camp fires all-inclusive programs provide a nurturing, constructive and fun environments for young people to discover their sparks - unique skills, passions, and interests through club programs, self-reliance classes, community service, and camp experiences.",72653354-85c7-4ea9-85b3-e560f7e92a38,street_dup,137,1.0
104,48ee7121-cf67-4c31-ad3d-fb519a4e20d6,laurel church,162 w laurel rd,,bellingham,wa,98226,http://www.laurelchurch.us,provides basic needs to those in the community.,,,46,0.995375970450353
105,3a394ef7-602f-4170-b9bc-5954c4ba0ef0,lummi nation,2665 kwina road,,bellingham,wa,98226,https://www.lummi-nsn.gov,"coast salish people with a rich history, culture and traditions. fishers, hunters, gatherers, and harvesters of natures abundance. lummis envision their homeland as a place where they enjoy an abundant, safe, and healthy life in mind, body, society, environment, space, time and spirituality where all are encouraged to succeed and none are left behind.",,,138,1.0
106,9f6330e6-c0eb-496d-a7d1-c76c87dcbd29,ywca of bellingham,1026 n forest st,,bellingham,wa,98225,http://www.ywcabellingham.org,ywca bellingham provides emergency and transitional housing for single women in whatcom county.,,,139,1.0
107,7c816b96-811e-4f96-9315-55adf286512c,lummi nation,2616 kwina road,,bellingham,wa,98226,https://www.lummi-nsn.gov,"coast salish people with a rich history, culture and traditions. fishers, hunters, gatherers, and harvesters of natures abundance. lummis envision their homeland as a place where they enjoy an abundant, safe, and healthy life in mind, body, society, environment, space, time and spirituality where all are encouraged to succeed and none are left behind.",,,140,1.0
108,639f940d-ee9b-41ea-b74b-357d4c44f525,lummi nation,2616 kwina road,,bellingham,wa,98226,https://www.lummi-nsn.gov,"coast salish people with a rich history, culture and traditions. fishers, hunters, gatherers, and harvesters of natures abundance. lummis envision their homeland as a place where they enjoy an abundant, safe, and healthy life in mind, body, society, environment, space, time and spirituality where all are encouraged to succeed and none are left behind.",7c816b96-811e-4f96-9315-55adf286512c,street_dup,141,1.0
109,4d4c999d-df3a-49c5-ad03-eea59b881dc2,lummi nation,2830 kwina road,,bellingham,wa,98226,https://www.lummi-nsn.gov,"coast salish people with a rich history, culture and traditions. fishers, hunters, gatherers, and harvesters of natures abundance. lummis envision their homeland as a place where they enjoy an abundant, safe, and healthy life in mind, body, society, environment, space, time and spirituality where all are encouraged to succeed and none are left behind.",,,142,1.0
110,9504342f-df51-491a-86f1-305ddc47daad,lummi nation,2830 kwina rd,,bellingham,wa,98226,https://www.lummi-nsn.gov,"coast salish people with a rich history, culture and traditions. fishers, hunters, gatherers, and harvesters of natures abundance. lummis envision their homeland as a place where they enjoy an abundant, safe, and healthy life in mind, body, society, environment, space, time and spirituality where all are encouraged to succeed and none are left behind.",4d4c999d-df3a-49c5-ad03-eea59b881dc2,street_dup,143,1.0
111,b6669d6e-4407-432e-b188-1802c2d52c6e,lummi nation,2592 kwina road,,bellingham,wa,98226,https://www.lummi-nsn.gov,"coast salish people with a rich history, culture and traditions. fishers, hunters, gatherers, and harvesters of natures abundance. lummis envision their homeland as a place where they enjoy an abundant, safe, and healthy life in mind, body, society, environment, space, time and spirituality where all are encouraged to succeed and none are left behind.",,,144,1.0
112,389267fd-55d8-4e4d-b385-f97410966320,bloodworks northwest,410 w bakerview rd,suite 117,bellingham,wa,98226,http://www.bloodworksnw.org,collects blood from volunteer donors to support the needs and provide specialized health services to patients in western washington. mobile blood donor units are available for blood drives at organizations and businesses. seattle location coordinates a hemophilia summer camp for families.,,,6,0.45067077651672016
113,9fbb25ae-8b7c-432b-9551-8c13d671469d,bloodworks northwest,410 w bakerview rd.,suite 117,bellingham,wa,98226,http://www.bloodworksnw.org,collects blood from volunteer donors to support the needs and provide specialized health services to patients in western washington. mobile blood donor units are available for blood drives at organizations and businesses. seattle location coordinates a hemophilia summer camp for families.,389267fd-55d8-4e4d-b385-f97410966320,street_dup,6,0.42762195011975634
114,9c2060bb-03cd-4917-9ff3-b9973d9606e7,compass health - whatcom county,3645 east mcleod road,,bellingham,wa,98226,https://www.compasshealth.org,"community-based healthcare agency that behavioral health and medical care services to support clients and communities. addresses complex healthcare needs in partnership with first responders and other community organizations, and form a key section of the community safety net. provides comprehensive mental health treatment, supportive housing, childrens services, community education and much more.",,,7,0.5502167595052878
115,c289890e-7ad0-4aa7-a708-53a2be034db5,compass health - whatcom county,4350 cordata parkway,suite 100,bellingham,wa,98226,https://www.compasshealth.org,"community-based healthcare agency that behavioral health and medical care services to support clients and communities. addresses complex healthcare needs in partnership with first responders and other community organizations, and form a key section of the community safety net. provides comprehensive mental health treatment, supportive housing, childrens services, community education and much more.",,,145,1.0
116,3e91a1e0-65da-4872-a907-b3dd47fab29e,nooksack valley food bank,100 e 2nd street,,everson,wa,98247,,emergency food and food bank for residents of washington state mainly serving whatcom county residents.,,,23,0.7556234584061838
117,61ae33a3-022c-435e-a691-01feb9cd8062,nooksack valley food bank,100 e 2nd street,,everson,wa,98247,,emergency food and food bank for residents of washington state mainly serving whatcom county residents.,3e91a1e0-65da-4872-a907-b3dd47fab29e,street_dup,23,0.7556234584061838
118,8d509c19-52cb-4500-a381-55f14cee6bcb,dshs division of child support,4101 meridian street,,bellingham,wa,98226,http://dshs.wa.gov/dcs,establishes and enforces child support and health insurance obligations on behalf of minor dependent children from parents who are not the physical custodians of their children.,,,20,0.3239345458967833
119,d0f490db-0dc9-4bb9-a972-e0ed1751aa4b,dshs division of child support,4101 meridian st,,bellingham,wa,98226,http://dshs.wa.gov/dcs,establishes and enforces child support and health insurance obligations on behalf of minor dependent children from parents who are not the physical custodians of their children.,8d509c19-52cb-4500-a381-55f14cee6bcb,street_dup,20,0.33779950217140375
120,8d6e4d82-81ee-4fd8-aa25-7975adac0055,project hope,205 south british columbia avenue,suite 105,lynden,wa,98264,https://www.projecthopelynden.org,"assists individuals and families living with the lynden area (lynden school district boundaries) who are struggling with food insufficiency. community assistance program helps community member with short-term, emergency assistance which may include utilities, rent, clothing, household goods, laundry, and fuel.",,,146,1.0
121,549266a6-0506-4c91-b79a-4f85af5a19a1,ferndale food bank,1671 main street,wta transfer station property,ferndale,wa,98248,http://www.ferndalefoodbank.org,"food bank serving the ferndale, custer, and north bellingham areas.",,,24,0.559143780463266
122,91591b1e-5e4c-451f-a35a-f460ad9cfc10,northwest youth services,1020 north state street,,bellingham,wa,98225,http://www.nwys.org/,"offers housing, street outreach, help finding a job or enrolling in school, connection to mental health services, support for lgbtq youth, restorative justice for juvenile respondents, and referrals to other services in the community. serves young people ages 13-24 experiencing homelessness in whatcom and skagit counties.",,,147,1.0
123,1f2cb7df-9946-4019-9550-9af851b77f2f,northwest youth services,1020 north state str,,bellingham,wa,98225,http://www.nwys.org/,"offers housing, street outreach, help finding a job or enrolling in school, connection to mental health services, support for lgbtq youth, restorative justice for juvenile respondents, and referrals to other services in the community. serves young people ages 13-24 experiencing homelessness in whatcom and skagit counties.",91591b1e-5e4c-451f-a35a-f460ad9cfc10,street_dup,148,1.0
124,094ccb3a-2adc-4faf-90b3-8923a7478187,ywca of bellingham,1026 n forest str,,bellingham,wa,98225,http://www.ywcabellingham.org,ywca bellingham provides emergency and transitional housing for single women in whatcom county.,9f6330e6-c0eb-496d-a7d1-c76c87dcbd29,street_dup,149,1.0
125,1d9b341c-8c7f-4857-a869-48c004682328,habitat for humanity in whatcom county,1825 cornwall avenue,,bellingham,wa,98225,http://www.hfhwhatcom.org,"habitat works in partnership with families in need and community volunteers, businesses, churches and other civic organizations. we repair, build, and sell houses at cost, with no-profit, interest-free mortgages, so that families can live and grow into all that god intends.",,,150,1.0
126,4d4d9466-1419-433c-ad3c-ba36a1f2ffeb,re store,2309 meridian st,,bellingham,wa,98225,http://www.re-store.org,"helps homeowners and contractors save money on disposal costs, providing the public with quality used building materials at affordable prices while reducing waste, saving resources and generating jobs.",,,151,1.0
127,3eb80c98-2797-4ad2-89b5-182d8b5fdd73,re store,2309 meridian street,,bellingham,wa,98225,http://www.re-store.org,"helps homeowners and contractors save money on disposal costs, providing the public with quality used building materials at affordable prices while reducing waste, saving resources and generating jobs.",4d4d9466-1419-433c-ad3c-ba36a1f2ffeb,street_dup,152,1.0
128,e29eaa34-545a-45be-91d7-9ab0ee992907,dshs community services offices,4101 meridian ave,,bellingham,wa,98226,https://www.dshs.wa.gov/food-cash-medical,"helps people achieve and maintain self-sufficiency by providing financial assistance for food, medical expenses and id cards to those who are eligible. also provides limited cash assistance. additional programs available for refugees, families and people with disabilities.",,,153,1.0
129,3aa573be-7491-4f80-9f2e-20af9424dc16,dshs division of vocational rehabilitation,4101 meridian ave,,bellingham,wa,98226,http://dshs.wa.gov/dvr,"helps people with disabilities prepare for, obtain and retain employment. works in partnership with the community and businesses to develop employment opportunities for people who have disabilities.",,,154,1.0
130,908cf8af-fc05-4404-a197-800cc88609d8,dshs division of vocational rehabilitation,4101 meridian ave.,,bellingham,wa,98226,http://dshs.wa.gov/dvr,"helps people with disabilities prepare for, obtain and retain employment. works in partnership with the community and businesses to develop employment opportunities for people who have disabilities.",3aa573be-7491-4f80-9f2e-20af9424dc16,street_dup,155,1.0
131,14117857-6bea-43b0-8a36-2a94a8f1c9fc,dshs aging and long-term support administrations home and community services,2219 rimland drive,suite 419,bellingham,wa,98226,https://www.dshs.wa.gov/altsa/home-and-community-services/agencies-helphcs,helps vulnerable and dependent adults by funding personal care services in a variety of settings. investigates reports of adult abuse and neglect.,,,47,0.7065061950874384
132,637b35de-c004-4eb4-b411-8afbb8c56c6b,journey housing and payee services,1515 cornwall avenue,,bellingham,wa,98225,https://journeyhousingandpayee.org,"journey housing and payee services, an everett-based non-profit company, creates affordable housing programs that empower people living with developmental disabilities to discover their potential, live independently with supportive services and engage in community life. journey also operates a payee service providing representative payee services to washington residents who need assistance in managing their personal financial affairs. the main mission of the organization is to provide housing, which they accomplish as a property management agency and as a payee service, prioritizing the payment of rent and utilities to assist people in keeping their housing.",,,156,1.0
133,7f761e81-bd92-446b-834f-0c37e1c59244,journey housing and payee services,1515 cornwall avenue,,bellingham,wa,98225,https://journeyhousingandpayee.org,"journey housing and payee services, an everett-based non-profit company, creates affordable housing programs that empower people living with developmental disabilities to discover their potential, live independently with supportive services and engage in community life. journey also operates a payee service providing representative payee services to washington residents who need assistance in managing their personal financial affairs. the main mission of the organization is to provide housing, which they accomplish as a property management agency and as a payee service, prioritizing the payment of rent and utilities to assist people in keeping their housing.",637b35de-c004-4eb4-b411-8afbb8c56c6b,street_dup,157,1.0
134,60ab519d-5e01-482d-b04f-32424ed3c8cf,lake whatcom residential and treatment center,3600 meridian street,,bellingham,wa,98225,http://lwrtc.org,"lake whatcom center (lwc), located in bellingham, washington, is a dshs licensed not-for-profit organization providing an array of residential and community mental health services to adults with severe and persistent mental illness in whatcom and surrounding counties.",,,158,1.0
135,128d3995-cb55-497b-a4d9-bb9b6d4d2656,lake whatcom residential and treatment center,3400 agate heights road,,bellingham,wa,98226,http://lwrtc.org,"lake whatcom center (lwc), located in bellingham, washington, is a dshs licensed not-for-profit organization providing an array of residential and community mental health services to adults with severe and persistent mental illness in whatcom and surrounding counties.",,,159,1.0
136,4fac7172-c7e4-408c-bcdf-421801c7c667,lake whatcom residential and treatment center,3400 agate heights road,,bellingham,wa,98226,http://lwrtc.org,"lake whatcom center (lwc), located in bellingham, washington, is a dshs licensed not-for-profit organization providing an array of residential and community mental health services to adults with severe and persistent mental illness in whatcom and surrounding counties.",128d3995-cb55-497b-a4d9-bb9b6d4d2656,street_dup,160,1.0
137,ffa34c38-6d90-492c-943f-2678ee9a1c0b,lifeline connections,4120 meridian street,220,bellingham,wa,98226,https://lifelineconnections.org/,offers outpatient and residential substance use disorder and mental health treatment services.,,,18,0.6560308066283743
138,a9ba0380-9907-4146-bf90-46d16b7830a7,lighthouse mission ministries,910 west holly street,,bellingham,wa,98225,http://www.thelighthousemission.org,"operates a crisis homeless shelter for men, women, and children. assess and address the underlying causes that lead to homelessness for its guests. offers three meals a day, shelter, and access to life skills classes, case management, and recovery support for homeless men, women, and children.",,,161,1.0
139,93645eea-212f-46f4-9018-c20131a4baef,lighthouse mission ministries,910 west holly str,,bellingham,wa,98225,http://www.thelighthousemission.org,"operates a crisis homeless shelter for men, women, and children. assess and address the underlying causes that lead to homelessness for its guests. offers three meals a day, shelter, and access to life skills classes, case management, and recovery support for homeless men, women, and children.",a9ba0380-9907-4146-bf90-46d16b7830a7,street_dup,162,1.0
140,91f814bf-6169-4c35-bd16-13534d83591c,lighthouse mission ministries,1530 cornwall avenue,,bellingham,wa,98225,http://www.thelighthousemission.org,"operates a crisis homeless shelter for men, women, and children. assess and address the underlying causes that lead to homelessness for its guests. offers three meals a day, shelter, and access to life skills classes, case management, and recovery support for homeless men, women, and children.",,,25,0.20117427281207834
141,56d149cd-93cd-4370-a003-8b80996171ef,lighthouse mission ministries,1530 cornwall ave,,bellingham,wa,98225,http://www.thelighthousemission.org,"operates a crisis homeless shelter for men, women, and children. assess and address the underlying causes that lead to homelessness for its guests. offers three meals a day, shelter, and access to life skills classes, case management, and recovery support for homeless men, women, and children.",91f814bf-6169-4c35-bd16-13534d83591c,street_dup,25,0.2147053862682362
142,1c799511-a339-421d-935e-e24ac3712bb3,social security administration,710 alabama street,,bellingham,wa,98225,https://www.ssa.gov/seattle/index.htm,"manages application and administration offices for federal social security, supplemental security income (ssi), medicare, medicare part d/extra help, social security disability income (ssdi) and survivor and death benefits programs.",,,163,1.0
143,d3d25271-c8b2-46ec-b289-18cc6ab8329e,nami whatcom,800 east chestnut street,1c,bellingham,wa,98225,http://www.namiwhatcom.org,"nami whatcom county is an affiliate of nami, the national alliance on mental illness, the nations largest grassroots mental health organization dedicated to building better lives for the millions of americans affected by mental illness. our mission is to encourage recovery and reintegration of persons with mental illnesses and to provide support, education, and advocacy for persons with mental illness and their families. nami whatcom county is fully inclusive of individuals with mental illness and their families of all backgrounds and cultures. the mission of nami whatcom county is to provide hope and improve the quality of life for those affected by mental illness through support, education and advocacy. nami whatcom county provides support for persons affected by mental illness in numerous ways. we offer numerous programs and resources that encompass our values that support our mission. our programs consist of the following free support groups, classes, and education opportunities.",,,1,0.5877402792278629
144,7e3afbe8-52f4-45d7-adb3-a4966e5070fc,nami whatcom,800 east chestnut street,1c,bellingham,wa,98225,http://www.namiwhatcom.org,"nami whatcom county is an affiliate of nami, the national alliance on mental illness, the nations largest grassroots mental health organization dedicated to building better lives for the millions of americans affected by mental illness. our mission is to encourage recovery and reintegration of persons with mental illnesses and to provide support, education, and advocacy for persons with mental illness and their families. nami whatcom county is fully inclusive of individuals with mental illness and their families of all backgrounds and cultures. the mission of nami whatcom county is to provide hope and improve the quality of life for those affected by mental illness through support, education and advocacy. nami whatcom county provides support for persons affected by mental illness in numerous ways. we offer numerous programs and resources that encompass our values that support our mission. our programs consist of the following free support groups, classes, and education opportunities.",d3d25271-c8b2-46ec-b289-18cc6ab8329e,street_dup,1,0.5877402792278629
145,38ae112a-2c29-4980-8f2f-d2cd9c787f15,salvation army - bellingham,2912 northwest avenue,,bellingham,wa,98225,https://bellingham.salvationarmy.org,non-profit multi service center.,,,48,0.9874510894173472
146,03fbaf7c-0f44-4940-8511-e2ea20cd0c03,salvation army - bellingham,1515 birchwood avenue,,bellingham,wa,98225,https://bellingham.salvationarmy.org,non-profit multi service center.,,,164,1.0
147,16c21928-ee4d-466a-990d-432503edc0aa,salvation army - bellingham,1515 birchwood ave,,bellingham,wa,98225,https://bellingham.salvationarmy.org,non-profit multi service center.,03fbaf7c-0f44-4940-8511-e2ea20cd0c03,street_dup,165,1.0
148,62a6b152-25b9-426c-8319-f3c88434feb1,alcoholics anonymous western washington area 72,1225 east sunset drive,suite 145-745,bellingham,wa,98226,http://www.area72aa.org,lists 12-step support groups for alcoholics. some meetings have interpreters for individuals who are hard of hearing. provides information about aa meetings throughout western washington.,,,166,1.0
149,cdb3beda-7095-4746-a992-7e053588b9b8,worksource whatcom,101 prospect street,,bellingham,wa,98225,https://www.worksourcewa.com,"offers a comprehensive job center providing workshops and seminars that are fun and informative in a casual atmosphere. topics include: job search strategies, skills and abilities analysis, perfecting applications, effective resumes, and cover letters, interviewing techniques, computer classes and weekly job networking club. also provides free technology use for your career exploration and job searching needs. computers with internet access, assessment, and interview practice software, create and print your resume and other employment-related documents, fax applications to employers. copiers (limited to 4 copies) and phones are available explicitly for job search. unemployment insurance information for questions or to file an unemployment insurance claim by phone: 1-800-318-6022 online: www.esd.wa.gov online resources - worksourcewa.com - find hundreds of available jobs, apply for local, state and national jobs, post your resume online for employers to view, discover job search strategies for success. employment training programs more intensive services and programs are available through worksource for qualifying low income young people, adults, and workers age 55 and better dislocated workers displaced homemakers veterans, individuals with a disability migrant agricultural workers ex-offenders and others. business services worksource provides human resource assistance, help during layoffs, and access to resources for business development. - assistance with finding qualified applicants - activities to market your current job openings - private rooms at worksource centers for interviewing candidates - resources for staff development and employee skills assessment - assistance when dealing with company closures and layoffs - access to current labor market information and local economic trends - business resources for working with people with disabilities, obtaining tax credits, addressing human resource needs, etc. - customized solutions for your business needs worksource is open to the public. the center is an adult learning environment. please remember, resource lobby is for job search, career exploration, training research, unemployment insurance activities. use is monitored. worksource is an equal opportunity employer and provider of employment and training services. auxiliary aids and services are available upon request to persons of disability.",,,167,1.0
150,a83b4cc0-535d-4d4a-98ee-5802355c1e7e,whatcom council on aging,315 halleck st,,bellingham,wa,98225,https://whatcomcoa.org,"provides nutrition, preventative health, and senior center services. whatcom council on aging is a non-profit organization serving the needs of seniors in whatcom county. this includes senior center programming, the whatcom san juan nutrition program (meals on wheels and senior lunches), and the wellness program for lectures, health screenings and strength training classes.",,,168,1.0
151,c5121f1f-8ad2-46e1-8c60-a27c6894c832,united way of whatcom county,1500 cornwall ave. ste 203,,bellingham,wa,98225,http://www.unitedwaywhatcom.org,"we all win when a child succeeds, when a neighborhood turns around, and when everyone is in good health. this is united way of whatcom countys vision for a strong community. united way of whatcom county is using a variety of tactics and information on current issues to change lives and solve community-wide conditions by focusing on specific goals in education, income, and health.",,,169,1.0
152,f6abeafa-f190-42d8-80d2-7f2080e22800,united way of whatcom county,1500 cornwall ave. ste 203,,bellingham,wa,98225,http://www.unitedwaywhatcom.org,"we all win when a child succeeds, when a neighborhood turns around, and when everyone is in good health. this is united way of whatcom countys vision for a strong community. united way of whatcom county is using a variety of tactics and information on current issues to change lives and solve community-wide conditions by focusing on specific goals in education, income, and health.",c5121f1f-8ad2-46e1-8c60-a27c6894c832,street_dup,170,1.0
153,33526e9e-68e6-4819-8ebb-1d2559637ae7,worksource whatcom,101 prospect str.,,bellingham,wa,98225,https://www.worksourcewa.com,"offers a comprehensive job center providing workshops and seminars that are fun and informative in a casual atmosphere. topics include: job search strategies, skills and abilities analysis, perfecting applications, effective resumes, and cover letters, interviewing techniques, computer classes and weekly job networking club. also provides free technology use for your career exploration and job searching needs. computers with internet access, assessment, and interview practice software, create and print your resume and other employment-related documents, fax applications to employers. copiers (limited to 4 copies) and phones are available explicitly for job search. unemployment insurance information for questions or to file an unemployment insurance claim by phone: 1-800-318-6022 online: www.esd.wa.gov online resources - worksourcewa.com - find hundreds of available jobs, apply for local, state and national jobs, post your resume online for employers to view, discover job search strategies for success. employment training programs more intensive services and programs are available through worksource for qualifying low income young people, adults, and workers age 55 and better dislocated workers displaced homemakers veterans, individuals with a disability migrant agricultural workers ex-offenders and others. business services worksource provides human resource assistance, help during layoffs, and access to resources for business development. - assistance with finding qualified applicants - activities to market your current job openings - private rooms at worksource centers for interviewing candidates - resources for staff development and employee skills assessment - assistance when dealing with company closures and layoffs - access to current labor market information and local economic trends - business resources for working with people with disabilities, obtaining tax credits, addressing human resource needs, etc. - customized solutions for your business needs worksource is open to the public. the center is an adult learning environment. please remember, resource lobby is for job search, career exploration, training research, unemployment insurance activities. use is monitored. worksource is an equal opportunity employer and provider of employment and training services. auxiliary aids and services are available upon request to persons of disability.",cdb3beda-7095-4746-a992-7e053588b9b8,street_dup,171,1.0
154,a7e1c8b9-bd56-4e3a-b535-6fd103c4bbf4,seattle goodwill,1115 e. sunset dr.,,bellingham,wa,98226,https://seattlegoodwill.org/,"offers adult basic education programs, esl classes, ged preparation and basic computer skill classes at four area job training centers. in addition, offers a retail and customer service training program for adults.",,,172,1.0
155,b319f466-5117-4944-8a5b-9df3b67fbbc3,whatcom dream,1846 iron street,,bellingham,wa,98225,http://thewhatcomdream.org,"offers financial literacy classes, covering the following topics: values, budgeting, goal setting, banking, debt reduction, credit repair, consumerism, insurance, transportation, home ownership, retirement and investing. classes, meet once a week and are open to the public.",,,173,1.0
156,623a53ff-a98e-4ec3-825d-74f911cc1fe2,whatcom dream,1846 iron str,,bellingham,wa,98225,http://thewhatcomdream.org,"offers financial literacy classes, covering the following topics: values, budgeting, goal setting, banking, debt reduction, credit repair, consumerism, insurance, transportation, home ownership, retirement and investing. classes, meet once a week and are open to the public.",b319f466-5117-4944-8a5b-9df3b67fbbc3,street_dup,174,1.0
157,a0f8e8f4-6b99-4896-8631-53453f99b30b,washington state department of labor industries,1720 ellis st,suite 200,bellingham,wa,98225,http://lni.wa.gov,"offers vocational rehabilitation services to qualified injured workers. pays medical bills of workers injured on the job and compensates for time lost. provides disability awards and pensions for workers injured on the job when the job injury results in a permanent inability to work. works to resolve complaints regarding mobile housing, factory-built housing and recreational vehicles.",,,45,0.693660399409406
158,bdd028e1-30c5-4579-836c-ca63925e1118,washington state department of labor industries,1720 ellis st,suite 200,bellingham,wa,98225,http://lni.wa.gov,"offers vocational rehabilitation services to qualified injured workers. pays medical bills of workers injured on the job and compensates for time lost. provides disability awards and pensions for workers injured on the job when the job injury results in a permanent inability to work. works to resolve complaints regarding mobile housing, factory-built housing and recreational vehicles.",a0f8e8f4-6b99-4896-8631-53453f99b30b,street_dup,45,0.693660399409406
159,576befcf-2c84-4d48-93b2-18316a32fcd9,old town christian ministries,1704 north state street,,bellingham,wa,98225,,old town christian ministries began in 1980 as an outreach to homeless people in whatcom county.,,,12,0.8208420382602595
160,0abe7ffd-e65c-407f-bbea-28128ed9fe7c,old town christian ministries,1704 north state str,,bellingham,wa,98225,,old town christian ministries began in 1980 as an outreach to homeless people in whatcom county.,576befcf-2c84-4d48-93b2-18316a32fcd9,street_dup,12,0.8109215749992491
161,75d8b091-957f-44bc-964f-f549ebaf449c,"washington state department of children, youth families child welfare system","1720 ellis st., suite 100",,bellingham,wa,98225,https://www.dcyf.wa.gov,operates a child abuse hotline. provides child protective services. also provides family reconciliation services to families with adolescents who have run away or are experiencing family conflict. connects families interested in adopting with children in dshs custody. maintains a separate office for indian child welfare.,,,175,1.0
162,0e320a48-0794-4a7e-875a-5755e12c6c15,first baptist church - bellingham,110 flora street,,bellingham,wa,98225,http://firstbaptistbellingham.com/connect/tuesday-meal,provides a hot meal for anyone in need.,,,176,1.0
163,7c91c52e-c9c6-44ae-9aa2-e103630ce845,arc of whatcom county,2602 mcleod road,,bellingham,wa,98225,http://www.arcwhatcom.org,"provides advocacy, information and referral, parent support and limited financial assistance to persons with developmental disabilities and their families.",,,8,0.3976655015188576
164,2fd2c068-5fa8-4887-8bf7-55fb76c55c31,arc of whatcom county,2602 mcleod road,,bellingham,wa,98225,http://www.arcwhatcom.org,"provides advocacy, information and referral, parent support and limited financial assistance to persons with developmental disabilities and their families.",7c91c52e-c9c6-44ae-9aa2-e103630ce845,street_dup,8,0.3976655015188576
165,25c6ef01-79e7-4cd8-ba0d-58b4f7278f2c,"hearing, speech deaf center",114 west magnolia street,suite 106,bellingham,wa,98225,http://hsdc.org,"provides audiology and hearing aids, speech therapy, case management and advocacy for the deaf and hard of hearing, early childhood education, sign language interpreting, and assistive technology.",,,26,0.40803087179351805
166,1131666d-5a05-4a9a-9a72-e63e7191554a,blaine school district,765 h street,,blaine,wa,98230,http://www.blainesd.org,public school district.,,,177,1.0
167,3ed1f781-3516-4e91-8fc9-7dcee74af633,blaine school district,765 h str,,blaine,wa,98230,http://www.blainesd.org,public school district.,1131666d-5a05-4a9a-9a72-e63e7191554a,street_dup,178,1.0
168,ba315303-cd12-4482-8631-6814d87e044e,law advocates,1415 commercial street,,bellingham,wa,98225,http://www.lawadvocates.org,provides free civil legal assistance to low-income whatcom county residents by linking them with attorney and community volunteers.,,,179,1.0
169,341ca68a-bf9a-48c2-9be9-5323d74a5b2a,law advocates,210 central avenue,,bellingham,wa,98225,http://www.lawadvocates.org,provides free civil legal assistance to low-income whatcom county residents by linking them with attorney and community volunteers.,,,21,0.4214926075207196
170,7ce380b9-2723-488f-8902-7682bedfe145,law advocates,210 central ave.,,bellingham,wa,98225,http://www.lawadvocates.org,provides free civil legal assistance to low-income whatcom county residents by linking them with attorney and community volunteers.,341ca68a-bf9a-48c2-9be9-5323d74a5b2a,street_dup,21,0.382791736389236
171,a8414d3d-b33a-4509-ae62-17737e087eb5,law advocates,311 grand avenue,5th floor,bellingham,wa,98225,http://www.lawadvocates.org,provides free civil legal assistance to low-income whatcom county residents by linking them with attorney and community volunteers.,,,13,0.7939255951346043
172,a29a5b0f-b725-4d15-8111-f802ff28ef93,sea mar community health centers,3350 airport drive,,bellingham,wa,98226,https://www.seamar.org/,"provides comprehensive medical, dental, family health planning and social services. multilingual family health workers provide health advocacy and community resource education for limited english-speaking seniors. provides chemical dependency treatment services. outpatient behavioral health clinics provide individual and family counseling, youth anger management, as well as bilingual domestic violence survivor and chemical dependency support groups. operates a combined head start/eceap preschool classroom. provides wic services.",,,180,1.0
173,511b4734-66e3-478e-86b0-9c25bbafbcc4,sea mar community health centers,6884 hannegan road,,everson,wa,98247,https://www.seamar.org/,"provides comprehensive medical, dental, family health planning and social services. multilingual family health workers provide health advocacy and community resource education for limited english-speaking seniors. provides chemical dependency treatment services. outpatient behavioral health clinics provide individual and family counseling, youth anger management, as well as bilingual domestic violence survivor and chemical dependency support groups. operates a combined head start/eceap preschool classroom. provides wic services.",,,181,1.0
174,8c67b97a-5188-4781-aac1-2116c9635be4,sea mar community health centers,6884 hannegan rd,,everson,wa,98247,https://www.seamar.org/,"provides comprehensive medical, dental, family health planning and social services. multilingual family health workers provide health advocacy and community resource education for limited english-speaking seniors. provides chemical dependency treatment services. outpatient behavioral health clinics provide individual and family counseling, youth anger management, as well as bilingual domestic violence survivor and chemical dependency support groups. operates a combined head start/eceap preschool classroom. provides wic services.",511b4734-66e3-478e-86b0-9c25bbafbcc4,street_dup,182,1.0
175,57c8a36d-b1e1-4d1d-b9dd-066dd4197732,sea mar community health centers,1603 east illinois street,,bellingham,wa,98226,https://www.seamar.org/,"provides comprehensive medical, dental, family health planning and social services. multilingual family health workers provide health advocacy and community resource education for limited english-speaking seniors. provides chemical dependency treatment services. outpatient behavioral health clinics provide individual and family counseling, youth anger management, as well as bilingual domestic violence survivor and chemical dependency support groups. operates a combined head start/eceap preschool classroom. provides wic services.",,,183,1.0
176,760d0509-bb86-4ab1-b975-a8a6e45d2a31,sea mar community health centers,4455 cordata parkway,,bellingham,wa,98226,https://www.seamar.org/,"provides comprehensive medical, dental, family health planning and social services. multilingual family health workers provide health advocacy and community resource education for limited english-speaking seniors. provides chemical dependency treatment services. outpatient behavioral health clinics provide individual and family counseling, youth anger management, as well as bilingual domestic violence survivor and chemical dependency support groups. operates a combined head start/eceap preschool classroom. provides wic services.",,,184,1.0
177,f211e48c-2c66-4f63-8e0e-a1da72bbbd1b,sea mar community health centers,6046 portal way,,ferndale,wa,98248,https://www.seamar.org/,"provides comprehensive medical, dental, family health planning and social services. multilingual family health workers provide health advocacy and community resource education for limited english-speaking seniors. provides chemical dependency treatment services. outpatient behavioral health clinics provide individual and family counseling, youth anger management, as well as bilingual domestic violence survivor and chemical dependency support groups. operates a combined head start/eceap preschool classroom. provides wic services.",,,51,0.36749808453169386
178,873e569f-4cdf-4994-827a-b3138060986b,sea mar community health centers,6046 portal way,,ferndale,wa,98248,https://www.seamar.org/,"provides comprehensive medical, dental, family health planning and social services. multilingual family health workers provide health advocacy and community resource education for limited english-speaking seniors. provides chemical dependency treatment services. outpatient behavioral health clinics provide individual and family counseling, youth anger management, as well as bilingual domestic violence survivor and chemical dependency support groups. operates a combined head start/eceap preschool classroom. provides wic services.",f211e48c-2c66-4f63-8e0e-a1da72bbbd1b,street_dup,51,0.36749808453169386
179,f5ad9b69-b239-4c74-aa16-04756a92d501,sea mar community health centers,1764 iowa street,,bellingham,wa,98229,https://www.seamar.org/,"provides comprehensive medical, dental, family health planning and social services. multilingual family health workers provide health advocacy and community resource education for limited english-speaking seniors. provides chemical dependency treatment services. outpatient behavioral health clinics provide individual and family counseling, youth anger management, as well as bilingual domestic violence survivor and chemical dependency support groups. operates a combined head start/eceap preschool classroom. provides wic services.",,,50,0.4554493314736592
180,5e4af841-0110-43f5-bdfc-fa781328503d,planned parenthood,1530 ellis st.,,bellingham,wa,98225,http://ppgnhi.org,"provides contraception options, pregnancy testing and the hpv vaccine. offers pregnancy options counseling. also offers preventive health care screenings such as breast and pelvic exams, pap smears, and std testing. hiv testing is provided. services are confidential.",,,185,1.0
181,4b20aac8-adb0-47b8-9221-c64b02a4c198,planned parenthood,1530 ellis str.,,bellingham,wa,98225,http://ppgnhi.org,"provides contraception options, pregnancy testing and the hpv vaccine. offers pregnancy options counseling. also offers preventive health care screenings such as breast and pelvic exams, pap smears, and std testing. hiv testing is provided. services are confidential.",5e4af841-0110-43f5-bdfc-fa781328503d,street_dup,186,1.0
182,3ac5da69-abaa-408e-bb4b-6e764197671a,lutheran counseling network,2600 lakeway drive,christ the servant lutheran church,bellingham,wa,98229,http://www.lutherancounseling.net,"provides counseling to individuals, couples and families at several lutheran churches around puget sound. provides couples therapy and counseling, and therapy for individuals and families, addressing such areas as anxiety, depression, behavioral problems, trauma recovery, parenting, sexuality and spirituality.",,,43,0.4387392874297872
183,cf70f33a-67f9-422c-bc3d-3dac30ac1c2a,ideal option,3800 byron avenue,suite 122,bellingham,wa,98229,https://www.idealoption.com/,"provides full service medical treatment for substance use disorder, including buprenorphine program for those with opioid addictions.",,,52,0.495022869250239
184,aa7b594c-ccd0-4634-94e4-5ba24c1dfb25,ideal option,3800 byron ave,suite 122,bellingham,wa,98229,https://www.idealoption.com/,"provides full service medical treatment for substance use disorder, including buprenorphine program for those with opioid addictions.",cf70f33a-67f9-422c-bc3d-3dac30ac1c2a,street_dup,52,0.5206500029214645
185,9072619a-78ad-4084-a63e-64f194fc590a,internal revenue service,114 west magnolia street,,bellingham,wa,98225,https://www.irs.gov/help/contact-my-local-office-in-washington,provides information for taxpayers with questions regarding their irs taxes.,,,187,1.0
186,0d506900-7c5a-4d1b-bc9c-5a7463fdc763,veterans affairs puget sound health care system,3800 byron ave,suite 124,bellingham,wa,98229,http://www.pugetsound.va.gov/,"provides inpatient, outpatient and emergency services to meet the medical, surgical and psychiatric needs of eligible veterans, including evaluation, assessment and treatment for substance abuse. three king county outpatient clinics provide primary care, mental health services and social work services.",,,52,0.6583241595263165
187,813369ef-5d62-4349-817c-9d578122d3c2,"answers counseling, consultation and case management",4101 guide meridian,,bellingham,wa,98226,https://www.answerscounseling.org/,"located in eight counties and provide home visiting nursing, behavioral health, dietetic and community health services.",,,188,1.0
188,507fa979-4a4c-4f1a-8ccd-29dad946205c,"answers counseling, consultation and case management",4101 guide meridian,,bellingham,wa,98226,https://www.answerscounseling.org/,"located in eight counties and provide home visiting nursing, behavioral health, dietetic and community health services.",813369ef-5d62-4349-817c-9d578122d3c2,street_dup,189,1.0
189,ac1f8659-b064-4418-92e0-055d8cdf30cd,bellingham community meal program,2116 cornwall avenue,,bellingham,wa,98225,https://www.assumption.org,provides once a month meals jan-oct to needy individuals and families.,,,190,1.0
190,14db339a-b693-422b-8f84-075a4d3d5f16,pioneer human services,2026 division street,,bellingham,wa,98226,http://pioneerhumanservices.org,"provides a chance for change to people overcoming the challenges of conviction histories, substance use disorders and mental health issues by offering treatment, housing, training and employment services. our vision is a world free from injustice, discrimination and mass incarceration, where everyone has the health, acceptance and opportunity to live their lives to their fullest potential.",,,191,1.0
191,eca2523c-d159-44ac-95c1-0c3d90e30f40,saint pauls episcopal church,2116 walnut street,,bellingham,wa,98225,http://stpaulsbellingham.org,"provides small amounts of emergency financial assistance for transportation, food, utilities and other emergency needs. no support for hotels and car repairs. very limited support for rent or large (200) utility bills from a network of churches.",,,53,0.45847273564675606
192,9afe5a01-e5eb-4751-b2db-d039156d73ea,saint pauls episcopal church,2116 walnut str.,,bellingham,wa,98225,http://stpaulsbellingham.org,"provides small amounts of emergency financial assistance for transportation, food, utilities and other emergency needs. no support for hotels and car repairs. very limited support for rent or large (200) utility bills from a network of churches.",eca2523c-d159-44ac-95c1-0c3d90e30f40,street_dup,192,1.0
193,2d48f1be-6594-4b73-a33c-78de5aaa4b60,whatcom-skagit housing,1971 midway lane,suite c,bellingham,wa,98226,http://www.whatcomskagithousing.com,"provides technical assistance to qualified families who wish to build their own homes in cooperative groups. six to ten very-low to low income families are recruited and assisted in applying for individual home loans, selecting designs, and acquiring construction skills. participating families make a weekly labor commitment of 35 hours. program meets federal requirements of usda rural development. serves whatcom skagit counties.",,,54,0.474729984998703
194,df9b28e8-3606-48c8-82ef-7fc5f5f36c7f,whatcom-skagit housing,1971 midway lane,suite c,bellingham,wa,98226,http://www.whatcomskagithousing.com,"provides technical assistance to qualified families who wish to build their own homes in cooperative groups. six to ten very-low to low income families are recruited and assisted in applying for individual home loans, selecting designs, and acquiring construction skills. participating families make a weekly labor commitment of 35 hours. program meets federal requirements of usda rural development. serves whatcom skagit counties.",2d48f1be-6594-4b73-a33c-78de5aaa4b60,street_dup,54,0.474729984998703
195,013eb728-ef46-4272-9acf-c480a4ff7575,whatcom unified emergency coordination center,3888 sound way,,bellingham,wa,98226,http://www.whatcomready.org,provides website information on emergency management and disaster preparedness as well as road closure and disaster kit lists for families and individuals living in the whatcom county area,,,193,1.0
196,56215f63-45ee-49b0-a4e8-7b36353d6fc1,wsu extension - whatcom county,1000 n forest st,suite 201,bellingham,wa,98225,https://extension.wsu.edu/whatcom,provides wellness and agricultural programs to residents of whatcom county.,,,27,0.47473001269749315
197,46df9e1d-25db-4c4c-bdf3-f910e8ecc943,meridian school district,214 west laurel road,,bellingham,wa,98226,http://www.meridian.wednet.edu/,public school district.,,,194,1.0
198,9e84fd15-d49e-4d4a-8315-6a0a319cd9d5,meridian school district,214 west laurel rd.,,bellingham,wa,98226,http://www.meridian.wednet.edu/,public school district.,46df9e1d-25db-4c4c-bdf3-f910e8ecc943,street_dup,195,1.0
199,cda7553c-0ecb-4cb5-ac20-aca4a266697d,meridian school district,954 east hemmi road,,everson,wa,98247,http://www.meridian.wednet.edu/,public school district.,,,196,1.0
200,0eb92fc8-c5c1-4a27-9156-966517d8ebf6,ferndale community service cooperative,5694 2nd avenue,,ferndale,wa,98248,http://www.ferndalecsc.org,"offer opportunities to receive and give support to vulnerable families and individuals, including assistance applying for dshs benefits, worksource, and housing. homeless assistance includes shower vouchers, bus vouchers, referrals and assistance to appropriate programs. family support programs, financial literacy programs, mental health support group, drug and alcohol counseling.",,,197,1.0
201,7d45623d-2ea6-4ade-a761-4d79e6cd8377,ferndale community service cooperative,5694 2nd avenue,,ferndale,wa,98248,http://www.ferndalecsc.org,"offer opportunities to receive and give support to vulnerable families and individuals, including assistance applying for dshs benefits, worksource, and housing. homeless assistance includes shower vouchers, bus vouchers, referrals and assistance to appropriate programs. family support programs, financial literacy programs, mental health support group, drug and alcohol counseling.",0eb92fc8-c5c1-4a27-9156-966517d8ebf6,street_dup,198,1.0
202,a12c9abb-1b20-466d-bab8-67b6fde9caf0,lynden school district,1203 bradley road,,lynden,wa,98264,http://www.lynden.wednet.edu,"schools in the lynden school district are lynden high school, lynden middle school, isom intermediate school, fisher elementary school, and bernice vossbeck elementary school.",,,199,1.0
203,d9aad69f-25cf-4a6b-8426-94f1c1eb9f17,sean humphrey house,1630 h street,,bellingham,wa,98225,http://www.seanhumphreyhouse.org,"sean humphrey houses mission is to optimize the quality of life for low-income individuals living with hiv/aids, who may also suffer from other diseases and disabilities, and who are unable to live independently.",,,200,1.0
204,929c30fc-506c-4423-b4e3-a7e99843d6d9,dshs developmental disabilities administration,2219 rimland drive,suite 315,bellingham,wa,98226,https://www.dshs.wa.gov/dda,"serves as the point of entry for all of the administrations services to people with developmental disabilities. provides case management, family support and residential services, employment and community access.",,,47,0.5745313330673876
205,190d1601-f2f8-42a7-9f77-0d9323c4e96f,dshs developmental disabilities administration,2219 rimland drive,suite 315,bellingham,wa,98226,https://www.dshs.wa.gov/dda,"serves as the point of entry for all of the administrations services to people with developmental disabilities. provides case management, family support and residential services, employment and community access.",929c30fc-506c-4423-b4e3-a7e99843d6d9,street_dup,47,0.5745313330673876
206,06cb4011-1da4-4cef-a757-fdee78c69dfc,bellingham central lions club,4141 west maplewood avenue,,bellingham,wa,98226,http://www.bellinghamcentrallions.org,"service organization that provides volunteers and financial assistance to people and public service programs in bellingham and whatcom county, and supports international service through the lions clubs international foundation (lcif).",,,201,1.0
207,2e8facde-1701-4a21-8598-a03c65646047,bellingham central lions club,800 east chestnut street,suite 3b,bellingham,wa,98225,http://www.bellinghamcentrallions.org,"service organization that provides volunteers and financial assistance to people and public service programs in bellingham and whatcom county, and supports international service through the lions clubs international foundation (lcif).",,,1,0.7470027763364484
208,3cc0d3e7-43e3-4ddd-97ac-f5a460251ee3,whatcom family ymca,1256 north state street,,bellingham,wa,98225,http://whatcomymca.org,"social service organization providing program for all ages. primary programs include childcare, aquatics, youth fitness and enrichment, leadership development and healthy lifestyle/fitness opportunities for adults and seniors.",,,202,1.0
209,866f18f4-5749-4c15-8515-16598e2b0c3c,whatcom family ymca,1256 north state str,,bellingham,wa,98225,http://whatcomymca.org,"social service organization providing program for all ages. primary programs include childcare, aquatics, youth fitness and enrichment, leadership development and healthy lifestyle/fitness opportunities for adults and seniors.",3cc0d3e7-43e3-4ddd-97ac-f5a460251ee3,street_dup,203,1.0
210,d766c1d9-d285-4b10-bc10-da9386d8b21c,whatcom family ymca,2415 rimland dr,,bellingham,wa,98226,http://whatcomymca.org,"social service organization providing program for all ages. primary programs include childcare, aquatics, youth fitness and enrichment, leadership development and healthy lifestyle/fitness opportunities for adults and seniors.",,,204,1.0
211,fc857f59-0319-4900-bc02-62823657aa2d,"sunrise services, inc.",1515 cornwall avenue,,bellingham,wa,98225,https://sunriseservicesinc.com,"sunrise services provides experience in supporting people with all forms of physical, mental and developmental disabilities and seniors. they offer a wide range of customizable residential and in-home services for the elderly and adults with disabilities, as well as supported employment opportunities and other programs, including: caregiver training, community behavioral health services, vocational assistance/job placement.",,,205,1.0
212,5107b343-7b29-42dc-b3ef-dd36d2378ee5,"sunrise services, inc.",1515 cornwall aven,,bellingham,wa,98225,https://sunriseservicesinc.com,"sunrise services provides experience in supporting people with all forms of physical, mental and developmental disabilities and seniors. they offer a wide range of customizable residential and in-home services for the elderly and adults with disabilities, as well as supported employment opportunities and other programs, including: caregiver training, community behavioral health services, vocational assistance/job placement.",fc857f59-0319-4900-bc02-62823657aa2d,street_dup,206,1.0
213,ae9098a4-db22-4b57-b831-7cc319e12e2b,"sunrise services, inc.",4151 meridian street,suite 12,bellingham,wa,98226,https://sunriseservicesinc.com,"sunrise services provides experience in supporting people with all forms of physical, mental and developmental disabilities and seniors. they offer a wide range of customizable residential and in-home services for the elderly and adults with disabilities, as well as supported employment opportunities and other programs, including: caregiver training, community behavioral health services, vocational assistance/job placement.",,,18,0.6560912809058954
214,ea741c88-52ac-4c56-8d26-a09f28d84aed,domestic violence and sexual assault services of whatcom county,1407 commercial street,,bellingham,wa,98225,http://www.dvsas.org,supports individuals affected by domestic violence and sexual assault and provides community education. all services are free and confidential.,,,207,1.0
215,8c3d0cbd-39da-4323-8737-cea902aaa01d,domestic violence and sexual assault services of whatcom county,1407 commercial street,,bellingham,wa,98225,http://www.dvsas.org,supports individuals affected by domestic violence and sexual assault and provides community education. all services are free and confidential.,ea741c88-52ac-4c56-8d26-a09f28d84aed,street_dup,208,1.0
216,724dc262-0f94-41ae-9eca-99e7e9959d38,city of bellingham,210 lottie street,,bellingham,wa,98225,https://cob.org,"the city of bellingham, which serves as the",,,209,1.0
217,a226a0e9-facc-4a65-a01d-9feb6677abf7,city of bellingham,210 lottie str.,,bellingham,wa,98225,https://cob.org,"the city of bellingham, which serves as the",724dc262-0f94-41ae-9eca-99e7e9959d38,street_dup,210,1.0
218,de90120c-ad91-48b3-878b-de6a590ec9da,opportunity council in whatcom county,1111 cornwall avenue,suite c,bellingham,wa,98225,http://www.oppco.org,"provides a range of services including helping people in crisis meet immediate needs while providing long-term support. we shelter people who are homeless, feed people who are hungry, prepare young children for school, help keep people safe and warm through the winter, and more.",,,25,0.22730444054287335
219,03779f7a-371c-4715-85cd-85e7a865eaef,opportunity council in whatcom county,1111 cornwall aven,suite c,bellingham,wa,98225,http://www.oppco.org,"provides a range of services including helping people in crisis meet immediate needs while providing long-term support. we shelter people who are homeless, feed people who are hungry, prepare young children for school, help keep people safe and warm through the winter, and more.",de90120c-ad91-48b3-878b-de6a590ec9da,street_dup,25,0.21746931786249402
220,919986a1-7ab7-4036-8c5f-bce2e5fae0c2,opportunity council in whatcom county,2750 mcleod rd,,bellingham,wa,98225,http://www.oppco.org,"provides a range of services including helping people in crisis meet immediate needs while providing long-term support. we shelter people who are homeless, feed people who are hungry, prepare young children for school, help keep people safe and warm through the winter, and more.",,,211,1.0
221,10b0e84e-eccb-46d7-b0f8-1900a9827e01,opportunity council in whatcom county,2117 walnut street,,bellingham,wa,98225,http://www.oppco.org,"provides a range of services including helping people in crisis meet immediate needs while providing long-term support. we shelter people who are homeless, feed people who are hungry, prepare young children for school, help keep people safe and warm through the winter, and more.",,,53,0.45984771521252943
222,67ed6593-24a2-4c08-8d9d-7d7971ec031f,volunteer center of whatcom county,1419 cornwall avenue,,bellingham,wa,98225,http://www.whatcomvolunteer.org,"links volunteers of all ages who want to contribute their talent and time to partner organizations - schools, health care facilities, government agencies, and a wide range of nonprofits throughout whatcom county.",,,212,1.0
223,092abc83-5605-4374-af8b-7f74131248d8,volunteer center of whatcom county,1419 cornwall avenue,,bellingham,wa,98225,http://www.whatcomvolunteer.org,"links volunteers of all ages who want to contribute their talent and time to partner organizations - schools, health care facilities, government agencies, and a wide range of nonprofits throughout whatcom county.",67ed6593-24a2-4c08-8d9d-7d7971ec031f,street_dup,213,1.0
224,ad644f91-6801-42a2-9209-101b8fcf676a,whatcom dispute resolution center,206 prospect street,,bellingham,wa,98225,http://www.whatcomdrc.org,"provides and promotes constructive and collaborative approaches to conflict. we recognize that conflict is a normal and natural part of life, and offer mediation, facilitation, coaching, supervised visitation and community education services to youth and adults.",,,214,1.0
225,45a430bc-4e90-47c2-ad99-98768cf6eb86,northwest regional council,600 lakeway drive,suite 100,bellingham,wa,98225,http://www.nwrcwa.org,"this is an association of governments including island, san juan, skagit and whatcom counties.",,,43,0.45643668858374986
226,84a75627-572b-416d-aa08-da5b96de69f6,northwest regional council,600 lakeway drive,suite 100,bellingham,wa,98225,http://www.nwrcwa.org,"this is an association of governments including island, san juan, skagit and whatcom counties.",45a430bc-4e90-47c2-ad99-98768cf6eb86,street_dup,43,0.45643668858374986
227,6225fa1b-f2f9-4cc3-b8e5-c27ade316f60,northwest workforce council,101 prospect street,,bellingham,wa,98225,http://www.nwboard.org/,"the council is dedicated to addressing the full spectrum of workforce needs through an outcome and customer based model that addresses the needs of both employers and job seekers. we envision that a cohesive workforce strategy created through the common goals of business, education, labor, and community organizations will yield strong economic outcomes and an adaptable and skilled workforce.",,,215,1.0
228,6fe2cf83-9af2-48f6-95ee-96fa848af440,unity care northwest,220 unity street,,bellingham,wa,98225,http://unitycarenw.org,"offers affordable primary care, dental, behavioral health, and pharmacy services for children and adults in whatcom county.",,,40,0.44621863784140403
229,61639a11-61c5-42c1-85cf-6751ba460051,unity care northwest,1616 cornwall avenue,,bellingham,wa,98225,http://unitycarenw.org,"offers affordable primary care, dental, behavioral health, and pharmacy services for children and adults in whatcom county.",,,216,1.0
230,c3fd1b9a-f4f6-4d5e-80fa-c03c544c57c1,unity care northwest,1616 cornwall ave.,,bellingham,wa,98225,http://unitycarenw.org,"offers affordable primary care, dental, behavioral health, and pharmacy services for children and adults in whatcom county.",61639a11-61c5-42c1-85cf-6751ba460051,street_dup,25,0.16319767433590848
231,5c5a3f24-664f-480b-9455-3b72aef32584,unity care northwest,6060 portal way,,ferndale,wa,98248,http://unitycarenw.org,"offers affordable primary care, dental, behavioral health, and pharmacy services for children and adults in whatcom county.",,,51,0.2795720886624753
232,e368c7b9-9cd8-431a-b510-69d51868d97e,whatcom council on aging,315 halleck street,,bellingham,wa,98225,https://whatcomcoa.org,"provides nutrition, preventative health, and senior center services. whatcom council on aging is a non-profit organization serving the needs of seniors in whatcom county. this includes senior center programming, the whatcom san juan nutrition program (meals on wheels and senior lunches), and the wellness program for lectures, health screenings and strength training classes.",,,217,1.0
233,5abbf132-0523-4fed-9005-715332dad6f0,whatcom council on aging,315 halleck str.,,bellingham,wa,98225,https://whatcomcoa.org,"provides nutrition, preventative health, and senior center services. whatcom council on aging is a non-profit organization serving the needs of seniors in whatcom county. this includes senior center programming, the whatcom san juan nutrition program (meals on wheels and senior lunches), and the wellness program for lectures, health screenings and strength training classes.",e368c7b9-9cd8-431a-b510-69d51868d97e,street_dup,218,1.0
234,53dcb37e-e9c3-4443-9061-a029cbbd9b27,united way of whatcom county,1500 cornwall avenue,suite 203,bellingham,wa,98225,http://www.unitedwaywhatcom.org,"we all win when a child succeeds, when a neighborhood turns around, and when everyone is in good health. this is united way of whatcom countys vision for a strong community. united way of whatcom county is using a variety of tactics and information on current issues to change lives and solve community-wide conditions by focusing on specific goals in education, income, and health.",,,25,0.22011051182681207
235,2f44f0ca-78e2-4c4f-8347-88d206f60759,united way of whatcom county,1500 cornwall ave,suite 203,bellingham,wa,98225,http://www.unitedwaywhatcom.org,"we all win when a child succeeds, when a neighborhood turns around, and when everyone is in good health. this is united way of whatcom countys vision for a strong community. united way of whatcom county is using a variety of tactics and information on current issues to change lives and solve community-wide conditions by focusing on specific goals in education, income, and health.",53dcb37e-e9c3-4443-9061-a029cbbd9b27,street_dup,25,0.25856289611463057
236,383dfb6f-c952-487b-9a6f-e3c966171310,foothills food bank,8255 kendall road,,maple falls,wa,98266,http://www.foothillsfoodbank.org,we distribute nutritious food to anyone in need.,,,55,0.3982788191752986
237,5455a2bc-0f91-4c0d-8ffa-204836d8aabd,foothills food bank,8251 kendall road,,sumas,wa,98295,http://www.foothillsfoodbank.org,we distribute nutritious food to anyone in need.,,,55,0.44855776452069707
238,c1c10824-e9c2-4e55-89f9-5540bd226484,whatcom community college (wcc),237 w kellogg rd,,bellingham,wa,98226,http://whatcom.edu,"whatcom community college is a regionally and nationally accredited two-year college with an accomplished faculty and staff who serve 11,000 students annually. on its campus and through online courses. whatcom community college offers transfer degrees, professional and technical training programs, as well as basic education, job skills, and community continuing education classes.",,,219,1.0
239,766433d0-9d37-44d4-b246-ad1c4021834f,whatcom community college (wcc),237 w kellogg rd.,,bellingham,wa,98226,http://whatcom.edu,"whatcom community college is a regionally and nationally accredited two-year college with an accomplished faculty and staff who serve 11,000 students annually. on its campus and through online courses. whatcom community college offers transfer degrees, professional and technical training programs, as well as basic education, job skills, and community continuing education classes.",c1c10824-e9c2-4e55-89f9-5540bd226484,street_dup,220,1.0
240,645cd2cb-5fc5-4c2d-a3cf-7b19108dce2b,whatcom county,311 grand avenue,,bellingham,wa,98225,http://www.co.whatcom.wa.us,whatcom county government departments and services.,,,221,1.0
241,1a34f440-3406-4bbc-80b8-74ab1aead41a,whatcom county,3505 airport drive,,bellingham,wa,98225,http://www.co.whatcom.wa.us,whatcom county government departments and services.,,,222,1.0
242,cdc3bcc5-bb26-43bd-b7a5-d91661d0c443,whatcom county,3505 airport drive,,bellingham,wa,98225,http://www.co.whatcom.wa.us,whatcom county government departments and services.,1a34f440-3406-4bbc-80b8-74ab1aead41a,street_dup,223,1.0
243,e7cb9915-4711-4232-80ef-31c5af922f61,whatcom county,215 north commercial street,,bellingham,wa,98225,http://www.co.whatcom.wa.us,whatcom county government departments and services.,,,224,1.0
244,460fa720-9036-43c5-95fc-ecec16708c9e,whatcom transportation authority (wta),4111 bakerview spur,,bellingham,wa,98226,http://www.ridewta.com,"provides fixed route, paratransit and vanpool service throughout whatcom county.",,,225,1.0
245,b28e819c-afb4-43d0-b8b5-f4a0de8ffc39,ywca of bellingham,1224 north state street,,bellingham,wa,98225,http://www.ywcabellingham.org,ywca bellingham provides emergency and transitional housing for single women in whatcom county.,,,12,0.4211767384518087
246,55485681-741c-42d7-9aed-605b21cdaee7,ywca of bellingham,1224 north state str.,,bellingham,wa,98225,http://www.ywcabellingham.org,ywca bellingham provides emergency and transitional housing for single women in whatcom county.,b28e819c-afb4-43d0-b8b5-f4a0de8ffc39,street_dup,226,1.0
247,23042416-636a-4e4e-8c4f-1586daf7c462,usda,6458 martin place,,lynden,wa,98264,,resources and information for the agricultural community.,,,28,0.7556234584061838
248,3d4a822f-1aa7-479d-99fd-2c5f0092363e,usda,6458 martin place,,lynden,wa,98264,,resources and information for the agricultural community.,23042416-636a-4e4e-8c4f-1586daf7c462,street_dup,28,0.7556234584061838
249,63ab7326-d164-4b83-ba8e-529ff3a007c1,usda,6906 goodwin road,,everson,wa,98247,,resources and information for the agricultural community.,,,57,0.755623459815979
250,a58e30bf-1311-4216-9eb2-6bf43e880f14,usda,6906 goodwin road,,everson,wa,98247,,resources and information for the agricultural community.,63ab7326-d164-4b83-ba8e-529ff3a007c1,street_dup,57,0.755623459815979
251,786c64d9-6e7c-4038-8f8d-4f96c118e837,usda,1220 north forest street,,bellingham,wa,98225,,resources and information for the agricultural community.,,,29,0.7556234584061838
252,f2929543-cb9e-4b51-a995-71772c44fd47,usda,1220 north forest street,,bellingham,wa,98225,,resources and information for the agricultural community.,786c64d9-6e7c-4038-8f8d-4f96c118e837,street_dup,29,0.7556234584061838
253,eb145548-09b7-42f4-91a0-30ba9a14f5a9,usda,1701 ellis street,suite 221,bellingham,wa,98225,,resources and information for the agricultural community.,,,45,0.958840322047812
254,8ad388e5-ca07-44b0-9c53-acf70f34b1fb,usda,1701 ellis str,suite 221,bellingham,wa,98225,,resources and information for the agricultural community.,eb145548-09b7-42f4-91a0-30ba9a14f5a9,street_dup,45,0.9515929526691538
255,508386a6-cebd-4184-97cd-99eedc0bcb62,north sound cooling centers,210 central avenue,,bellingham,wa,98225,,cooling center locations for north sound counties.,,,21,0.9663345774330258
256,0fb348d0-3df6-4947-9b44-97197dbaa1c7,north sound cooling centers,1117 12th street,,bellingham,wa,98225,,cooling center locations for north sound counties.,,,11,0.7849957619731669
257,a8d8ade1-62eb-47d7-a809-e11deb2cfc3d,north sound cooling centers,3111 newmarket street,suite 103,bellingham,wa,98226,,cooling center locations for north sound counties.,,,22,0.9625304877723329
258,4f928206-d6d2-4248-8b6c-3a96b288d5a2,north sound cooling centers,3111 newmarket str.,suite 103,bellingham,wa,98226,,cooling center locations for north sound counties.,a8d8ade1-62eb-47d7-a809-e11deb2cfc3d,street_dup,22,0.9625153498391743
259,22790d72-3d9c-4a74-b496-2bc532eafb2e,north sound cooling centers,7506 kendall road,,maple falls,wa,98266,,cooling center locations for north sound counties.,,,56,0.6091834919212473
260,3cf3f60c-beaf-49a8-9652-c88d63635d00,north sound cooling centers,461 2nd street,,sumas,wa,98295,,cooling center locations for north sound counties.,,,30,0.6719450911951245
261,4bd4522b-1320-48c5-9f49-eb215f01a527,north sound cooling centers,461 2nd str,,sumas,wa,98295,,cooling center locations for north sound counties.,3cf3f60c-beaf-49a8-9652-c88d63635d00,street_dup,30,0.6719450911951245
262,b7e19159-b601-48ec-aa5f-4568ccba4f58,north sound cooling centers,216 4th street,,lynden,wa,98264,,cooling center locations for north sound counties.,,,17,0.7574621819153152
263,54bd209c-0e27-4cc6-9a42-a6c3b9489189,north sound cooling centers,216 4th street,,lynden,wa,98264,,cooling center locations for north sound counties.,b7e19159-b601-48ec-aa5f-4568ccba4f58,street_dup,17,0.7574621819153152
264,444eba6b-7604-4fd2-83c7-83c364e7cfed,north sound cooling centers,5044 mount baker highway,,deming,wa,98244,,cooling center locations for north sound counties.,,,39,0.6127721111436153
265,045e26ca-426d-440f-93f6-dcc5fa67ca1f,north sound cooling centers,1530 cornwall avenue,,bellingham,wa,98225,,cooling center locations for north sound counties.,,,25,0.5223017681897537
266,708eb70e-9d43-49a8-abe9-fcb9f20e6bb0,north sound cooling centers,1530 cornwall avenue,,bellingham,wa,98225,,cooling center locations for north sound counties.,045e26ca-426d-440f-93f6-dcc5fa67ca1f,street_dup,25,0.5223017681897537
267,f9673ba3-d546-4c6d-a0cc-fa960d9f236e,north sound cooling centers,401 grover street,,lynden,wa,98264,,cooling center locations for north sound counties.,,,227,1.0
268,d8c9e499-7158-41ba-9726-edb672efd5f6,north sound cooling centers,2095 main street,,ferndale,wa,98248,,cooling center locations for north sound counties.,,,31,0.6843425639927947
269,9a70b1e9-7773-42af-abee-f8adb3b5cfa1,north sound cooling centers,2095 main str,,ferndale,wa,98248,,cooling center locations for north sound counties.,d8c9e499-7158-41ba-9726-edb672efd5f6,street_dup,31,0.6843425639927947
270,9e4597d8-5267-4a74-8382-90482a2d2219,north sound cooling centers,8251 kendall road,,maple falls,wa,98266,,cooling center locations for north sound counties.,,,55,0.6525503424609025
271,e3bffd96-4663-4db6-b866-eb9a84ffaefc,north sound cooling centers,8251 kendall rd.,,maple falls,wa,98266,,cooling center locations for north sound counties.,9e4597d8-5267-4a74-8382-90482a2d2219,street_dup,55,0.5747987380903375
272,34bf0652-938e-443c-b91f-f0e80ea115fe,north sound cooling centers,2125 main street,,ferndale,wa,98248,,cooling center locations for north sound counties.,,,228,1.0
273,b99c50f0-a583-4a8b-b1ab-e9c4adc95341,north sound cooling centers,2125 main st.,,ferndale,wa,98248,,cooling center locations for north sound counties.,34bf0652-938e-443c-b91f-f0e80ea115fe,street_dup,229,1.0
274,e0ce266b-a15c-4b69-94b4-0c2cf6615c3e,opportunity council - east whatcom regional resource center,8251 kendall road,,maple falls,wa,98266,https://www.oppco.org/ewrrc,"connects people with community resources to help meet basic needs such as clothing, blankets, food, household items, personal hygiene products, transportation and more. provides head start, community activities on site, and information and referrals to community programs.",,,55,0.4506101100907247
275,442fcbb2-ba3e-4706-9b08-69b78f961d2f,required text,text,text,text,two character state (all caps),99999 or 99999-9999,http://some.domain.com,required text,,,58,0.47473001269749315
276,d2f1abe9-45ca-4ea7-a895-55dba21ea7bc,required text,text,text,text,two character state (all caps),99999 or 99999-9999,http://some.domain.com,required text,442fcbb2-ba3e-4706-9b08-69b78f961d2f,street_dup,58,0.47473001269749315
277,5b11dab6-9eeb-45dd-b4b9-edbe0a0bc52e,depressive and bipolar support alliance whatcom county,po box 4124,,bellingham,wa,98227,http://www.dbsalliance.org,"peer-directed national organization focusing on the two most prevalent mental health conditions, depression and bipolar disorder. provides hope, help, support, and education to improve the lives of people who have mood disorders.",,,59,0.6773135649643066
278,d57b3389-5d81-45f0-95cb-beb45088d586,bellingham parks and recreation division,210 lottie street,,bellingham,wa,98225,https://cob.org/services/recreation,the parks and recreation department supports a healthy community by providing high quality parks and recreation services.,,,230,1.0
279,d96b6623-83db-4cb5-a247-c4f53311f609,mount baker school district,po box 95,,deming,wa,98244,http://www.mtbaker.wednet.edu,public school district.,,,231,1.0
280,d84d0231-a369-4877-a23f-bdd17dc36090,mount baker school district,po box 95,,deming,wa,98244,http://www.mtbaker.wednet.edu,public school district.,d96b6623-83db-4cb5-a247-c4f53311f609,street_dup,60,0.6607359645713666
281,8fdec388-459a-4a41-ae61-e5c8df6b2fe3,bellingham technical college,3028 lindbergh ave,,bellingham,wa,98225,https://www.btc.edu,"bellingham technical college provides student-centered, high-quality professional technical education for todays needs and tomorrows opportunities.",,,3,0.9934900998032308
282,2711db01-3766-46d7-8149-8276b62cf6a1,bellingham technical college,3028 lindbergh avenue,,bellingham,wa,98225,https://www.btc.edu,"bellingham technical college provides student-centered, high-quality professional technical education for todays needs and tomorrows opportunities.",8fdec388-459a-4a41-ae61-e5c8df6b2fe3,street_dup,232,1.0
283,8d10071c-8dbb-482d-99ff-05baf8daf052,bellingham school district,1306 dupont st,,bellingham,wa,98225,http://bellinghamschools.org,public school district.,,,233,1.0
284,ff946e39-791a-4537-b568-5d96c24bacd0,western washington university,516 high street,old main 265 ms 9006,bellingham,wa,98225,http://www.wwu.edu,pubic university.,,,10,0.44362601640930466
285,27d9cf8a-d523-4d48-ad52-649919267f43,western washington university,516 high str.,old main 265 ms 9006,bellingham,wa,98225,http://www.wwu.edu,pubic university.,ff946e39-791a-4537-b568-5d96c24bacd0,street_dup,234,1.0
286,5b8f9b68-53d8-4e59-996d-42144f89186c,western washington university,516 high street,ai 256 ms 9171,bellingham,wa,98225,http://www.wwu.edu,pubic university.,,,10,0.44362601640930466
287,10a27fed-acb7-4a7c-953f-f6d5c83ecd72,western washington university,career services center,wwu 516 high st,bellingham,wa,98225,http://www.wwu.edu,pubic university.,,,65,0.474729984998703
288,b243e20f-600e-48cd-bd42-ded2098e4ef9,western washington university,career services center,wwu 516 high st,bellingham,wa,98225,http://www.wwu.edu,pubic university.,10a27fed-acb7-4a7c-953f-f6d5c83ecd72,street_dup,65,0.474729984998703
289,81091c42-312d-45dd-be01-349862998510,ferndale school district,po box 698,,ferndale,wa,98248,http://www.ferndalesd.org,public school district.,,,235,1.0
290,674a297c-c99c-4091-991a-1160806f08a8,point roberts food bank,323 evergreen way,,point roberts,wa,98281,http://www.harmonywebdesigns.com/pointrobertschurch/announcements.htm,the point roberts food bank provides food for those individuals at or below the poverty level as well as low income individuals.,,,236,1.0
291,48acd959-bc54-4aa0-a6b3-b1b5c1ebcadd,point roberts food bank,323 evergreen way,,point roberts,wa,98281,http://www.harmonywebdesigns.com/pointrobertschurch/announcements.htm,the point roberts food bank provides food for those individuals at or below the poverty level as well as low income individuals.,674a297c-c99c-4091-991a-1160806f08a8,street_dup,237,1.0
292,3eb4a3f2-d3c5-4cc8-a7c2-f1c7fd88ee47,river of life community church,po box 124,,acme,wa,98220,,river of life community church has an outward focus. from helping feed and clothe our neighbors outreaches focused on kids reaching our hispanic neighbors through our maple falls church.,,,59,0.7137776830526672
293,01b1b9bb-cf7d-4067-945f-777ea194c827,river of life community church,po box 124,,acme,wa,98220,,river of life community church has an outward focus. from helping feed and clothe our neighbors outreaches focused on kids reaching our hispanic neighbors through our maple falls church.,3eb4a3f2-d3c5-4cc8-a7c2-f1c7fd88ee47,street_dup,59,0.7137776830526672
294,7a21e3c5-334a-43ec-bb53-a17c2d3e0d26,saint vincent de paul - sacred heart church,1110 14th st,,bellingham,wa,98225,https://www.shbham.org,a faith based organization that offers assistance to people in need.,,,11,0.36209264302783517
295,e7bc7a11-2fc7-4607-885c-1eb14f61c6b5,community assistance program,po box 1067,,blaine,wa,98231,http://blainecap.org,"provides community-based social services to residents of blaine, birch bay, custer, and point roberts.",,,238,1.0
296,63deb454-d41f-4918-b2a0-6e71226c4056,community assistance program,po box 1067,,blaine,wa,98231,http://blainecap.org,"provides community-based social services to residents of blaine, birch bay, custer, and point roberts.",e7bc7a11-2fc7-4607-885c-1eb14f61c6b5,street_dup,239,1.0
297,90c75306-2509-45b5-85ec-f46792e382a7,community assistance program,po box 1067,,blaine,wa,98231,http://blainecap.org,"provides community-based social services to residents of blaine, birch bay, custer, and point roberts.",,,240,1.0
298,55b46c18-15f4-452b-9c74-595a823c7f50,community assistance program,po box 1067,,blaine,wa,98231,http://blainecap.org,"provides community-based social services to residents of blaine, birch bay, custer, and point roberts.",90c75306-2509-45b5-85ec-f46792e382a7,street_dup,241,1.0
299,8089f5a2-5da9-417f-8ef4-b92f0f5bf4e9,community assistance program,po box 1067,,blaine,wa,98231,http://blainecap.org,"provides community-based social services to residents of blaine, birch bay, custer, and point roberts.",,,242,1.0
300,457abe3b-ef63-47ce-8814-d24b74e0bae3,whatcom hospice,2800 douglas avenue,,bellingham,wa,98225,http://whatcomhospice.org,"provides services for patients with a life limiting illness of six months or less, and their families. services address medical, emotional, respite, and spiritual concerns.",,,243,1.0
301,bc392e50-5265-4f7f-a536-69dd56ecbec5,whatcom hospice,2800 douglas aven,,bellingham,wa,98225,http://whatcomhospice.org,"provides services for patients with a life limiting illness of six months or less, and their families. services address medical, emotional, respite, and spiritual concerns.",457abe3b-ef63-47ce-8814-d24b74e0bae3,street_dup,244,1.0
302,10846dfc-5015-43c2-8896-8944c221cc51,whatcom hospice,2901 squalicum parkway,,bellingham,wa,98225,http://whatcomhospice.org,"provides services for patients with a life limiting illness of six months or less, and their families. services address medical, emotional, respite, and spiritual concerns.",,,245,1.0
303,416078c1-3374-402a-be6a-832150015518,blaine community/senior center,763 g st,,blaine,wa,98230,https://www.blaineseniorcenter.org,senior center.,,,246,1.0
304,fab3828a-885a-4169-88d8-dc82703c3279,blaine community/senior center,763 g str.,,blaine,wa,98230,https://www.blaineseniorcenter.org,senior center.,416078c1-3374-402a-be6a-832150015518,street_dup,247,1.0
305,06084e8d-e71c-4edf-9f15-7a41136c484b,foothills food bank,5568 mt. baker hwy,,deming,wa,98244,http://www.foothillsfoodbank.org,we distribute nutritious food to anyone in need.,,,248,1.0
306,b054cbb6-68fc-433f-ab7d-f17720b2ebe4,whatcom county parks and recreation department,3373 mt baker hwy,,bellingham,wa,98226,http://www.co.whatcom.wa.us/1787/parks-recreation,"the goal of the parks and recreation department is to enrich the quality of life for the community and preserve the natural and cultural heritage of the county through provision of outstanding parks and trails, open space and natural areas, as well as recreational activities and senior services.",,,249,1.0
307,7869d6de-f436-49fd-a818-cebcb83196d6,bellingham whatcom county housing authorities,208 unity st,,bellingham,wa,98225,http://www.bellinghamhousing.org,the housing authority of the city of bellingham is a local government agency that serves thousands of residents in whatcom county. the bellingham housing authority and the whatcom county housing authority work together to provide needed housing in our community.,,,250,1.0
308,6c8a2510-2725-4d3f-a1f0-6b9dc2dabe30,whatcom county courts,311 grand avenue,suite 501,bellingham,wa,98225,http://www.courts.wa.gov/court_dir/orgs/296.html,civil and criminal courts.,,,13,0.47917941267986786
309,39400c59-1cc8-468c-abeb-c512b18c9d6c,whatcom county courts,311 grand ave,suite 501,bellingham,wa,98225,http://www.courts.wa.gov/court_dir/orgs/296.html,civil and criminal courts.,6c8a2510-2725-4d3f-a1f0-6b9dc2dabe30,street_dup,13,0.4263065337441587
310,8504b2ba-f6de-4084-934f-b88f42536bb4,whatcom county courts,1020 n state st,,bellingham,wa,98225,http://www.courts.wa.gov/court_dir/orgs/296.html,civil and criminal courts.,,,251,1.0
311,d35c78b0-566f-46a7-8eea-42f2e919aea9,whatcom county courts,311 grand avenue,suite 301,bellingham,wa,98225,http://www.courts.wa.gov/court_dir/orgs/296.html,civil and criminal courts.,,,13,0.47917941267986786
312,bddd8bad-da94-4fd9-a56a-675fe3b9b14e,whatcom county courts,311 grand ave,suite 301,bellingham,wa,98225,http://www.courts.wa.gov/court_dir/orgs/296.html,civil and criminal courts.,d35c78b0-566f-46a7-8eea-42f2e919aea9,street_dup,13,0.4263065337441587
313,a20c0bfd-0f5f-40f3-babd-36c19ec42a34,whatcom county courts,311 grand avenue,suite 401,bellingham,wa,98225,http://www.courts.wa.gov/court_dir/orgs/296.html,civil and criminal courts.,,,13,0.47917941267986786
314,107dcfd5-7607-4cef-8317-23fc8caef1c4,whatcom county courts,municipal court bldg,2014 c st,bellingham,wa,98225,http://www.courts.wa.gov/court_dir/orgs/296.html,civil and criminal courts.,,,252,1.0
315,645d7310-00a3-4ba7-92d2-f87648e90030,whatcom county courts,435 martin st,suite 4000,blaine,wa,,http://www.courts.wa.gov/court_dir/orgs/296.html,civil and criminal courts.,,,14,0.4243024030193223
316,c3cb253e-bd1e-4667-8453-e259051f991c,whatcom county courts,435 martin street,suite 4000,blaine,wa,,http://www.courts.wa.gov/court_dir/orgs/296.html,civil and criminal courts.,645d7310-00a3-4ba7-92d2-f87648e90030,street_dup,14,0.3779170398410929
317,4233e09c-cd2f-49c6-abe5-2dbb14c53bb1,whatcom county courts,po box 315,,everson,wa,98247,http://www.courts.wa.gov/court_dir/orgs/296.html,civil and criminal courts.,,,253,1.0
318,b9195580-642d-46fa-b621-acf121076643,whatcom county courts,po box 2914,,ferndale,wa,98248,http://www.courts.wa.gov/court_dir/orgs/296.html,civil and criminal courts.,,,254,1.0
319,3f6830b9-6801-44ff-9605-5e51b7a0aea7,whatcom county courts,300 4th street,,lynden,wa,98264,http://www.courts.wa.gov/court_dir/orgs/296.html,civil and criminal courts.,,,255,1.0
320,8e4bed73-e68b-4f52-a6a4-47f27e2f5e87,whatcom county courts,300 4th str,,lynden,wa,98264,http://www.courts.wa.gov/court_dir/orgs/296.html,civil and criminal courts.,3f6830b9-6801-44ff-9605-5e51b7a0aea7,street_dup,256,1.0
321,d19c6c49-58dc-475a-8cd1-2a7bca25085b,whatcom county courts,po box 9,,sumas,wa,98295,http://www.courts.wa.gov/court_dir/orgs/296.html,civil and criminal courts.,,,61,0.980668067955652
322,d54ff0f8-dfed-4dad-90ee-4ce34bf4cf17,whatcom county sheriffs office,311 grand ave,,bellingham,wa,98225,http://www.co.whatcom.wa.us/sheriff/,law enforcement agency.,,,257,1.0
323,9fa42570-d3e7-455e-8386-864fa98c7989,whatcom county sheriffs office,311 grand ave,,bellingham,wa,98225,http://www.co.whatcom.wa.us/sheriff/,law enforcement agency.,d54ff0f8-dfed-4dad-90ee-4ce34bf4cf17,street_dup,258,1.0
324,4873e515-d74f-4d40-8649-83ea8c0a039f,lydia place,po box 28487,,bellingham,wa,98228,http://www.lydiaplace.org,the mission of lydia place is to disrupt the cycle of homelessness and promote sustained independence for current and future generations.,,,259,1.0
325,3649899d-cfd2-4552-80b9-0c760a4e0f9b,lydia place,po box 28487,,bellingham,wa,98228,http://www.lydiaplace.org,the mission of lydia place is to disrupt the cycle of homelessness and promote sustained independence for current and future generations.,4873e515-d74f-4d40-8649-83ea8c0a039f,street_dup,260,1.0
326,4e9996e2-5a2c-41be-b2b8-f21b0ba19def,vietnam veterans of america 165,po box 29885,,bellingham,wa,98228,http://www.vva165.org,services for veterans of vietnam and the vietnam-era and their families.,,,261,1.0
327,8e191478-5f90-4508-a745-0bf0e9010908,vietnam veterans of america 165,po box 29885,,bellingham,wa,98228,http://www.vva165.org,services for veterans of vietnam and the vietnam-era and their families.,4e9996e2-5a2c-41be-b2b8-f21b0ba19def,street_dup,262,1.0
328,1cf9bd36-5385-43c3-8c64-3c779133ee53,blaine food bank,po box 472,,blaine,wa,98231,https://www.blainefoodbank.org,community food bank that offers food to anyone in need.,,,263,1.0
329,00f58ed3-a0e0-49e6-9824-60049094f5fb,brigid collins family support center,1231 n garden st suite 200,,bellingham,wa,98225,http://www.brigidcollins.org,"works to end child abuse in both whatcom and skagit counties. connects with local law enforcement jurisdictions, prosecuting attorneys, medical providers, child protection workers and therapists from both counties.",,,32,0.4162885927484168
330,aff4d557-5a2b-4e36-a68f-537bd0d761bc,brigid collins family support center,1231 n garden st suite 200,,bellingham,wa,98225,http://www.brigidcollins.org,"works to end child abuse in both whatcom and skagit counties. connects with local law enforcement jurisdictions, prosecuting attorneys, medical providers, child protection workers and therapists from both counties.",00f58ed3-a0e0-49e6-9824-60049094f5fb,street_dup,32,0.4162885927484168
331,2d69be28-48d5-40d9-89e1-85cd25b00fc2,whatcom humane society,2172 division street,,bellingham,wa,98226,http://www.whatcomhumane.org,"advocate for animals by educating the community to promote humane treatment and respect for animals and provide for abandoned, injured, abused or neglected animals.",,,264,1.0
332,0e5f87fc-01c1-4e35-b0c4-df9a52aca246,interfaith coalition of whatcom county,910 14th street,,bellingham,wa,98225,http://www.interfaith-coalition.org,interfaith coalition collaborates with agencies and faith communities to fill gaps in human services and to meet housing and other needs of marginalized people.,,,265,1.0
333,dedecd83-7e7e-4759-8fb0-d7ca95dbc737,northwest braille services,po box 234,,ferndale,wa,98248,,a non-profit agency providing braille services.,,,62,0.8562405094397869
334,d69a417b-3eb6-4623-8f46-9d8648bb1ccc,we care of whatcom county,po box 28194,,bellingham,wa,98228,,"provides inexpensive clothing, furniture and housewares to residents of whatcom county.",,,63,0.6493451364208229
335,fa8853ae-543d-471c-bb00-e12ae0a64662,we care of whatcom county,po box 28194,,bellingham,wa,98228,,"provides inexpensive clothing, furniture and housewares to residents of whatcom county.",d69a417b-3eb6-4623-8f46-9d8648bb1ccc,street_dup,63,0.6493451364208229
336,59af36a5-0c02-4e7d-8079-d1a9c1563268,hope house,1133 railroad avenue,100,bellingham,wa,98225,https://www.assumption.org/hope-house.html,"hope house is a multi-service center and collaborative effort between multiple non-profit agencies to provide clothing, housewares, emergency food, hygiene, personal care, diapers, school supplies, flashlights, soaps and supplies for those in need.",,,19,0.5390553555799811
337,31eb0093-5d24-42ff-8930-07adc8298513,hope house,1133 railroad avenue,100,bellingham,wa,98225,https://www.assumption.org/hope-house.html,"hope house is a multi-service center and collaborative effort between multiple non-profit agencies to provide clothing, housewares, emergency food, hygiene, personal care, diapers, school supplies, flashlights, soaps and supplies for those in need.",59af36a5-0c02-4e7d-8079-d1a9c1563268,street_dup,19,0.5390553555799811
338,c32541ec-5f20-4321-88bb-98cd4800c8a1,whatcom county pregnancy clinic,po box 1663,,bellingham,wa,98227,http://www.whatcomclinic.com,"provides services for educating, equipping, and empowering individuals and families facing an unplanned pregnancy by offering a compassionate and confidential environment for patients to be heard and to receive accurate information and medical care.",,,266,1.0
339,13cc44ef-4517-4fb5-ac66-5d608198df11,whatcom county pregnancy clinic,po box 1663,,bellingham,wa,98227,http://www.whatcomclinic.com,"provides services for educating, equipping, and empowering individuals and families facing an unplanned pregnancy by offering a compassionate and confidential environment for patients to be heard and to receive accurate information and medical care.",c32541ec-5f20-4321-88bb-98cd4800c8a1,street_dup,267,1.0
340,791029c4-6cc2-4b08-b58d-fd2c2491edd0,new way ministries,205 south bc avenue,suite 105,lynden,wa,98264,http://www.christianhopeassociation.org,"a non-profit faith based organization that provides transitional housing for women and their children. a program designed to assist families in crisis by providing stable housing, dependable income and resources for help and encouragement.",,,268,1.0
341,02b44cec-4628-4d73-85da-d38a9d53fb48,new way ministries,205 south bc ave.,suite 105,lynden,wa,98264,http://www.christianhopeassociation.org,"a non-profit faith based organization that provides transitional housing for women and their children. a program designed to assist families in crisis by providing stable housing, dependable income and resources for help and encouragement.",791029c4-6cc2-4b08-b58d-fd2c2491edd0,street_dup,269,1.0
342,00d8f961-b930-4dea-8388-fdd6c4fcc99f,catholic community services of western washington in whatcom county,1133 railroad ave no 100,,bellingham,wa,98225,http://www.ccsww.org,"provides social, mental health and chemical dependency services to residents of whatcom county.",,,33,0.921180069685838
343,f3cf6bf4-ce3a-4ce2-a002-c73693b59931,catholic community services of western washington in whatcom county,1133 railroad ave no 100,,bellingham,wa,98225,http://www.ccsww.org,"provides social, mental health and chemical dependency services to residents of whatcom county.",00d8f961-b930-4dea-8388-fdd6c4fcc99f,street_dup,270,1.0
344,f71cf279-5b1d-4463-b02a-87d52c537bb5,catholic community services of western washington in whatcom county,515 lakeway ave,,bellingham,wa,98225,http://www.ccsww.org,"provides social, mental health and chemical dependency services to residents of whatcom county.",,,271,1.0
345,bfbd2045-8fca-4acb-ae69-849aa27f9b45,pflag whatcom,po box 28704,,bellingham,wa,98228,http://www.whatcompflag.org,"a volunteer group providing support, education and advocacy for lgbtq people, their family and friends.",,,272,1.0
346,94e2959e-07b5-458c-af80-48a7a897c16d,bellingham food bank,1824 ellis st,,bellingham,wa,98225,http://bellinghamfoodbank.org,"bellingham food bank provides emergency food to those in need residing in bellingham. it is the lead agency for whatcom county food banks in ferndale, lynden, everson, deming, blaine, and lummi island.",,,273,1.0
347,3e039e02-a9ab-4bf0-860c-6c4d427bd26f,bellingham food bank,1824 ellis st,,bellingham,wa,98225,http://bellinghamfoodbank.org,"bellingham food bank provides emergency food to those in need residing in bellingham. it is the lead agency for whatcom county food banks in ferndale, lynden, everson, deming, blaine, and lummi island.",94e2959e-07b5-458c-af80-48a7a897c16d,street_dup,274,1.0
348,5c155c49-e2df-4482-bad4-1aaa71e360e1,bellingham public library,cs 9710,,bellingham,wa,98227,http://www.bellinghampubliclibrary.org,"provides library services, circulating 1.6 million items annually to more than 59,000 registered cardholders. it is a department of the city of bellingham and is funded by city taxes.",,,275,1.0
349,b6fce85f-32ad-4435-bbb2-4d7058483f52,bellingham public library,cs 9710,,bellingham,wa,98227,http://www.bellinghampubliclibrary.org,"provides library services, circulating 1.6 million items annually to more than 59,000 registered cardholders. it is a department of the city of bellingham and is funded by city taxes.",5c155c49-e2df-4482-bad4-1aaa71e360e1,street_dup,276,1.0
350,c8881105-1189-475c-a3e4-077f4d180014,blue skies for children,2505 cedarwood ave suite 5,,bellingham,wa,98225,http://www.blueskiesforchildren.org,"blue skies for children is a 501(c)3 organization located in whatcom county that grants little wishes for homeless, low-income and foster youth, ages 6-18.",,,277,1.0
351,638f2d28-ea98-45a0-a7a9-b659b2417b3a,blue skies for children,2505 cedarwood ave suite 5,,bellingham,wa,98225,http://www.blueskiesforchildren.org,"blue skies for children is a 501(c)3 organization located in whatcom county that grants little wishes for homeless, low-income and foster youth, ages 6-18.",c8881105-1189-475c-a3e4-077f4d180014,street_dup,278,1.0
352,de45bb3c-9a9e-48f1-bf6b-d6eab6ddcb52,bloodworks northwest,410 w bakerview rd,suite 117,bellingham,wa,98226,http://www.bloodworksnw.org,collects blood from volunteer donors to support the needs and provide specialized health services to patients in western washington. mobile blood donor units are available for blood drives at organizations and businesses. seattle location coordinates a hemophilia summer camp for families.,,,6,0.45067077651672016
353,df5c6f25-045b-469f-a2c0-db0d85d4e2b5,nooksack valley food bank,po box 525,,everson,wa,98247,,emergency food and food bank for residents of washington state mainly serving whatcom county residents.,,,64,0.6018267367047032
354,9ed1b0e5-0f72-4fda-8301-661366e4ff65,ferndale food bank,po box 1593,,ferndale,wa,98248,http://www.ferndalefoodbank.org,"food bank serving the ferndale, custer, and north bellingham areas.",,,279,1.0
355,7b61bd50-6932-4c46-bd4c-d5a1bb80bde0,ferndale food bank,po box 1593,,ferndale,wa,98248,http://www.ferndalefoodbank.org,"food bank serving the ferndale, custer, and north bellingham areas.",9ed1b0e5-0f72-4fda-8301-661366e4ff65,street_dup,280,1.0
356,e6ee4966-455d-4e32-8531-5c4a5bcb322d,northwest youth services,1020 n. state street,,bellingham,wa,98225,http://www.nwys.org/,"offers housing, street outreach, help finding a job or enrolling in school, connection to mental health services, support for lgbtq youth, restorative justice for juvenile respondents, and referrals to other services in the community. serves young people ages 13-24 experiencing homelessness in whatcom and skagit counties.",,,281,1.0
357,e4a99b33-b684-45ae-93b4-be3af64e1387,re store,2309 meridian st,,bellingham,wa,98225,http://www.re-store.org,"helps homeowners and contractors save money on disposal costs, providing the public with quality used building materials at affordable prices while reducing waste, saving resources and generating jobs.",,,282,1.0
358,b6f0c4b8-7478-4953-ade9-3b946ab204b3,dshs community services offices,po box 6057,,arlington,wa,98223,https://www.dshs.wa.gov/food-cash-medical,"helps people achieve and maintain self-sufficiency by providing financial assistance for food, medical expenses and id cards to those who are eligible. also provides limited cash assistance. additional programs available for refugees, families and people with disabilities.",,,283,1.0
359,a1ee1dd6-565c-42e8-bd70-9973bdaf511d,dshs community services offices,po box 6057,,arlington,wa,98223,https://www.dshs.wa.gov/food-cash-medical,"helps people achieve and maintain self-sufficiency by providing financial assistance for food, medical expenses and id cards to those who are eligible. also provides limited cash assistance. additional programs available for refugees, families and people with disabilities.",b6f0c4b8-7478-4953-ade9-3b946ab204b3,street_dup,284,1.0
360,2ad854e5-56c0-4cac-aca7-b99e85c574ba,dshs division of vocational rehabilitation,po box 6057,,arlington,wa,98223,http://dshs.wa.gov/dvr,"helps people with disabilities prepare for, obtain and retain employment. works in partnership with the community and businesses to develop employment opportunities for people who have disabilities.",,,285,1.0
361,74799bb0-be72-4d56-a97c-a2330b9d4152,dshs division of vocational rehabilitation,po box 6057,,arlington,wa,98223,http://dshs.wa.gov/dvr,"helps people with disabilities prepare for, obtain and retain employment. works in partnership with the community and businesses to develop employment opportunities for people who have disabilities.",2ad854e5-56c0-4cac-aca7-b99e85c574ba,street_dup,286,1.0
362,b2408b18-8365-4313-98fd-0ab491ee168c,journey housing and payee services,po box 739,,bellingham,wa,98225,https://journeyhousingandpayee.org,"journey housing and payee services, an everett-based non-profit company, creates affordable housing programs that empower people living with developmental disabilities to discover their potential, live independently with supportive services and engage in community life. journey also operates a payee service providing representative payee services to washington residents who need assistance in managing their personal financial affairs. the main mission of the organization is to provide housing, which they accomplish as a property management agency and as a payee service, prioritizing the payment of rent and utilities to assist people in keeping their housing.",,,287,1.0
363,8bc348d9-4b7d-4392-9d59-2232e9884bcc,journey housing and payee services,po box 739,,bellingham,wa,98225,https://journeyhousingandpayee.org,"journey housing and payee services, an everett-based non-profit company, creates affordable housing programs that empower people living with developmental disabilities to discover their potential, live independently with supportive services and engage in community life. journey also operates a payee service providing representative payee services to washington residents who need assistance in managing their personal financial affairs. the main mission of the organization is to provide housing, which they accomplish as a property management agency and as a payee service, prioritizing the payment of rent and utilities to assist people in keeping their housing.",b2408b18-8365-4313-98fd-0ab491ee168c,street_dup,288,1.0
364,6a3c68ee-51aa-4c6f-9a97-4c9ae0190a06,lake whatcom residential and treatment center,609 northshore drive,,bellingham,wa,98266,http://lwrtc.org,"lake whatcom center (lwc), located in bellingham, washington, is a dshs licensed not-for-profit organization providing an array of residential and community mental health services to adults with severe and persistent mental illness in whatcom and surrounding counties.",,,289,1.0
365,3be7a177-8d45-4cfc-921b-70abef248693,lake whatcom residential and treatment center,3600 meridian street,,bellingham,wa,98225,http://lwrtc.org,"lake whatcom center (lwc), located in bellingham, washington, is a dshs licensed not-for-profit organization providing an array of residential and community mental health services to adults with severe and persistent mental illness in whatcom and surrounding counties.",,,290,1.0
366,765e938d-a1c4-47f0-834d-8a0f009ef254,lake whatcom residential and treatment center,3600 meridian st,,bellingham,wa,98225,http://lwrtc.org,"lake whatcom center (lwc), located in bellingham, washington, is a dshs licensed not-for-profit organization providing an array of residential and community mental health services to adults with severe and persistent mental illness in whatcom and surrounding counties.",3be7a177-8d45-4cfc-921b-70abef248693,street_dup,20,0.35637602420647274
367,933f315a-4b7a-40e9-bfaa-f8c2b065bfaf,lighthouse mission ministries,po box 548,,bellingham,wa,98227,http://www.thelighthousemission.org,"operates a crisis homeless shelter for men, women, and children. assess and address the underlying causes that lead to homelessness for its guests. offers three meals a day, shelter, and access to life skills classes, case management, and recovery support for homeless men, women, and children.",,,64,0.6018267367047032
368,d4ae4181-6510-446e-a35c-bedbfb75d78a,lighthouse mission ministries,po box 548,,bellingham,wa,98227,http://www.thelighthousemission.org,"operates a crisis homeless shelter for men, women, and children. assess and address the underlying causes that lead to homelessness for its guests. offers three meals a day, shelter, and access to life skills classes, case management, and recovery support for homeless men, women, and children.",,,291,1.0
369,0690f332-8c66-43bd-be5c-1a159124de27,lighthouse mission ministries,po box 548,,bellingham,wa,98227,http://www.thelighthousemission.org,"operates a crisis homeless shelter for men, women, and children. assess and address the underlying causes that lead to homelessness for its guests. offers three meals a day, shelter, and access to life skills classes, case management, and recovery support for homeless men, women, and children.",d4ae4181-6510-446e-a35c-bedbfb75d78a,street_dup,292,1.0
370,bb9fa255-4aa3-4d6b-a109-bfa36ee0e469,whatcom community college (wcc),237 w kellogg rd,,bellingham,wa,98226,http://whatcom.edu,"whatcom community college is a regionally and nationally accredited two-year college with an accomplished faculty and staff who serve 11,000 students annually. on its campus and through online courses. whatcom community college offers transfer degrees, professional and technical training programs, as well as basic education, job skills, and community continuing education classes.",,,293,1.0
371,1ad929f1-dd4c-43ce-b792-c9aa7063d183,whatcom county,311 grand ave,,bellingham,wa,98225,http://www.co.whatcom.wa.us,whatcom county government departments and services.,,,294,1.0
372,d2b72271-60c6-4e38-8bcd-40419474c007,nami whatcom,po box 5571,,bellingham,wa,98227,http://www.namiwhatcom.org,"nami whatcom county is an affiliate of nami, the national alliance on mental illness, the nations largest grassroots mental health organization dedicated to building better lives for the millions of americans affected by mental illness. our mission is to encourage recovery and reintegration of persons with mental illnesses and to provide support, education, and advocacy for persons with mental illness and their families. nami whatcom county is fully inclusive of individuals with mental illness and their families of all backgrounds and cultures. the mission of nami whatcom county is to provide hope and improve the quality of life for those affected by mental illness through support, education and advocacy. nami whatcom county provides support for persons affected by mental illness in numerous ways. we offer numerous programs and resources that encompass our values that support our mission. our programs consist of the following free support groups, classes, and education opportunities.",,,295,1.0
373,018d4ca4-3405-423f-ab43-3d2f7272ed2f,salvation army - bellingham,po box 5036,,bellingham,wa,98227,https://bellingham.salvationarmy.org,non-profit multi service center.,,,296,1.0
374,1b460fd0-42ff-4adf-862f-263890ce84d9,salvation army - bellingham,po box 5036,,bellingham,wa,98227,https://bellingham.salvationarmy.org,non-profit multi service center.,018d4ca4-3405-423f-ab43-3d2f7272ed2f,street_dup,297,1.0
375,2517d5b0-655f-46a4-bc3d-a291da2ab383,salvation army - bellingham,1515 birchwood ave,,bellingham,wa,98225,https://bellingham.salvationarmy.org,non-profit multi service center.,,,298,1.0
376,145575fe-3b4b-450a-9e87-67fd17ebef4a,salvation army - bellingham,1515 birchwood aven,,bellingham,wa,98225,https://bellingham.salvationarmy.org,non-profit multi service center.,2517d5b0-655f-46a4-bc3d-a291da2ab383,street_dup,299,1.0
377,0276e87c-21f7-43cc-a90a-cd60b6dd11ef,alcoholics anonymous western washington area 72,702 kentucky st,suite no 535,bellingham,wa,98225,http://www.area72aa.org,lists 12-step support groups for alcoholics. some meetings have interpreters for individuals who are hard of hearing. provides information about aa meetings throughout western washington.,,,300,1.0
378,ae423df9-5eda-49be-a417-f140134c74e5,worksource whatcom,po box 2009,,bellingham,wa,98227,https://www.worksourcewa.com,"offers a comprehensive job center providing workshops and seminars that are fun and informative in a casual atmosphere. topics include: job search strategies, skills and abilities analysis, perfecting applications, effective resumes, and cover letters, interviewing techniques, computer classes and weekly job networking club. also provides free technology use for your career exploration and job searching needs. computers with internet access, assessment, and interview practice software, create and print your resume and other employment-related documents, fax applications to employers. copiers (limited to 4 copies) and phones are available explicitly for job search. unemployment insurance information for questions or to file an unemployment insurance claim by phone: 1-800-318-6022 online: www.esd.wa.gov online resources - worksourcewa.com - find hundreds of available jobs, apply for local, state and national jobs, post your resume online for employers to view, discover job search strategies for success. employment training programs more intensive services and programs are available through worksource for qualifying low income young people, adults, and workers age 55 and better dislocated workers displaced homemakers veterans, individuals with a disability migrant agricultural workers ex-offenders and others. business services worksource provides human resource assistance, help during layoffs, and access to resources for business development. - assistance with finding qualified applicants - activities to market your current job openings - private rooms at worksource centers for interviewing candidates - resources for staff development and employee skills assessment - assistance when dealing with company closures and layoffs - access to current labor market information and local economic trends - business resources for working with people with disabilities, obtaining tax credits, addressing human resource needs, etc. - customized solutions for your business needs worksource is open to the public. the center is an adult learning environment. please remember, resource lobby is for job search, career exploration, training research, unemployment insurance activities. use is monitored. worksource is an equal opportunity employer and provider of employment and training services. auxiliary aids and services are available upon request to persons of disability.",,,301,1.0
379,5f0ca38c-2549-4eff-ae96-7032ea1bfa1a,seattle goodwill,seattle goodwill industries,1765 6th ave. s.,seattle,wa,98134,https://seattlegoodwill.org/,"offers adult basic education programs, esl classes, ged preparation and basic computer skill classes at four area job training centers. in addition, offers a retail and customer service training program for adults.",,,66,0.474729984998703
380,ae043865-d98a-43b2-bb8c-fec384fea275,seattle goodwill,seattle goodwill industries,1765 6th ave. s.,seattle,wa,98134,https://seattlegoodwill.org/,"offers adult basic education programs, esl classes, ged preparation and basic computer skill classes at four area job training centers. in addition, offers a retail and customer service training program for adults.",5f0ca38c-2549-4eff-ae96-7032ea1bfa1a,street_dup,66,0.474729984998703
381,290ba78e-0e92-4b33-bc24-24036d36576d,whatcom dream,po box 29445,,bellingham,wa,98228,http://thewhatcomdream.org,"offers financial literacy classes, covering the following topics: values, budgeting, goal setting, banking, debt reduction, credit repair, consumerism, insurance, transportation, home ownership, retirement and investing. classes, meet once a week and are open to the public.",,,62,0.8562405094397869
382,30980f78-f1b7-476d-80fc-613c037f8e01,old town christian ministries,po box 29538,,bellingham,wa,98228,,old town christian ministries began in 1980 as an outreach to homeless people in whatcom county.,,,60,0.6607359645713666
383,54a0cfd7-22b0-4d0e-847b-0edf5237f188,whatcom county,311 grand ave.,,bellingham,wa,98225,http://www.co.whatcom.wa.us,whatcom county government departments and services.,1ad929f1-dd4c-43ce-b792-c9aa7063d183,street_dup,302,1.0
384,574dbbcf-09ab-46b8-873b-c090059bcecb,first baptist church - bellingham,po box 5916,,bellingham,wa,98227,http://firstbaptistbellingham.com/connect/tuesday-meal,provides a hot meal for anyone in need.,,,303,1.0
385,52b1d869-9ff8-4e1b-ae9a-4ba036db447d,arc of whatcom county,2602 mcleod rd,,bellingham,wa,98225,http://www.arcwhatcom.org,"provides advocacy, information and referral, parent support and limited financial assistance to persons with developmental disabilities and their families.",,,8,0.3972046221507691
386,4df6e65d-09e9-416a-8f77-7932bd11196e,arc of whatcom county,2602 mcleod rd.,,bellingham,wa,98225,http://www.arcwhatcom.org,"provides advocacy, information and referral, parent support and limited financial assistance to persons with developmental disabilities and their families.",52b1d869-9ff8-4e1b-ae9a-4ba036db447d,street_dup,8,0.3947400491610795
387,7d21ea31-14f9-46ec-8782-1260051058f8,"hearing, speech deaf center",114 west magnolia st,suite 106,bellingham,wa,98225,http://hsdc.org,"provides audiology and hearing aids, speech therapy, case management and advocacy for the deaf and hard of hearing, early childhood education, sign language interpreting, and assistive technology.",,,26,0.40803087179351805
388,d891a07e-8c7c-40a7-b8ef-1366b6c2de00,law advocates,po box 937,,bellingham,wa,98227,http://www.lawadvocates.org,provides free civil legal assistance to low-income whatcom county residents by linking them with attorney and community volunteers.,,,304,1.0
389,6d5f272e-2579-4494-9d02-157591622aeb,law advocates,po box 937,,bellingham,wa,98227,http://www.lawadvocates.org,provides free civil legal assistance to low-income whatcom county residents by linking them with attorney and community volunteers.,,,305,1.0
390,c88c67c4-4b33-4cca-8c6d-1ebfc7169afe,law advocates,po box 937,,bellingham,wa,98227,http://www.lawadvocates.org,provides free civil legal assistance to low-income whatcom county residents by linking them with attorney and community volunteers.,6d5f272e-2579-4494-9d02-157591622aeb,street_dup,306,1.0
391,55487236-8792-4d37-87ce-3afb94e0b8ca,law advocates,po box 937,,bellingham,wa,98227,http://www.lawadvocates.org,provides free civil legal assistance to low-income whatcom county residents by linking them with attorney and community volunteers.,,,307,1.0
392,af606e1e-5666-4ba6-b01a-7382759a2ac6,sea mar community health centers,3350 airport drive,,bellingham,wa,98226,https://www.seamar.org/,"provides comprehensive medical, dental, family health planning and social services. multilingual family health workers provide health advocacy and community resource education for limited english-speaking seniors. provides chemical dependency treatment services. outpatient behavioral health clinics provide individual and family counseling, youth anger management, as well as bilingual domestic violence survivor and chemical dependency support groups. operates a combined head start/eceap preschool classroom. provides wic services.",,,308,1.0
393,34c5cc99-7130-4b02-957c-059febfb09e3,sea mar community health centers,3350 airport drive,,bellingham,wa,98226,https://www.seamar.org/,"provides comprehensive medical, dental, family health planning and social services. multilingual family health workers provide health advocacy and community resource education for limited english-speaking seniors. provides chemical dependency treatment services. outpatient behavioral health clinics provide individual and family counseling, youth anger management, as well as bilingual domestic violence survivor and chemical dependency support groups. operates a combined head start/eceap preschool classroom. provides wic services.",af606e1e-5666-4ba6-b01a-7382759a2ac6,street_dup,309,1.0
394,aec0be93-322c-467f-b301-a0b315a94ba8,sea mar community health centers,6884 hannegan rd,,everson,wa,98247,https://www.seamar.org/,"provides comprehensive medical, dental, family health planning and social services. multilingual family health workers provide health advocacy and community resource education for limited english-speaking seniors. provides chemical dependency treatment services. outpatient behavioral health clinics provide individual and family counseling, youth anger management, as well as bilingual domestic violence survivor and chemical dependency support groups. operates a combined head start/eceap preschool classroom. provides wic services.",,,310,1.0
395,cf7a0bc4-f271-4a4d-8c57-73abfb7641d5,sea mar community health centers,1603 e illinois,,bellingham,wa,98226,https://www.seamar.org/,"provides comprehensive medical, dental, family health planning and social services. multilingual family health workers provide health advocacy and community resource education for limited english-speaking seniors. provides chemical dependency treatment services. outpatient behavioral health clinics provide individual and family counseling, youth anger management, as well as bilingual domestic violence survivor and chemical dependency support groups. operates a combined head start/eceap preschool classroom. provides wic services.",,,311,1.0
396,8bc4366b-b888-4f4e-a969-f46ac130e63f,sea mar community health centers,1603 e illinois,,bellingham,wa,98226,https://www.seamar.org/,"provides comprehensive medical, dental, family health planning and social services. multilingual family health workers provide health advocacy and community resource education for limited english-speaking seniors. provides chemical dependency treatment services. outpatient behavioral health clinics provide individual and family counseling, youth anger management, as well as bilingual domestic violence survivor and chemical dependency support groups. operates a combined head start/eceap preschool classroom. provides wic services.",cf7a0bc4-f271-4a4d-8c57-73abfb7641d5,street_dup,312,1.0
397,de8ae7dc-76e7-4719-83f0-c706f040a741,whatcom county,332 north commercial street,suite 220,bellingham,wa,98225,http://www.co.whatcom.wa.us,whatcom county government departments and services.,,,34,0.4159070884494678
398,3abb4a34-147a-470b-be02-1e5eeedc01ab,planned parenthood,1530 ellis st,,bellingham,wa,98225,http://ppgnhi.org,"provides contraception options, pregnancy testing and the hpv vaccine. offers pregnancy options counseling. also offers preventive health care screenings such as breast and pelvic exams, pap smears, and std testing. hiv testing is provided. services are confidential.",,,313,1.0
399,a9edcc7d-b864-405a-904c-b1a877b6f0ef,planned parenthood,1530 ellis st,,bellingham,wa,98225,http://ppgnhi.org,"provides contraception options, pregnancy testing and the hpv vaccine. offers pregnancy options counseling. also offers preventive health care screenings such as breast and pelvic exams, pap smears, and std testing. hiv testing is provided. services are confidential.",3abb4a34-147a-470b-be02-1e5eeedc01ab,street_dup,314,1.0
400,8dffd21b-2c65-436c-902a-6f736c8d5d89,lutheran counseling network,2600 lakeway dr,,bellingham,wa,98229,http://www.lutherancounseling.net,"provides counseling to individuals, couples and families at several lutheran churches around puget sound. provides couples therapy and counseling, and therapy for individuals and families, addressing such areas as anxiety, depression, behavioral problems, trauma recovery, parenting, sexuality and spirituality.",,,44,0.6460016921913592
401,be51a060-98ed-4d2c-bea8-db01dcf0d146,ideal option,205b lilly rd ne,ste b,olympia,wa,98506,https://www.idealoption.com/,"provides full service medical treatment for substance use disorder, including buprenorphine program for those with opioid addictions.",,,315,1.0
402,f081293c-288d-4a06-b850-f47f1a6ad2d0,veterans affairs puget sound health care system,1660 s columbian way,,seattle,wa,98108,http://www.pugetsound.va.gov/,"provides inpatient, outpatient and emergency services to meet the medical, surgical and psychiatric needs of eligible veterans, including evaluation, assessment and treatment for substance abuse. three king county outpatient clinics provide primary care, mental health services and social work services.",,,316,1.0
403,b37e5638-def3-44de-b8ff-b776bc564f9f,bellingham community meal program,2116 cornwall ave,,bellingham,wa,98225,https://www.assumption.org,provides once a month meals jan-oct to needy individuals and families.,,,25,0.16432171682452867
404,c30304b4-a79f-483e-8817-39372b7de9c0,bellingham community meal program,2116 cornwall aven,,bellingham,wa,98225,https://www.assumption.org,provides once a month meals jan-oct to needy individuals and families.,b37e5638-def3-44de-b8ff-b776bc564f9f,street_dup,317,1.0
405,ffa3172c-e997-4b4d-8d91-2ca2f1df8d7a,pioneer human services,2030 division st,,bellingham,wa,98226,http://pioneerhumanservices.org,"provides a chance for change to people overcoming the challenges of conviction histories, substance use disorders and mental health issues by offering treatment, housing, training and employment services. our vision is a world free from injustice, discrimination and mass incarceration, where everyone has the health, acceptance and opportunity to live their lives to their fullest potential.",,,318,1.0
406,ddd8576e-b199-4903-a7e5-872d93b90d4d,whatcom-skagit housing,5373 guide meridian,suite e105,bellingham,wa,98226,http://www.whatcomskagithousing.com,"provides technical assistance to qualified families who wish to build their own homes in cooperative groups. six to ten very-low to low income families are recruited and assisted in applying for individual home loans, selecting designs, and acquiring construction skills. participating families make a weekly labor commitment of 35 hours. program meets federal requirements of usda rural development. serves whatcom skagit counties.",,,35,0.47473001269749315
407,05537d67-27c5-4b89-a74e-047c95ccdaed,whatcom-skagit housing,5373 guide meridian,suite e105,bellingham,wa,98226,http://www.whatcomskagithousing.com,"provides technical assistance to qualified families who wish to build their own homes in cooperative groups. six to ten very-low to low income families are recruited and assisted in applying for individual home loans, selecting designs, and acquiring construction skills. participating families make a weekly labor commitment of 35 hours. program meets federal requirements of usda rural development. serves whatcom skagit counties.",ddd8576e-b199-4903-a7e5-872d93b90d4d,street_dup,35,0.47473001269749315
408,7ba87a04-1b11-4803-affb-c6d3313d9095,whatcom unified emergency coordination center,311 grand avenue,,bellingham,wa,98225,http://www.whatcomready.org,provides website information on emergency management and disaster preparedness as well as road closure and disaster kit lists for families and individuals living in the whatcom county area,,,319,1.0
409,7daddee3-5f5e-45ed-8855-512514aea080,wsu extension - whatcom county,1000 n forest st,suite 201,bellingham,wa,98225,https://extension.wsu.edu/whatcom,provides wellness and agricultural programs to residents of whatcom county.,,,27,0.47473001269749315
410,f99c9f63-2faa-49a2-a167-91e78ac3f523,ferndale community service cooperative,po box 2205,,ferndale,wa,98248,http://www.ferndalecsc.org,"offer opportunities to receive and give support to vulnerable families and individuals, including assistance applying for dshs benefits, worksource, and housing. homeless assistance includes shower vouchers, bus vouchers, referrals and assistance to appropriate programs. family support programs, financial literacy programs, mental health support group, drug and alcohol counseling.",,,320,1.0
411,d4c2bf6d-24ad-4ede-9661-4eba70befda7,lynden school district,1203 bradley rd,,lynden,wa,98264,http://www.lynden.wednet.edu,"schools in the lynden school district are lynden high school, lynden middle school, isom intermediate school, fisher elementary school, and bernice vossbeck elementary school.",,,321,1.0
412,1cfadd1e-376c-461b-89fe-e17741574bb5,lynden school district,1203 bradley rd,,lynden,wa,98264,http://www.lynden.wednet.edu,"schools in the lynden school district are lynden high school, lynden middle school, isom intermediate school, fisher elementary school, and bernice vossbeck elementary school.",d4c2bf6d-24ad-4ede-9661-4eba70befda7,street_dup,322,1.0
413,8984819d-bed9-42c0-99c3-791aaacedbbb,sean humphrey house,1630 h st,,bellingham,wa,98225,http://www.seanhumphreyhouse.org,"sean humphrey houses mission is to optimize the quality of life for low-income individuals living with hiv/aids, who may also suffer from other diseases and disabilities, and who are unable to live independently.",,,323,1.0
414,51429714-7f41-4eef-af8d-237ed8a90494,bellingham central lions club,po box 602,,bellingham,wa,98227,http://www.bellinghamcentrallions.org,"service organization that provides volunteers and financial assistance to people and public service programs in bellingham and whatcom county, and supports international service through the lions clubs international foundation (lcif).",,,324,1.0
415,4047895e-20a3-43f3-9b10-5d789c755b64,bellingham central lions club,po box 602,,bellingham,wa,98227,http://www.bellinghamcentrallions.org,"service organization that provides volunteers and financial assistance to people and public service programs in bellingham and whatcom county, and supports international service through the lions clubs international foundation (lcif).",51429714-7f41-4eef-af8d-237ed8a90494,street_dup,325,1.0
416,640158ef-e757-47ab-8577-c70b847f1e2d,whatcom family ymca,1256 north state street,,bellingham,wa,98225,http://whatcomymca.org,"social service organization providing program for all ages. primary programs include childcare, aquatics, youth fitness and enrichment, leadership development and healthy lifestyle/fitness opportunities for adults and seniors.",,,326,1.0
417,df6792d7-4058-4166-8e05-e630f7716d2f,whatcom family ymca,1256 north state st,,bellingham,wa,98225,http://whatcomymca.org,"social service organization providing program for all ages. primary programs include childcare, aquatics, youth fitness and enrichment, leadership development and healthy lifestyle/fitness opportunities for adults and seniors.",640158ef-e757-47ab-8577-c70b847f1e2d,street_dup,327,1.0
418,f638e3b9-a357-442f-b5b9-45e595bdb141,whatcom family ymca,2415 rimland dr,,bellingham,wa,98226,http://whatcomymca.org,"social service organization providing program for all ages. primary programs include childcare, aquatics, youth fitness and enrichment, leadership development and healthy lifestyle/fitness opportunities for adults and seniors.",,,328,1.0
419,52f460ea-c167-4026-88f6-1390543f7f45,domestic violence and sexual assault services of whatcom county,1407 commercial st,,bellingham,wa,98225,http://www.dvsas.org,supports individuals affected by domestic violence and sexual assault and provides community education. all services are free and confidential.,,,329,1.0
420,e36b94ed-c9d6-4286-a5d1-3f334e02198b,whatcom county,332 north commercial st,suite 220,bellingham,wa,98225,http://www.co.whatcom.wa.us,whatcom county government departments and services.,de8ae7dc-76e7-4719-83f0-c706f040a741,street_dup,34,0.4159070884494678
421,e8e58526-a5ca-4c19-b7f2-ba00c8e076e8,required text,text,text,text,two character state (all caps),99999 or 99999-9999,http://some.domain.com,required text,,,58,0.47473001269749315
422,9a1a5f22-ee70-407d-a112-1e01891871a2,depressive and bipolar support alliance whatcom county,800 chestnut street,suite 1c,bellingham,wa,98225,http://www.dbsalliance.org,"peer-directed national organization focusing on the two most prevalent mental health conditions, depression and bipolar disorder. provides hope, help, support, and education to improve the lives of people who have mood disorders.",,,0,0.9986917972781955
423,5c752dfc-8a94-41bd-be91-bf2bf3a46d83,domestic violence and sexual assault services of whatcom county,1407 commercial street,,bellingham,wa,98225,http://www.dvsas.org,supports individuals affected by domestic violence and sexual assault and provides community education. all services are free and confidential.,52f460ea-c167-4026-88f6-1390543f7f45,street_dup,330,1.0
424,48d5ee09-b0db-4f5e-bba8-298952c7fc52,city of bellingham,210 lottie st,,bellingham,wa,98225,https://cob.org,"the city of bellingham, which serves as the",,,331,1.0
425,6bc4cc85-e3a5-4bfa-be79-257035732016,city of bellingham,210 lottie st,,bellingham,wa,98225,https://cob.org,"the city of bellingham, which serves as the",48d5ee09-b0db-4f5e-bba8-298952c7fc52,street_dup,332,1.0
426,e9f4ee21-9135-464e-8363-539d1375e5c9,opportunity council in whatcom county,1111 cornwall avenue suite c,,bellingham,wa,98225,http://www.oppco.org,"provides a range of services including helping people in crisis meet immediate needs while providing long-term support. we shelter people who are homeless, feed people who are hungry, prepare young children for school, help keep people safe and warm through the winter, and more.",,,333,1.0
427,e44450bb-9ad3-453d-9ada-65f373e4b136,opportunity council in whatcom county,1111 cornwall avenue suite c,,bellingham,wa,98225,http://www.oppco.org,"provides a range of services including helping people in crisis meet immediate needs while providing long-term support. we shelter people who are homeless, feed people who are hungry, prepare young children for school, help keep people safe and warm through the winter, and more.",e9f4ee21-9135-464e-8363-539d1375e5c9,street_dup,334,1.0
428,d0eb35c3-b1a3-49ff-ac18-29a198f67046,opportunity council in whatcom county,2750 mcleod rd,,bellingham,wa,98225,http://www.oppco.org,"provides a range of services including helping people in crisis meet immediate needs while providing long-term support. we shelter people who are homeless, feed people who are hungry, prepare young children for school, help keep people safe and warm through the winter, and more.",,,335,1.0
429,790e0631-596f-4125-8d85-86a5848f8a5b,opportunity council in whatcom county,2750 mcleod road,,bellingham,wa,98225,http://www.oppco.org,"provides a range of services including helping people in crisis meet immediate needs while providing long-term support. we shelter people who are homeless, feed people who are hungry, prepare young children for school, help keep people safe and warm through the winter, and more.",d0eb35c3-b1a3-49ff-ac18-29a198f67046,street_dup,336,1.0
430,a3b01795-0c9a-4dce-a92d-2df45542481f,volunteer center of whatcom county,1111 cornwall avenue,,bellingham,wa,98225,http://www.whatcomvolunteer.org,"links volunteers of all ages who want to contribute their talent and time to partner organizations - schools, health care facilities, government agencies, and a wide range of nonprofits throughout whatcom county.",,,337,1.0
431,b01baf37-f077-4acd-a1a5-f7cfabd2bad7,volunteer center of whatcom county,1111 cornwall avenue,,bellingham,wa,98225,http://www.whatcomvolunteer.org,"links volunteers of all ages who want to contribute their talent and time to partner organizations - schools, health care facilities, government agencies, and a wide range of nonprofits throughout whatcom county.",a3b01795-0c9a-4dce-a92d-2df45542481f,street_dup,338,1.0
432,e220dd13-b697-488d-af64-ec6b4cbb91c0,whatcom dispute resolution center,"13 prospect st, suite 201",,bellingham,wa,98225,http://www.whatcomdrc.org,"provides and promotes constructive and collaborative approaches to conflict. we recognize that conflict is a normal and natural part of life, and offer mediation, facilitation, coaching, supervised visitation and community education services to youth and adults.",,,339,1.0
433,01b9c15b-c8d1-4adf-8493-2a5091e975ea,northwest workforce council,po box 2009,,bellingham,wa,98227,http://www.nwboard.org/,"the council is dedicated to addressing the full spectrum of workforce needs through an outcome and customer based model that addresses the needs of both employers and job seekers. we envision that a cohesive workforce strategy created through the common goals of business, education, labor, and community organizations will yield strong economic outcomes and an adaptable and skilled workforce.",,,63,0.5684936007170827
434,af80f447-47e8-452a-a7ef-d30657041c54,northwest workforce council,po box 2009,,bellingham,wa,98227,http://www.nwboard.org/,"the council is dedicated to addressing the full spectrum of workforce needs through an outcome and customer based model that addresses the needs of both employers and job seekers. we envision that a cohesive workforce strategy created through the common goals of business, education, labor, and community organizations will yield strong economic outcomes and an adaptable and skilled workforce.",01b9c15b-c8d1-4adf-8493-2a5091e975ea,street_dup,340,1.0
435,94c8fddb-ae45-426c-9e85-a3536174cef4,unity care northwest,220 unity street,,bellingham,wa,98225,http://unitycarenw.org,"offers affordable primary care, dental, behavioral health, and pharmacy services for children and adults in whatcom county.",,,40,0.44621863784140403
436,224ed142-1d76-4f39-a48b-cc0e07550cd1,acme elementary school,5200 turkington rd,,acme,wa,98220,https://www.mtbaker.wednet.edu/o/acme,,,,341,1.0
437,8718f344-c97d-430a-aa7b-a184f2b40ced,kids in motion therapy clinic,"4152 meridian st,suite 105",,bellingham,wa,98226,,,,,20,0.7167562916361003
438,a52db2a3-aaff-48bb-ba93-d7655f43b106,kids in motion therapy clinic,"4152 meridian st,suite 105",,bellingham,wa,98226,,,8718f344-c97d-430a-aa7b-a184f2b40ced,street_dup,20,0.7167562916361003
439,80c1f9d7-7db6-449b-8451-b7ae270b67a4,max higbee center,"1210 bay st,suite,102",,bellingham,wa,98225,,,,,36,0.9734911321018286
440,85e6a08f-55c8-4b44-896e-c25de7b3b0a2,max higbee center,"1210 bay st,suite,102",,bellingham,wa,98225,,,80c1f9d7-7db6-449b-8451-b7ae270b67a4,street_dup,36,0.9734911321018286
441,71fc92b3-f0a2-4333-9057-fb5893aa5450,blaine food bank,500 c st,,blaine,wa,98230,https://www.blainefoodbank.org/,"this food bank serves residents of blaine, custer, birch bay semihamoo.",,,342,1.0
442,405581a5-42b3-453b-90a3-6aa3cdbe36c2,faces northwest,po box 30943,,bellingham,wa,98228,,,,,61,0.980668067955652
443,9cb14968-d994-4144-bdbd-07b3a7cf254a,squalicum high school,3773 e mcleod rd,,bellingham,wa,98226,,,,,7,0.5507968584114704
444,431bfb33-701e-4fc0-b2db-f98c7875aa5a,squalicum high school,3773 e mcleod rd,,bellingham,wa,98226,,,9cb14968-d994-4144-bdbd-07b3a7cf254a,street_dup,7,0.5507968584114704
445,5290ba22-197c-4957-b920-31ebafc810d5,sehome high school,2700 bill mcdonald pkwy,,bellingham,wa,98225,,,,,67,0.9734911322593689
446,57a20d21-c19c-4e6b-a633-3eebe9f953c0,sehome high school,2700 bill mcdonald pkwy,,bellingham,wa,98225,,,5290ba22-197c-4957-b920-31ebafc810d5,street_dup,67,0.9734911322593689
447,cbdc808c-fef3-4c66-9c24-f586e6e25103,nooksack valley school,3326 e badger rd,,everson,wa,98247,,,,,4,0.7982345191071608
448,a0ccdefe-1900-4549-bccf-8d6dd0e73062,whatcom county health department,1500 n state st,,bellingham,wa,98225,https://www.whatcomcounty.us/360/health-department,,,,343,1.0
449,70003059-c90f-4f20-9b87-f0fe0313eaf8,blaine school district - play learn group,4460 bay rd,,blaine,wa,98230,,birch bay bible community church,,,68,0.6947766542434692
450,a24d9a40-9975-40e3-8b93-f35c974649e7,blaine school district - play learn group,4460 bay rd.,,blaine,wa,98230,,birch bay bible community church,70003059-c90f-4f20-9b87-f0fe0313eaf8,street_dup,68,0.6947766542434692
451,54ef9a5e-88b4-4526-b873-76bfedf62d82,project hope,205 s british columbia ave,,lynden,wa,98264,https://www.projecthopelynden.org/project-hope-food-bank/,,,,344,1.0
452,4c26c9ae-a4a1-482a-a63f-b0a380d55f5f,project hope,205 s british columbia ave.,,lynden,wa,98264,https://www.projecthopelynden.org/project-hope-food-bank/,,54ef9a5e-88b4-4526-b873-76bfedf62d82,street_dup,345,1.0
453,94ef8bcc-d968-45fc-8a5e-25559f5778ed,bellingham unitarian fellowship - humanitas ministry,1207 ellsworth st,,bellingham,wa,98225,https://www.humanitasministry.org/,"the humanitas ministry provides limited financial assistance to residents of whatcom county who are in need. typical requests may include a monthly bus pass, groceries, gasoline, camping gear, assistance with utilities, or other necessities.",,,346,1.0
454,34427f20-f3b5-4a89-b0d9-99a179b075e2,foothills food bank (saint peters church),"east whatcom regional resource center,8255 kendal road",,maple falls,wa,98266,,,,,347,1.0
455,04f308ca-bcb7-40e5-aaf6-0fa1043c3817,laurel community baptist church,162 w laurel rd,,bellingham,wa,98226,,,,,46,0.9764538555022835
456,c8ab654d-fdc0-4070-aeb0-1a1780040f40,laurel community baptist church,162 w laurel rd.,,bellingham,wa,98226,,,04f308ca-bcb7-40e5-aaf6-0fa1043c3817,street_dup,46,0.9763530845116273
457,8997bd05-2408-43a6-91dd-e904e313e2c9,harmony elementary school,5060 sand rd,,bellingham,wa,98226,https://www.mtbaker.wednet.edu/o/harmony,this school is part of the mt baker school district.,,,348,1.0
458,f567a6bd-6d50-4320-a54a-dddc8f389b60,kendall elementary school,7547 kendall rd,,maple falls,wa,98266,https://www.mtbaker.wednet.edu/o/kendall,this elementary school is part of the mt. baker school district.,,,56,0.6091834919212473
459,fcbaaaee-f0b4-45f3-9690-98abc5020122,whatcom county dental resource list,800 e chestnut ll suite 2,,bellingham,wa,98227,,,,,2,0.9734911321018286
460,e7ac489f-5047-4961-8e2f-a969ab701ae2,whatcom county dental resource list,800 e chestnut ll suite 2,,bellingham,wa,98227,,,fcbaaaee-f0b4-45f3-9690-98abc5020122,street_dup,2,0.9734911321018286
461,cb5e45fa-8054-45af-9112-f34696cb4471,ferndale school district,"early learning center,5275 nw dr,26",,ferndale,wa,98248,,,,,349,1.0
462,adc297d7-a648-4f1f-9496-6f97b387f872,nooksack valley food bank,204 n washington,,everson,wa,98247,,,,,350,1.0
463,45087d7e-1073-4f9d-abe0-c99b877a30f2,satellite food bank at christ the king community church,4173 meridian st,,bellingham,wa,98226,,,,,20,0.7512484101167931
464,e2665f40-fc2a-4708-9adc-d689da52a1e5,satellite food bank at christ the king community church,4173 meridian street,,bellingham,wa,98226,,,45087d7e-1073-4f9d-abe0-c99b877a30f2,street_dup,20,0.5303385619160365
465,0c59af68-9d8b-4293-928d-81562699a30d,whatcom taking action,1111 cornwall avenue,,bellingham,wa,98225,https://whatcomtakingaction.org/,"provides phone screening, intake referrals for children with special health care needs.",,,351,1.0
466,caf09467-3626-4069-9f74-b33e28ea3b3a,washington hands and voices,"2950 newmarket st,suite 101-124",,bellingham,wa,98226,,,,,352,1.0
467,877d3950-a2a6-44e9-ae47-c7388caea663,lydia place,1701 gladstone street,,bellingham,wa,98229,https://lydiaplace.org/,,,,353,1.0
468,43cd4242-5438-407c-9497-08295baf5edc,lydia place,1701 gladstone st,,bellingham,wa,98229,https://lydiaplace.org/,,877d3950-a2a6-44e9-ae47-c7388caea663,street_dup,354,1.0
469,528e9f5a-8469-4d3a-862d-db9c1eb2d688,bellingham parks recreation,3424 meridian st,,bellingham,wa,98225,,,,,20,0.623467765698381
470,71ef1f10-8120-4ad9-8f03-39002eee8c76,hillcrest church,1504 larrabee ave,,bellingham,wa,98225,,,,,355,1.0
471,dc56ba70-b5ec-4504-b24a-88592c0325d6,northwest regional council,"600 lakeway dr,suite 100",,bellingham,wa,98225,,"you must be enrolled in apple health (medicaid) in san juan, skagit, island, or whatcom county, and your transportation needs must be for a medical appointment such as: dialysis, ob, medical, dental, scheduled covid-19 vaccines appointments, etc.pease call at least at least 7-14 days before of your appointment. if you request transportation less than 2 business days before your appointment, they may not be able to schedule transportation for you.trips are paid by clients medicaid coverage.the most common types of transportation available include:- bus tickets and passes- gas vouchers- intercity buses (such as greyhound)- wheelchair van/cabulance- ferry tickets- air water taxi- taxi- uber",,,44,0.6958333548753781
472,e334de2a-130f-4b15-8eef-01e1c00a45fd,northwest regional council,"600 lakeway dr,suite 100",,bellingham,wa,98225,,"you must be enrolled in apple health (medicaid) in san juan, skagit, island, or whatcom county, and your transportation needs must be for a medical appointment such as: dialysis, ob, medical, dental, scheduled covid-19 vaccines appointments, etc.pease call at least at least 7-14 days before of your appointment. if you request transportation less than 2 business days before your appointment, they may not be able to schedule transportation for you.trips are paid by clients medicaid coverage.the most common types of transportation available include:- bus tickets and passes- gas vouchers- intercity buses (such as greyhound)- wheelchair van/cabulance- ferry tickets- air water taxi- taxi- uber",dc56ba70-b5ec-4504-b24a-88592c0325d6,street_dup,44,0.6958333548753781
473,0676672a-f5f9-48a3-bc48-4c4b0eb018dc,rebound families (whatcom county),"316 e mcleod rd,suite 102",,bellingham,wa,98226,,,,,356,1.0
474,dc111106-4fc9-4be2-a027-51e7f9431145,point roberts food bank,1480 gulf rd,,point roberts,wa,98281,,,,,357,1.0
475,48f9d8e4-84ae-4437-97f2-d32a6a53c907,bellingham public library,210 central ave,,bellingham,wa,98227,,,,,21,0.9843952589790108
476,6682e442-4e91-4d81-8a77-ddfa71771252,bellingham public library,210 central aven,,bellingham,wa,98227,,,48f9d8e4-84ae-4437-97f2-d32a6a53c907,street_dup,21,0.9843179295276654
477,824c4ced-df37-43c4-adc2-3a5d4aff1ba0,ferndale community service cooperative - resource center,5694 2nd ave,,ferndale,wa,98248,,,,,16,0.9796907849009349
478,6a21fcc5-ec7e-4767-99a4-c29673bf6b4f,ferndale community service cooperative - resource center,5694 2nd aven,,ferndale,wa,98248,,,824c4ced-df37-43c4-adc2-3a5d4aff1ba0,street_dup,16,0.978452033594954
479,35280018-856f-494f-8153-8266a839e9ce,satellite food bank at alderwood elementary,3400 hollywood ave,,bellingham,wa,98225,,,,,37,0.9657564164403188
480,d89ff0b8-1600-41a4-8cb1-9fe1a9c48dfd,satellite food bank at alderwood elementary,3400 hollywood avenue,,bellingham,wa,98225,,,35280018-856f-494f-8153-8266a839e9ce,street_dup,37,0.9657564164403188
481,563b0963-ae8d-46c6-9cb5-e80d5d0fc977,bellingham technical college,3028 lindbergh ave,,bellingham,wa,98225,,,,,3,0.9934900998032308
482,00846fcb-618c-41af-a7bb-fe2671620837,st. paul episcopal church - alms ministry,2117 walnut st,,bellingham,wa,98225,,,,,53,0.977447802521236
483,49fbf168-9e4b-41a3-9edd-394c281beb9d,st. paul episcopal church - alms ministry,2117 walnut st.,,bellingham,wa,98225,,,00846fcb-618c-41af-a7bb-fe2671620837,street_dup,53,0.9581665170597409
484,b95b9c23-f16d-490a-8fae-2eefafa15753,hope house,207 kentucky st,,bellingham,wa,98226,,,,,42,0.9907813071341335
485,cfc1a5fc-0b39-45f9-8894-d10d046e2de8,lummi tribal health center,2592 kwina rd,,bellingham,wa,98226,https://www.lummi-nsn.gov/website.phppageid433,,,,358,1.0
486,8fb32c5a-887c-4390-a81c-a8662f2b251b,down syndrome outreach of whatcom county,2602 mcleod rd,,bellingham,wa,98225,,,,,8,0.950891242907703
487,72bdef17-02de-407d-ab57-b02091bbbf76,down syndrome outreach of whatcom county,2602 mcleod road,,bellingham,wa,98225,,,8fb32c5a-887c-4390-a81c-a8662f2b251b,street_dup,8,0.9457191628608623
488,41eb207f-c268-4b49-9334-5ae767923db7,ferndale food bank,1671 main st,,ferndale,wa,98248,,,,,24,0.4978951214953953
489,59a89412-1951-4b65-87cc-3873fa5a0da7,nooksack medical clinic (everson),2510 sulwhanon dr,,everson,wa,98247,,,,,41,0.9799470980935676
490,ce21ee2e-e5d4-485b-9d15-5c25908e9804,nooksack medical clinic (everson),2510 sulwhanon dr,,everson,wa,98247,,,59a89412-1951-4b65-87cc-3873fa5a0da7,street_dup,41,0.9799470980935676
491,f1c210a8-c93f-4999-b8e4-46caf7864a4b,bellingham food bank,1824 ellis st,,bellingham,wa,98225,https://www.bellinghamfoodbank.org/,,,,359,1.0
492,4c9fa3a8-a9cb-4117-96cd-ee31b17fbe3c,sendan center,"4201 meridian st,suite",,bellingham,wa,98226,,,,,20,0.5800854628231498
493,3cd884e9-d6a8-4463-9b81-4295b8378e80,opportunity council (whatcom san juan),"1111 cornwall ave,suite c",,bellingham,wa,98225,https://www.oppco.org/,,,,360,1.0
494,0780c07a-3015-4b73-8d23-ca3a3dd205a3,opportunity council (whatcom san juan),"1111 cornwall ave,suite c",,bellingham,wa,98225,https://www.oppco.org/,,3cd884e9-d6a8-4463-9b81-4295b8378e80,street_dup,361,1.0
495,76924a9f-7b71-465f-86be-4660df9fc704,sacred heart church / st vincent de paul (bellingham),1110 14th st,,bellingham,wa,98225,,,,,11,0.8947492630643652
496,35d0c47a-71a0-4226-8d44-380e2b982fd0,sacred heart church / st vincent de paul (bellingham),1110 14th st,,bellingham,wa,98225,,,76924a9f-7b71-465f-86be-4660df9fc704,street_dup,11,0.8947492630643652
497,e0a84229-3890-454c-8030-ce5dd936d182,salvation army (bellingham),2912 northwest ave,,bellingham,wa,98225,,,,,48,0.977055254768894
498,c806b50b-3c5a-476c-b32a-1c5652b494f7,salvation army (bellingham),2912 northwest ave.,,bellingham,wa,98225,,,e0a84229-3890-454c-8030-ce5dd936d182,street_dup,48,0.9745429708462873
499,00a0cab5-086f-4566-b504-f8f325e7c60e,arc of whatcom county,2602 mcleod rd,,bellingham,wa,98225,,,,,8,0.9725840182819463
500,8b2e08d9-533a-43a1-946c-3556257f60c8,catholic community services (whatcom county),"1133 railroad ave, 100",,bellingham,wa,98225,,,,,33,0.921180069685838
501,5878ec90-6489-4b8a-baf2-1caac9549589,compass health (bellingham - mcleod rd),3645 e mcleod rd,,bellingham,wa,98226,,,,,7,0.7946035647234675
502,55e53ab3-58e0-46b4-ba80-4fe14c1e172b,compass health (bellingham - mcleod rd),3645 e mcleod road,,bellingham,wa,98226,,,5878ec90-6489-4b8a-baf2-1caac9549589,street_dup,7,0.5871608439963655
503,7bdb50c4-72fb-4689-83ef-cefaa3cf78e8,sea mar community health center (everson),6884 hannegan road,,everson,wa,98247,https://www.seamar.org/whatcom-medical-everson.html,,,,362,1.0
504,966dc3f5-3f7f-40bb-b2c6-6514aa4f01ca,sea mar community health center (downtown bellingham wic),1764 iowa st,,bellingham,wa,98229,,,,,50,0.9691785749715593
505,b3f1e38b-c110-4d5c-87ac-e220125d750b,sea mar community health center (downtown bellingham wic),1764 iowa st,,bellingham,wa,98229,,,966dc3f5-3f7f-40bb-b2c6-6514aa4f01ca,street_dup,50,0.9691785749715593
506,d6fc21cd-70d5-43b0-a8e7-a111985cc7a1,sea mar community health center (ferndale),"6046 portal way,unit, 201, building 101",,ferndale,wa,98248,,,,,51,0.9521255586088968
507,019259a7-64f0-4957-9933-5b1fe885f052,sea mar community health center (bellingham),4455 cordata pkwy,,bellingham,wa,98226,https://www.seamar.org/whatcom-medical-bellingham.html,,,,363,1.0
508,0cc7abd0-4997-4950-9e3f-f64e7d200781,sea mar community health center (bellingham),4455 cordata pkwy,,bellingham,wa,98226,https://www.seamar.org/whatcom-medical-bellingham.html,,019259a7-64f0-4957-9933-5b1fe885f052,street_dup,364,1.0
509,97f8c002-73c5-4f66-ad3d-43975c2ef9ac,sea mar community health center (bellingham behavioral),3350 airport drive,,bellingham,wa,98226,https://www.seamar.org/whatcom-bh-bellingham.html,offers comprehensive case management and behavioral health services for adults and children.,,,365,1.0
510,051241b5-2148-4e0e-b0e1-5e713a832595,early intervention services (whatcom county),"1111 cornwall ave,ste 200",,bellingham,wa,98225,,,,,25,0.5917074823223782
511,476b0a24-9fde-41e4-9b3b-e38e0b5c0251,parent to parent (whatcom),2602 mcleod rd,,bellingham,wa,98225,,,,,8,0.9512899600956135
512,fad0fcf1-2015-4500-8428-6703e71ee138,parent to parent (whatcom),2602 mcleod road,,bellingham,wa,98225,,,476b0a24-9fde-41e4-9b3b-e38e0b5c0251,street_dup,8,0.9498487783981733
513,fb44ba01-5a1b-407d-a8b8-657c048c8436,whatcom center for early learning (lynden),1986 main st,,lyden,wa,98264,,,,,24,0.5701193360005112
514,2cd8dc18-6d1e-4fae-8aa3-75ea2a491155,whatcom center for early learning (lynden),1986 main str.,,lyden,wa,98264,,,fb44ba01-5a1b-407d-a8b8-657c048c8436,street_dup,24,0.4879526810278033
515,b31d207e-5217-44f1-a5f1-26253542fd47,whatcom center for early learning (ferndale),"205 cherry st,5534 2nd ave",,ferndale,wa,98248,,,,,38,0.9682073600148384
516,70b40c59-f2b7-4f5f-a29c-7f9563424ca4,whatcom center for early learning (ferndale),"205 cherry st,5534 2nd avenue",,ferndale,wa,98248,,,b31d207e-5217-44f1-a5f1-26253542fd47,street_dup,38,0.9682073600148384
517,a4b9902c-bd0d-4006-a3db-87bde13ee2a9,planned parenthood (bellingham),1530 ellis st,,bellingham,wa,98225,https://www.plannedparenthood.org/health-center/washington/bellingham/98225/bellingham-health-center-2454-91780,,,,366,1.0
518,8396d864-2e94-4cc9-8a42-633cecad8800,food lifeline mobile food program in maple falls,8251 kendall rd,,maple falls,wa,98266,,,,,55,0.9728028610801988
519,bc0f99a7-fcfa-42b2-b8a0-5878b8e2c5ea,food lifeline mobile food program in maple falls,8251 kendall rd,,maple falls,wa,98266,,,8396d864-2e94-4cc9-8a42-633cecad8800,street_dup,55,0.9728028610801988
520,d999c671-7239-4eb6-9ac3-0cf83c89e935,"hearing, speech and deaf center (bellingham)","114 w magnolia st,suite 106",,bellingham,wa,98225,,,,,15,0.61418276201071
521,4bda66c7-ca5a-40eb-8177-c5020c095b6c,brigid collins family support center (bellingham),"1231 n garden st,200",,bellingham,wa,98225,,,,,32,0.8148036688167191
522,37826b72-4195-476a-99af-01df992458a9,brigid collins family support center (bellingham),"1231 n garden st,200",,bellingham,wa,98225,,,4bda66c7-ca5a-40eb-8177-c5020c095b6c,street_dup,32,0.8148036688167191
523,a235dc0e-073f-4c1d-82cb-dae2e0e6ff9f,unity care nw (point roberts clinic),2030 benson rd,,point roberts,wa,98281,,,,,367,1.0
524,9d0854bc-56a9-434f-b660-392f16299182,unity care nw (ferndale health center),6060 portal way,,ferndale,wa,98248,,,,,51,0.9640983951359436
525,61685546-af5c-4bca-b573-8f93dbbf56a9,unity care nw (ferndale health center),6060 portal way,,ferndale,wa,98248,,,9d0854bc-56a9-434f-b660-392f16299182,street_dup,51,0.9640983951359436
526,ed606696-21b7-438c-ac45-248b75b566dc,"unity care nw (bellingham, cornwall ave)","1616 cornwall ave,ste. 205",,bellingham,wa,98225,,,,,25,0.602198605837466
527,195d1df8-fda4-459e-ad0e-d0f59d64cf50,unity care nw (bellingham health center),220 unity st,,bellingham,wa,98225,,,,,40,0.9841106575858575
528,57f30470-d35a-4ad4-b9fb-73df48213c88,unity care nw (bellingham health center),220 unity st,,bellingham,wa,98225,,,195d1df8-fda4-459e-ad0e-d0f59d64cf50,street_dup,40,0.9841106575858575
529,e0f1c055-10ca-4466-bbd2-3d686c29173c,assessment and treatment associates (bellingham),1752 iowa st,,bellingham,wa,98229,https://www.assesstreat.com/bellingham/,,,,50,0.454235152961477
530,be47e527-e091-4dc5-bd85-0095c81442bb,belair clinic,1130 n state st,,bellingham,wa,98225,https://www.belairclinic.com,,,,368,1.0
531,4d2e41ce-b403-4e3f-9dda-0b4a50c7d679,belair clinic,1130 n state st,,bellingham,wa,98225,https://www.belairclinic.com,,be47e527-e091-4dc5-bd85-0095c81442bb,street_dup,369,1.0
532,ac727710-fab6-409c-aefe-06c5103e2335,bridges treatment and recovery (bellingham),"1221 fraser st,suite e-1",,bellingham,wa,98229,https://www.bridgestreatment.com,,,,370,1.0
533,6cdfe17e-181f-416f-8178-830fbb8e650c,bridges treatment and recovery (ferndale),"6044 portal way,103",,ferndale,wa,98248,https://www.bridgestreatment.com,,,,51,0.44193663573859454
534,79970ce1-dc37-4a82-98a1-d73ee635c322,bridges treatment and recovery (ferndale),"6044 portal way,103",,ferndale,wa,98248,https://www.bridgestreatment.com,,6cdfe17e-181f-416f-8178-830fbb8e650c,street_dup,51,0.44193663573859454
535,0286865a-e288-4dd4-aa12-e986dc6d8b5f,lake whatcom residential treatment center,3600 meridian st,,bellingham,wa,98225,https://lwrtc.org/services/medical-services/,,,,20,0.37113924247568086
536,8f22d943-4e6c-472c-9adf-0cc403ba9865,lummi care,2694 kwina rd,,bellingham,wa,98226,https://www.lummi-nsn.gov/website.phppageid671,,,,371,1.0
537,b9c69ae7-c580-46a9-8c48-d4d0f6b4bdbe,nooksack tribe (genesis ii),"2505 sulwhanon drive,modular building a",,everson,wa,98247,https://nooksacktribe.org/departments/health/alcohol-chemical-dependency/,,,,41,0.6163735221963809
538,77dbc64e-ca02-4551-a3df-936cc47d1b57,nooksack tribe (genesis ii),"2505 sulwhanon drive,modular building a",,everson,wa,98247,https://nooksacktribe.org/departments/health/alcohol-chemical-dependency/,,b9c69ae7-c580-46a9-8c48-d4d0f6b4bdbe,street_dup,41,0.6163735221963809
