{"distinct": [{"__class__": "tuple", "__value__": [{"name": "foothills food bank", "address_1": "8255 kendall road", "address_2": "", "city": "maple falls", "state_province": "wa", "postal_code": "98266", "url": "http://www.foothillsfoodbank.org"}, {"name": "foothills food bank", "address_1": "8251 kendall road", "address_2": "", "city": "sumas", "state_province": "wa", "postal_code": "98295", "url": "http://www.foothillsfoodbank.org"}]}, {"__class__": "tuple", "__value__": [{"name": "whatcom hospice", "address_1": "3001 squalicum parkway", "address_2": "suite 11", "city": "bellingham", "state_province": "wa", "postal_code": "98225", "url": "http://whatcomhospice.org"}, {"name": "whatcom hospice", "address_1": "2901 squalicum parkway", "address_2": "", "city": "bellingham", "state_province": "wa", "postal_code": "98225", "url": "http://whatcomhospice.org"}]}, {"__class__": "tuple", "__value__": [{"name": "whatcom hospice", "address_1": "3001 squalicum parkway", "address_2": "suite 11", "city": "bellingham", "state_province": "wa", "postal_code": "98225", "url": "http://whatcomhospice.org"}, {"name": "whatcom hospice", "address_1": "2901 squalicum parkway", "address_2": "", "city": "bellingham", "state_province": "wa", "postal_code": "98225", "url": "http://whatcomhospice.org"}]}, {"__class__": "tuple", "__value__": [{"name": "volunteer center of whatcom county", "address_1": "1419 cornwall avenue", "address_2": "", "city": "bellingham", "state_province": "wa", "postal_code": "98225", "url": "http://www.whatcomvolunteer.org"}, {"name": "volunteer center of whatcom county", "address_1": "1111 cornwall avenue", "address_2": "", "city": "bellingham", "state_province": "wa", "postal_code": "98225", "url": "http://www.whatcomvolunteer.org"}]}, {"__class__": "tuple", "__value__": [{"name": "volunteer center of whatcom county", "address_1": "1419 cornwall avenue", "address_2": "", "city": "bellingham", "state_province": "wa", "postal_code": "98225", "url": "http://www.whatcomvolunteer.org"}, {"name": "volunteer center of whatcom county", "address_1": "1111 cornwall avenue", "address_2": "", "city": "bellingham", "state_province": "wa", "postal_code": "98225", "url": "http://www.whatcomvolunteer.org"}]}, {"__class__": "tuple", "__value__": [{"name": "volunteer center of whatcom county", "address_1": "1419 cornwall avenue", "address_2": "", "city": "bellingham", "state_province": "wa", "postal_code": "98225", "url": "http://www.whatcomvolunteer.org"}, {"name": "volunteer center of whatcom county", "address_1": "1111 cornwall avenue", "address_2": "", "city": "bellingham", "state_province": "wa", "postal_code": "98225", "url": "http://www.whatcomvolunteer.org"}]}, {"__class__": "tuple", "__value__": [{"name": "lutheran counseling network", "address_1": "2600 lakeway drive", "address_2": "christ the servant lutheran church", "city": "bellingham", "state_province": "wa", "postal_code": "98229", "url": "http://www.lutherancounseling.net"}, {"name": "northwest regional council", "address_1": "600 lakeway drive", "address_2": "suite 100", "city": "bellingham", "state_province": "wa", "postal_code": "98225", "url": "http://www.nwrcwa.org"}]}, {"__class__": "tuple", "__value__": [{"name": "lutheran counseling network", "address_1": "2600 lakeway drive", "address_2": "christ the servant lutheran church", "city": "bellingham", "state_province": "wa", "postal_code": "98229", "url": "http://www.lutherancounseling.net"}, {"name": "northwest regional council", "address_1": "600 lakeway drive", "address_2": "suite 100", "city": "bellingham", "state_province": "wa", "postal_code": "98225", "url": "http://www.nwrcwa.org"}]}, {"__class__": "tuple", "__value__": [{"name": "volunteer center of whatcom county", "address_1": "1419 cornwall avenue", "address_2": "", "city": "bellingham", "state_province": "wa", "postal_code": "98225", "url": "http://www.whatcomvolunteer.org"}, {"name": "volunteer center of whatcom county", "address_1": "1111 cornwall avenue", "address_2": "", "city": "bellingham", "state_province": "wa", "postal_code": "98225", "url": "http://www.whatcomvolunteer.org"}]}, {"__class__": "tuple", "__value__": [{"name": "north sound cooling centers", "address_1": "2095 main street", "address_2": "", "city": "ferndale", "state_province": "wa", "postal_code": "98248", "url": ""}, {"name": "north sound cooling centers", "address_1": "2125 main street", "address_2": "", "city": "ferndale", "state_province": "wa", "postal_code": "98248", "url": ""}]}, {"__class__": "tuple", "__value__": [{"name": "pioneer human services", "address_1": "2026 division street", "address_2": "", "city": "bellingham", "state_province": "wa", "postal_code": "98226", "url": "http://pioneerhumanservices.org"}, {"name": "pioneer human services", "address_1": "2030 division st", "address_2": "", "city": "bellingham", "state_province": "wa", "postal_code": "98226", "url": "http://pioneerhumanservices.org"}]}, {"__class__": "tuple", "__value__": [{"name": "whatcom county courts", "address_1": "5694 2nd ave.", "address_2": "", "city": "ferndale", "state_province": "wa", "postal_code": "98248", "url": "http://www.courts.wa.gov/court_dir/orgs/296.html"}, {"name": "ferndale community service cooperative - resource center", "address_1": "5694 2nd ave", "address_2": "", "city": "ferndale", "state_province": "wa", "postal_code": "98248", "url": ""}]}, {"__class__": "tuple", "__value__": [{"name": "whatcom county courts", "address_1": "205 4th street", "address_2": "", "city": "lynden", "state_province": "wa", "postal_code": "98264", "url": "http://www.courts.wa.gov/court_dir/orgs/296.html"}, {"name": "whatcom county courts", "address_1": "300 4th street", "address_2": "", "city": "lynden", "state_province": "wa", "postal_code": "98264", "url": "http://www.courts.wa.gov/court_dir/orgs/296.html"}]}, {"__class__": "tuple", "__value__": [{"name": "ideal option", "address_1": "3800 byron ave", "address_2": "suite 122", "city": "bellingham", "state_province": "wa", "postal_code": "98229", "url": "https://www.idealoption.com/"}, {"name": "veterans affairs puget sound health care system", "address_1": "3800 byron ave", "address_2": "suite 124", "city": "bellingham", "state_province": "wa", "postal_code": "98229", "url": "http://www.pugetsound.va.gov/"}]}, {"__class__": "tuple", "__value__": [{"name": "whatcom county", "address_1": "311 grand ave", "address_2": "", "city": "bellingham", "state_province": "wa", "postal_code": "98225", "url": "http://www.co.whatcom.wa.us"}, {"name": "whatcom unified emergency coordination center", "address_1": "311 grand avenue", "address_2": "", "city": "bellingham", "state_province": "wa", "postal_code": "98225", "url": "http://www.whatcomready.org"}]}, {"__class__": "tuple", "__value__": [{"name": "bellingham food bank", "address_1": "4173 meridian street", "address_2": "", "city": "bellingham", "state_province": "wa", "postal_code": "98226", "url": "http://bellinghamfoodbank.org"}, {"name": "satellite food bank at christ the king community church", "address_1": "4173 meridian street", "address_2": "", "city": "bellingham", "state_province": "wa", "postal_code": "98226", "url": ""}]}, {"__class__": "tuple", "__value__": [{"name": "north sound cooling centers", "address_1": "2095 main street", "address_2": "", "city": "ferndale", "state_province": "wa", "postal_code": "98248", "url": ""}, {"name": "north sound cooling centers", "address_1": "2125 main st.", "address_2": "", "city": "ferndale", "state_province": "wa", "postal_code": "98248", "url": ""}]}, {"__class__": "tuple", "__value__": [{"name": "north sound cooling centers", "address_1": "2095 main str", "address_2": "", "city": "ferndale", "state_province": "wa", "postal_code": "98248", "url": ""}, {"name": "north sound cooling centers", "address_1": "2125 main st.", "address_2": "", "city": "ferndale", "state_province": "wa", "postal_code": "98248", "url": ""}]}, {"__class__": "tuple", "__value__": [{"name": "lummi nation", "address_1": "2830 kwina rd", "address_2": "", "city": "bellingham", "state_province": "wa", "postal_code": "98226", "url": "https://www.lummi-nsn.gov"}, {"name": "lummi nation", "address_1": "2592 kwina road", "address_2": "", "city": "bellingham", "state_province": "wa", "postal_code": "98226", "url": "https://www.lummi-nsn.gov"}]}, {"__class__": "tuple", "__value__": [{"name": "sea mar community health centers", "address_1": "1603 east illinois street", "address_2": "", "city": "bellingham", "state_province": "wa", "postal_code": "98226", "url": "https://www.seamar.org/"}, {"name": "sea mar community health center (downtown bellingham wic)", "address_1": "1764 iowa st", "address_2": "", "city": "bellingham", "state_province": "wa", "postal_code": "98229", "url": ""}]}, {"__class__": "tuple", "__value__": [{"name": "washington state department of children, youth & families' child welfare system", "address_1": "1720 ellis st., suite 100", "address_2": "", "city": "bellingham", "state_province": "wa", "postal_code": "98225", "url": "https://www.dcyf.wa.gov"}, {"name": "usda", "address_1": "1701 ellis street", "address_2": "suite 221", "city": "bellingham", "state_province": "wa", "postal_code": "98225", "url": ""}]}, {"__class__": "tuple", "__value__": [{"name": "ferndale school district", "address_1": "po box 698", "address_2": "", "city": "ferndale", "state_province": "wa", "postal_code": "98248", "url": "http://www.ferndalesd.org"}, {"name": "ferndale school district", "address_1": "early learning center,5275 nw dr,#26", "address_2": "", "city": "ferndale", "state_province": "wa", "postal_code": "98248", "url": ""}]}, {"__class__": "tuple", "__value__": [{"name": "lummi nation", "address_1": "2616 kwina road", "address_2": "", "city": "bellingham", "state_province": "wa", "postal_code": "98226", "url": "https://www.lummi-nsn.gov"}, {"name": "lummi nation", "address_1": "2830 kwina rd", "address_2": "", "city": "bellingham", "state_province": "wa", "postal_code": "98226", "url": "https://www.lummi-nsn.gov"}]}, {"__class__": "tuple", "__value__": [{"name": "lummi nation", "address_1": "2616 kwina road", "address_2": "", "city": "bellingham", "state_province": "wa", "postal_code": "98226", "url": "https://www.lummi-nsn.gov"}, {"name": "lummi nation", "address_1": "2830 kwina rd", "address_2": "", "city": "bellingham", "state_province": "wa", "postal_code": "98226", "url": "https://www.lummi-nsn.gov"}]}, {"__class__": "tuple", "__value__": [{"name": "lummi nation", "address_1": "2665 kwina road", "address_2": "", "city": "bellingham", "state_province": "wa", "postal_code": "98226", "url": "https://www.lummi-nsn.gov"}, {"name": "lummi nation", "address_1": "2830 kwina rd", "address_2": "", "city": "bellingham", "state_province": "wa", "postal_code": "98226", "url": "https://www.lummi-nsn.gov"}]}, {"__class__": "tuple", "__value__": [{"name": "whatcom county", "address_1": "311 grand avenue", "address_2": "", "city": "bellingham", "state_province": "wa", "postal_code": "98225", "url": "http://www.co.whatcom.wa.us"}, {"name": "whatcom unified emergency coordination center", "address_1": "311 grand avenue", "address_2": "", "city": "bellingham", "state_province": "wa", "postal_code": "98225", "url": "http://www.whatcomready.org"}]}, {"__class__": "tuple", "__value__": [{"name": "north sound cooling centers", "address_1": "7506 kendall road", "address_2": "", "city": "maple falls", "state_province": "wa", "postal_code": "98266", "url": ""}, {"name": "north sound cooling centers", "address_1": "8251 kendall rd.", "address_2": "", "city": "maple falls", "state_province": "wa", "postal_code": "98266", "url": ""}]}, {"__class__": "tuple", "__value__": [{"name": "washington state department of labor & industries", "address_1": "1720 ellis st", "address_2": "suite 200", "city": "bellingham", "state_province": "wa", "postal_code": "98225", "url": "http://lni.wa.gov"}, {"name": "washington state department of children, youth & families' child welfare system", "address_1": "1720 ellis st., suite 100", "address_2": "", "city": "bellingham", "state_province": "wa", "postal_code": "98225", "url": "https://www.dcyf.wa.gov"}]}, {"__class__": "tuple", "__value__": [{"name": "catholic community services of western washington in whatcom county", "address_1": "1133 railroad avenue", "address_2": "suite 100", "city": "bellingham", "state_province": "wa", "postal_code": "98225", "url": "http://www.ccsww.org"}, {"name": "hope house", "address_1": "1133 railroad avenue", "address_2": "#100", "city": "bellingham", "state_province": "wa", "postal_code": "98225", "url": "https://www.assumption.org/hope-house.html"}]}, {"__class__": "tuple", "__value__": [{"name": "whatcom county courts", "address_1": "2014 c st.", "address_2": "", "city": "bellingham", "state_province": "wa", "postal_code": "98225", "url": "http://www.courts.wa.gov/court_dir/orgs/296.html"}, {"name": "whatcom county courts", "address_1": "1020 n state st", "address_2": "", "city": "bellingham", "state_province": "wa", "postal_code": "98225", "url": "http://www.courts.wa.gov/court_dir/orgs/296.html"}]}, {"__class__": "tuple", "__value__": [{"name": "catholic community services of western washington in whatcom county", "address_1": "1133 railroad avenue", "address_2": "suite 100", "city": "bellingham", "state_province": "wa", "postal_code": "98225", "url": "http://www.ccsww.org"}, {"name": "hope house", "address_1": "1133 railroad avenue", "address_2": "#100", "city": "bellingham", "state_province": "wa", "postal_code": "98225", "url": "https://www.assumption.org/hope-house.html"}]}, {"__class__": "tuple", "__value__": [{"name": "saint paul's episcopal church", "address_1": "2116 walnut str.", "address_2": "", "city": "bellingham", "state_province": "wa", "postal_code": "98225", "url": "http://stpaulsbellingham.org"}, {"name": "st. paul episcopal church - alms ministry", "address_1": "2117 walnut st", "address_2": "", "city": "bellingham", "state_province": "wa", "postal_code": "98225", "url": ""}]}, {"__class__": "tuple", "__value__": [{"name": "alcoholics anonymous' western washington area 72", "address_1": "702 kentucky st", "address_2": "suite no 535", "city": "bellingham", "state_province": "wa", "postal_code": "98225", "url": "http://www.area72aa.org"}, {"name": "hope house", "address_1": "207 kentucky st", "address_2": "", "city": "bellingham", "state_province": "wa", "postal_code": "98226", "url": ""}]}, {"__class__": "tuple", "__value__": [{"name": "whatcom county", "address_1": "215 north commercial street", "address_2": "", "city": "bellingham", "state_province": "wa", "postal_code": "98225", "url": "http://www.co.whatcom.wa.us"}, {"name": "whatcom county", "address_1": "332 north commercial street", "address_2": "suite 220", "city": "bellingham", "state_province": "wa", "postal_code": "98225", "url": "http://www.co.whatcom.wa.us"}]}, {"__class__": "tuple", "__value__": [{"name": "whatcom county", "address_1": "215 north commercial street", "address_2": "", "city": "bellingham", "state_province": "wa", "postal_code": "98225", "url": "http://www.co.whatcom.wa.us"}, {"name": "whatcom county", "address_1": "332 north commercial st", "address_2": "suite 220", "city": "bellingham", "state_province": "wa", "postal_code": "98225", "url": "http://www.co.whatcom.wa.us"}]}, {"__class__": "tuple", "__value__": [{"name": "whatcom county courts", "address_1": "205 4th street", "address_2": "", "city": "lynden", "state_province": "wa", "postal_code": "98264", "url": "http://www.courts.wa.gov/court_dir/orgs/296.html"}, {"name": "whatcom county courts", "address_1": "300 4th str", "address_2": "", "city": "lynden", "state_province": "wa", "postal_code": "98264", "url": "http://www.courts.wa.gov/court_dir/orgs/296.html"}]}, {"__class__": "tuple", "__value__": [{"name": "saint paul's episcopal church", "address_1": "2116 walnut str.", "address_2": "", "city": "bellingham", "state_province": "wa", "postal_code": "98225", "url": "http://stpaulsbellingham.org"}, {"name": "st. paul episcopal church - alms ministry", "address_1": "2117 walnut st.", "address_2": "", "city": "bellingham", "state_province": "wa", "postal_code": "98225", "url": ""}]}, {"__class__": "tuple", "__value__": [{"name": "whatcom county sheriff's office", "address_1": "311 grand avenue", "address_2": "", "city": "bellingham", "state_province": "wa", "postal_code": "98225", "url": "http://www.co.whatcom.wa.us/sheriff/"}, {"name": "whatcom county courts", "address_1": "311 grand avenue", "address_2": "suite 401", "city": "bellingham", "state_province": "wa", "postal_code": "98225", "url": "http://www.courts.wa.gov/court_dir/orgs/296.html"}]}, {"__class__": "tuple", "__value__": [{"name": "whatcom county courts", "address_1": "311 grand avenue", "address_2": "suite 401", "city": "bellingham", "state_province": "wa", "postal_code": "98225", "url": "http://www.courts.wa.gov/court_dir/orgs/296.html"}, {"name": "whatcom county sheriff's office", "address_1": "311 grand avenue", "address_2": "", "city": "bellingham", "state_province": "wa", "postal_code": "98225", "url": "http://www.co.whatcom.wa.us/sheriff/"}]}, {"__class__": "tuple", "__value__": [{"name": "whatcom county sheriff's office", "address_1": "311 grand avenue", "address_2": "", "city": "bellingham", "state_province": "wa", "postal_code": "98225", "url": "http://www.co.whatcom.wa.us/sheriff/"}, {"name": "whatcom county courts", "address_1": "311 grand avenue", "address_2": "suite 301", "city": "bellingham", "state_province": "wa", "postal_code": "98225", "url": "http://www.courts.wa.gov/court_dir/orgs/296.html"}]}, {"__class__": "tuple", "__value__": [{"name": "ferndale school district", "address_1": "6041 vista drive", "address_2": "", "city": "ferndale", "state_province": "wa", "postal_code": "98248", "url": "http://www.ferndalesd.org"}, {"name": "ferndale school district", "address_1": "early learning center,5275 nw dr,#26", "address_2": "", "city": "ferndale", "state_province": "wa", "postal_code": "98248", "url": ""}]}, {"__class__": "tuple", "__value__": [{"name": "whatcom county courts", "address_1": "311 grand avenue", "address_2": "suite 501", "city": "bellingham", "state_province": "wa", "postal_code": "98225", "url": "http://www.courts.wa.gov/court_dir/orgs/296.html"}, {"name": "whatcom county sheriff's office", "address_1": "311 grand avenue", "address_2": "", "city": "bellingham", "state_province": "wa", "postal_code": "98225", "url": "http://www.co.whatcom.wa.us/sheriff/"}]}, {"__class__": "tuple", "__value__": [{"name": "whatcom county", "address_1": "311 grand ave", "address_2": "", "city": "bellingham", "state_province": "wa", "postal_code": "98225", "url": "http://www.co.whatcom.wa.us"}, {"name": "whatcom county dental resource list", "address_1": "800 e chestnut ll suite 2", "address_2": "", "city": "bellingham", "state_province": "wa", "postal_code": "98227", "url": ""}]}, {"__class__": "tuple", "__value__": [{"name": "sea mar community health centers", "address_1": "4455 cordata parkway", "address_2": "", "city": "bellingham", "state_province": "wa", "postal_code": "98226", "url": "https://www.seamar.org/"}, {"name": "sea mar community health center (downtown bellingham wic)", "address_1": "1764 iowa st", "address_2": "", "city": "bellingham", "state_province": "wa", "postal_code": "98229", "url": ""}]}, {"__class__": "tuple", "__value__": [{"name": "bellingham public library", "address_1": "1117 12th st.", "address_2": "", "city": "bellingham", "state_province": "wa", "postal_code": "98225", "url": "http://www.bellinghampubliclibrary.org"}, {"name": "bellingham public library", "address_1": "210 central ave", "address_2": "", "city": "bellingham", "state_province": "wa", "postal_code": "98227", "url": ""}]}, {"__class__": "tuple", "__value__": [{"name": "salvation army - bellingham", "address_1": "1515 birchwood avenue", "address_2": "", "city": "bellingham", "state_province": "wa", "postal_code": "98225", "url": "https://bellingham.salvationarmy.org"}, {"name": "salvation army (bellingham)", "address_1": "2912 northwest ave", "address_2": "", "city": "bellingham", "state_province": "wa", "postal_code": "98225", "url": ""}]}, {"__class__": "tuple", "__value__": [{"name": "north sound cooling centers", "address_1": "210 central avenue", "address_2": "", "city": "bellingham", "state_province": "wa", "postal_code": "98225", "url": ""}, {"name": "north sound cooling centers", "address_1": "1530 cornwall avenue", "address_2": "", "city": "bellingham", "state_province": "wa", "postal_code": "98225", "url": ""}]}, {"__class__": "tuple", "__value__": [{"name": "north sound cooling centers", "address_1": "210 central avenue", "address_2": "", "city": "bellingham", "state_province": "wa", "postal_code": "98225", "url": ""}, {"name": "north sound cooling centers", "address_1": "1530 cornwall avenue", "address_2": "", "city": "bellingham", "state_province": "wa", "postal_code": "98225", "url": ""}]}, {"__class__": "tuple", "__value__": [{"name": "bellingham food bank", "address_1": "4173 meridian street", "address_2": "", "city": "bellingham", "state_province": "wa", "postal_code": "98226", "url": "http://bellinghamfoodbank.org"}, {"name": "bellingham food bank", "address_1": "1175 jersey street", "address_2": "", "city": "bellingham", "state_province": "wa", "postal_code": "98225", "url": "http://bellinghamfoodbank.org"}]}, {"__class__": "tuple", "__value__": [{"name": "whatcom county sheriff's office", "address_1": "311 grand avenue", "address_2": "", "city": "bellingham", "state_province": "wa", "postal_code": "98225", "url": "http://www.co.whatcom.wa.us/sheriff/"}, {"name": "whatcom county courts", "address_1": "311 grand avenue", "address_2": "suite 501", "city": "bellingham", "state_province": "wa", "postal_code": "98225", "url": "http://www.courts.wa.gov/court_dir/orgs/296.html"}]}, {"__class__": "tuple", "__value__": [{"name": "whatcom county sheriff's office", "address_1": "311 grand avenue", "address_2": "", "city": "bellingham", "state_province": "wa", "postal_code": "98225", "url": "http://www.co.whatcom.wa.us/sheriff/"}, {"name": "whatcom county courts", "address_1": "311 grand avenue", "address_2": "suite 501", "city": "bellingham", "state_province": "wa", "postal_code": "98225", "url": "http://www.courts.wa.gov/court_dir/orgs/296.html"}]}, {"__class__": "tuple", "__value__": [{"name": "whatcom county courts", "address_1": "1020 north state street", "address_2": "", "city": "bellingham", "state_province": "wa", "postal_code": "98225", "url": "http://www.courts.wa.gov/court_dir/orgs/296.html"}, {"name": "whatcom county courts", "address_1": "2014 c street", "address_2": "", "city": "bellingham", "state_province": "wa", "postal_code": "98225", "url": "http://www.courts.wa.gov/court_dir/orgs/296.html"}]}, {"__class__": "tuple", "__value__": [{"name": "salvation army - bellingham", "address_1": "1515 birchwood ave", "address_2": "", "city": "bellingham", "state_province": "wa", "postal_code": "98225", "url": "https://bellingham.salvationarmy.org"}, {"name": "salvation army (bellingham)", "address_1": "2912 northwest ave.", "address_2": "", "city": "bellingham", "state_province": "wa", "postal_code": "98225", "url": ""}]}, {"__class__": "tuple", "__value__": [{"name": "salvation army - bellingham", "address_1": "1515 birchwood ave", "address_2": "", "city": "bellingham", "state_province": "wa", "postal_code": "98225", "url": "https://bellingham.salvationarmy.org"}, {"name": "salvation army (bellingham)", "address_1": "2912 northwest ave", "address_2": "", "city": "bellingham", "state_province": "wa", "postal_code": "98225", "url": ""}]}, {"__class__": "tuple", "__value__": [{"name": "whatcom county courts", "address_1": "311 grand avenue", "address_2": "suite 401", "city": "bellingham", "state_province": "wa", "postal_code": "98225", "url": "http://www.courts.wa.gov/court_dir/orgs/296.html"}, {"name": "whatcom county sheriff's office", "address_1": "311 grand avenue", "address_2": "", "city": "bellingham", "state_province": "wa", "postal_code": "98225", "url": "http://www.co.whatcom.wa.us/sheriff/"}]}, {"__class__": "tuple", "__value__": [{"name": "whatcom county courts", "address_1": "311 grand avenue", "address_2": "suite 401", "city": "bellingham", "state_province": "wa", "postal_code": "98225", "url": "http://www.courts.wa.gov/court_dir/orgs/296.html"}, {"name": "whatcom county sheriff's office", "address_1": "311 grand avenue", "address_2": "", "city": "bellingham", "state_province": "wa", "postal_code": "98225", "url": "http://www.co.whatcom.wa.us/sheriff/"}]}, {"__class__": "tuple", "__value__": [{"name": "whatcom county courts", "address_1": "311 grand avenue", "address_2": "suite 301", "city": "bellingham", "state_province": "wa", "postal_code": "98225", "url": "http://www.courts.wa.gov/court_dir/orgs/296.html"}, {"name": "whatcom county sheriff's office", "address_1": "311 grand avenue", "address_2": "", "city": "bellingham", "state_province": "wa", "postal_code": "98225", "url": "http://www.co.whatcom.wa.us/sheriff/"}]}, {"__class__": "tuple", "__value__": [{"name": "whatcom county courts", "address_1": "311 grand ave", "address_2": "suite 301", "city": "bellingham", "state_province": "wa", "postal_code": "98225", "url": "http://www.courts.wa.gov/court_dir/orgs/296.html"}, {"name": "whatcom county sheriff's office", "address_1": "311 grand ave", "address_2": "", "city": "bellingham", "state_province": "wa", "postal_code": "98225", "url": "http://www.co.whatcom.wa.us/sheriff/"}]}, {"__class__": "tuple", "__value__": [{"name": "salvation army - bellingham", "address_1": "2912 northwest avenue", "address_2": "", "city": "bellingham", "state_province": "wa", "postal_code": "98225", "url": "https://bellingham.salvationarmy.org"}, {"name": "salvation army - bellingham", "address_1": "1515 birchwood aven", "address_2": "", "city": "bellingham", "state_province": "wa", "postal_code": "98225", "url": "https://bellingham.salvationarmy.org"}]}, {"__class__": "tuple", "__value__": [{"name": "salvation army - bellingham", "address_1": "2912 northwest avenue", "address_2": "", "city": "bellingham", "state_province": "wa", "postal_code": "98225", "url": "https://bellingham.salvationarmy.org"}, {"name": "salvation army - bellingham", "address_1": "1515 birchwood ave", "address_2": "", "city": "bellingham", "state_province": "wa", "postal_code": "98225", "url": "https://bellingham.salvationarmy.org"}]}, {"__class__": "tuple", "__value__": [{"name": "whatcom county courts", "address_1": "311 grand avenue", "address_2": "suite 301", "city": "bellingham", "state_province": "wa", "postal_code": "98225", "url": "http://www.courts.wa.gov/court_dir/orgs/296.html"}, {"name": "whatcom county sheriff's office", "address_1": "311 grand avenue", "address_2": "", "city": "bellingham", "state_province": "wa", "postal_code": "98225", "url": "http://www.co.whatcom.wa.us/sheriff/"}]}, {"__class__": "tuple", "__value__": [{"name": "whatcom county courts", "address_1": "311 grand avenue", "address_2": "suite 501", "city": "bellingham", "state_province": "wa", "postal_code": "98225", "url": "http://www.courts.wa.gov/court_dir/orgs/296.html"}, {"name": "whatcom county sheriff's office", "address_1": "311 grand avenue", "address_2": "", "city": "bellingham", "state_province": "wa", "postal_code": "98225", "url": "http://www.co.whatcom.wa.us/sheriff/"}]}, {"__class__": "tuple", "__value__": [{"name": "whatcom county courts", "address_1": "311 grand ave", "address_2": "suite 501", "city": "bellingham", "state_province": "wa", "postal_code": "98225", "url": "http://www.courts.wa.gov/court_dir/orgs/296.html"}, {"name": "whatcom county sheriff's office", "address_1": "311 grand ave", "address_2": "", "city": "bellingham", "state_province": "wa", "postal_code": "98225", "url": "http://www.co.whatcom.wa.us/sheriff/"}]}, {"__class__": "tuple", "__value__": [{"name": "salvation army - bellingham", "address_1": "1515 birchwood aven", "address_2": "", "city": "bellingham", "state_province": "wa", "postal_code": "98225", "url": "https://bellingham.salvationarmy.org"}, {"name": "salvation army (bellingham)", "address_1": "2912 northwest ave.", "address_2": "", "city": "bellingham", "state_province": "wa", "postal_code": "98225", "url": ""}]}, {"__class__": "tuple", "__value__": [{"name": "salvation army - bellingham", "address_1": "2912 northwest avenue", "address_2": "", "city": "bellingham", "state_province": "wa", "postal_code": "98225", "url": "https://bellingham.salvationarmy.org"}, {"name": "salvation army - bellingham", "address_1": "1515 birchwood ave", "address_2": "", "city": "bellingham", "state_province": "wa", "postal_code": "98225", "url": "https://bellingham.salvationarmy.org"}]}, {"__class__": "tuple", "__value__": [{"name": "whatcom county courts", "address_1": "311 grand ave", "address_2": "suite 301", "city": "bellingham", "state_province": "wa", "postal_code": "98225", "url": "http://www.courts.wa.gov/court_dir/orgs/296.html"}, {"name": "whatcom county sheriff's office", "address_1": "311 grand ave", "address_2": "", "city": "bellingham", "state_province": "wa", "postal_code": "98225", "url": "http://www.co.whatcom.wa.us/sheriff/"}]}, {"__class__": "tuple", "__value__": [{"name": "whatcom county courts", "address_1": "311 grand ave", "address_2": "suite 501", "city": "bellingham", "state_province": "wa", "postal_code": "98225", "url": "http://www.courts.wa.gov/court_dir/orgs/296.html"}, {"name": "whatcom county sheriff's office", "address_1": "311 grand ave", "address_2": "", "city": "bellingham", "state_province": "wa", "postal_code": "98225", "url": "http://www.co.whatcom.wa.us/sheriff/"}]}, {"__class__": "tuple", "__value__": [{"name": "whatcom county courts", "address_1": "311 grand avenue", "address_2": "suite 401", "city": "bellingham", "state_province": "wa", "postal_code": "98225", "url": "http://www.courts.wa.gov/court_dir/orgs/296.html"}, {"name": "whatcom county sheriff's office", "address_1": "311 grand avenue", "address_2": "", "city": "bellingham", "state_province": "wa", "postal_code": "98225", "url": "http://www.co.whatcom.wa.us/sheriff/"}]}, {"__class__": "tuple", "__value__": [{"name": "whatcom county sheriff's office", "address_1": "311 grand avenue", "address_2": "", "city": "bellingham", "state_province": "wa", "postal_code": "98225", "url": "http://www.co.whatcom.wa.us/sheriff/"}, {"name": "whatcom county courts", "address_1": "311 grand avenue", "address_2": "suite 401", "city": "bellingham", "state_province": "wa", "postal_code": "98225", "url": "http://www.courts.wa.gov/court_dir/orgs/296.html"}]}, {"__class__": "tuple", "__value__": [{"name": "interfaith coalition of whatcom county", "address_1": "400 north commercial street", "address_2": "", "city": "bellingham", "state_province": "wa", "postal_code": "98225", "url": "http://www.interfaith-coalition.org"}, {"name": "interfaith coalition of whatcom county", "address_1": "910 14th street", "address_2": "", "city": "bellingham", "state_province": "wa", "postal_code": "98225", "url": "http://www.interfaith-coalition.org"}]}, {"__class__": "tuple", "__value__": [{"name": "point roberts food bank", "address_1": "323 evergreen way", "address_2": "", "city": "point roberts", "state_province": "wa", "postal_code": "98281", "url": "http://www.harmonywebdesigns.com/pointrobertschurch/announcements.htm"}, {"name": "point roberts food bank", "address_1": "1480 gulf rd", "address_2": "", "city": "point roberts", "state_province": "wa", "postal_code": "98281", "url": ""}]}, {"__class__": "tuple", "__value__": [{"name": "whatcom county sheriff's office", "address_1": "311 grand avenue", "address_2": "", "city": "bellingham", "state_province": "wa", "postal_code": "98225", "url": "http://www.co.whatcom.wa.us/sheriff/"}, {"name": "whatcom county courts", "address_1": "311 grand avenue", "address_2": "suite 301", "city": "bellingham", "state_province": "wa", "postal_code": "98225", "url": "http://www.courts.wa.gov/court_dir/orgs/296.html"}]}, {"__class__": "tuple", "__value__": [{"name": "whatcom county health department", "address_1": "1500 north state street", "address_2": "", "city": "bellingham", "state_province": "wa", "postal_code": "98225", "url": "http://www.whatcomcounty.us/360/health-department"}, {"name": "whatcom county courts", "address_1": "1020 north state street", "address_2": "", "city": "bellingham", "state_province": "wa", "postal_code": "98225", "url": "http://www.courts.wa.gov/court_dir/orgs/296.html"}]}, {"__class__": "tuple", "__value__": [{"name": "whatcom county health department", "address_1": "1500 north state street", "address_2": "", "city": "bellingham", "state_province": "wa", "postal_code": "98225", "url": "http://www.whatcomcounty.us/360/health-department"}, {"name": "whatcom county courts", "address_1": "1020 north state street", "address_2": "", "city": "bellingham", "state_province": "wa", "postal_code": "98225", "url": "http://www.courts.wa.gov/court_dir/orgs/296.html"}]}, {"__class__": "tuple", "__value__": [{"name": "point roberts food bank", "address_1": "323 evergreen way", "address_2": "", "city": "point roberts", "state_province": "wa", "postal_code": "98281", "url": "http://www.harmonywebdesigns.com/pointrobertschurch/announcements.htm"}, {"name": "point roberts food bank", "address_1": "1480 gulf rd", "address_2": "", "city": "point roberts", "state_province": "wa", "postal_code": "98281", "url": ""}]}, {"__class__": "tuple", "__value__": [{"name": "bellingham public library", "address_1": "3111 newmarket street", "address_2": "suite 103", "city": "bellingham", "state_province": "wa", "postal_code": "98226", "url": "http://www.bellinghampubliclibrary.org"}, {"name": "bellingham public library", "address_1": "210 central aven", "address_2": "", "city": "bellingham", "state_province": "wa", "postal_code": "98227", "url": ""}]}, {"__class__": "tuple", "__value__": [{"name": "whatcom county courts", "address_1": "311 grand avenue", "address_2": "suite 501", "city": "bellingham", "state_province": "wa", "postal_code": "98225", "url": "http://www.courts.wa.gov/court_dir/orgs/296.html"}, {"name": "whatcom county sheriff's office", "address_1": "311 grand ave", "address_2": "", "city": "bellingham", "state_province": "wa", "postal_code": "98225", "url": "http://www.co.whatcom.wa.us/sheriff/"}]}, {"__class__": "tuple", "__value__": [{"name": "whatcom county courts", "address_1": "311 grand avenue", "address_2": "suite 401", "city": "bellingham", "state_province": "wa", "postal_code": "98225", "url": "http://www.courts.wa.gov/court_dir/orgs/296.html"}, {"name": "whatcom county sheriff's office", "address_1": "311 grand ave", "address_2": "", "city": "bellingham", "state_province": "wa", "postal_code": "98225", "url": "http://www.co.whatcom.wa.us/sheriff/"}]}, {"__class__": "tuple", "__value__": [{"name": "whatcom county courts", "address_1": "5694 2nd avenue", "address_2": "", "city": "ferndale", "state_province": "wa", "postal_code": "98248", "url": "http://www.courts.wa.gov/court_dir/orgs/296.html"}, {"name": "ferndale community service cooperative - resource center", "address_1": "5694 2nd aven", "address_2": "", "city": "ferndale", "state_province": "wa", "postal_code": "98248", "url": ""}]}, {"__class__": "tuple", "__value__": [{"name": "point roberts food bank", "address_1": "323 evergreen way", "address_2": "", "city": "point roberts", "state_province": "wa", "postal_code": "98281", "url": "http://www.harmonywebdesigns.com/pointrobertschurch/announcements.htm"}, {"name": "point roberts food bank", "address_1": "1480 gulf rd", "address_2": "", "city": "point roberts", "state_province": "wa", "postal_code": "98281", "url": ""}]}, {"__class__": "tuple", "__value__": [{"name": "community assistance program", "address_1": "382 boblett street", "address_2": "", "city": "blaine", "state_province": "wa", "postal_code": "98230", "url": "http://blainecap.org"}, {"name": "community assistance program", "address_1": "902 adelia street", "address_2": "", "city": "blaine", "state_province": "wa", "postal_code": "98230", "url": "http://blainecap.org"}]}, {"__class__": "tuple", "__value__": [{"name": "whatcom county sheriff's office", "address_1": "311 grand avenue", "address_2": "", "city": "bellingham", "state_province": "wa", "postal_code": "98225", "url": "http://www.co.whatcom.wa.us/sheriff/"}, {"name": "whatcom county courts", "address_1": "311 grand ave", "address_2": "suite 301", "city": "bellingham", "state_province": "wa", "postal_code": "98225", "url": "http://www.courts.wa.gov/court_dir/orgs/296.html"}]}, {"__class__": "tuple", "__value__": [{"name": "whatcom county courts", "address_1": "311 grand avenue", "address_2": "suite 501", "city": "bellingham", "state_province": "wa", "postal_code": "98225", "url": "http://www.courts.wa.gov/court_dir/orgs/296.html"}, {"name": "whatcom county sheriff's office", "address_1": "311 grand ave", "address_2": "", "city": "bellingham", "state_province": "wa", "postal_code": "98225", "url": "http://www.co.whatcom.wa.us/sheriff/"}]}, {"__class__": "tuple", "__value__": [{"name": "whatcom county courts", "address_1": "311 grand avenue", "address_2": "suite 401", "city": "bellingham", "state_province": "wa", "postal_code": "98225", "url": "http://www.courts.wa.gov/court_dir/orgs/296.html"}, {"name": "whatcom county sheriff's office", "address_1": "311 grand ave", "address_2": "", "city": "bellingham", "state_province": "wa", "postal_code": "98225", "url": "http://www.co.whatcom.wa.us/sheriff/"}]}, {"__class__": "tuple", "__value__": [{"name": "whatcom county sheriff's office", "address_1": "311 grand avenue", "address_2": "", "city": "bellingham", "state_province": "wa", "postal_code": "98225", "url": "http://www.co.whatcom.wa.us/sheriff/"}, {"name": "whatcom county courts", "address_1": "311 grand ave", "address_2": "suite 301", "city": "bellingham", "state_province": "wa", "postal_code": "98225", "url": "http://www.courts.wa.gov/court_dir/orgs/296.html"}]}, {"__class__": "tuple", "__value__": [{"name": "whatcom county courts", "address_1": "5694 2nd avenue", "address_2": "", "city": "ferndale", "state_province": "wa", "postal_code": "98248", "url": "http://www.courts.wa.gov/court_dir/orgs/296.html"}, {"name": "ferndale community service cooperative - resource center", "address_1": "5694 2nd ave", "address_2": "", "city": "ferndale", "state_province": "wa", "postal_code": "98248", "url": ""}]}, {"__class__": "tuple", "__value__": [{"name": "whatcom county courts", "address_1": "311 grand avenue", "address_2": "suite 301", "city": "bellingham", "state_province": "wa", "postal_code": "98225", "url": "http://www.courts.wa.gov/court_dir/orgs/296.html"}, {"name": "whatcom county sheriff's office", "address_1": "311 grand ave", "address_2": "", "city": "bellingham", "state_province": "wa", "postal_code": "98225", "url": "http://www.co.whatcom.wa.us/sheriff/"}]}, {"__class__": "tuple", "__value__": [{"name": "whatcom county courts", "address_1": "311 grand avenue", "address_2": "suite 501", "city": "bellingham", "state_province": "wa", "postal_code": "98225", "url": "http://www.courts.wa.gov/court_dir/orgs/296.html"}, {"name": "whatcom county sheriff's office", "address_1": "311 grand ave", "address_2": "", "city": "bellingham", "state_province": "wa", "postal_code": "98225", "url": "http://www.co.whatcom.wa.us/sheriff/"}]}, {"__class__": "tuple", "__value__": [{"name": "whatcom county courts", "address_1": "311 grand avenue", "address_2": "suite 501", "city": "bellingham", "state_province": "wa", "postal_code": "98225", "url": "http://www.courts.wa.gov/court_dir/orgs/296.html"}, {"name": "whatcom county sheriff's office", "address_1": "311 grand ave", "address_2": "", "city": "bellingham", "state_province": "wa", "postal_code": "98225", "url": "http://www.co.whatcom.wa.us/sheriff/"}]}, {"__class__": "tuple", "__value__": [{"name": "whatcom county sheriff's office", "address_1": "311 grand avenue", "address_2": "", "city": "bellingham", "state_province": "wa", "postal_code": "98225", "url": "http://www.co.whatcom.wa.us/sheriff/"}, {"name": "whatcom county courts", "address_1": "311 grand ave", "address_2": "suite 501", "city": "bellingham", "state_province": "wa", "postal_code": "98225", "url": "http://www.courts.wa.gov/court_dir/orgs/296.html"}]}, {"__class__": "tuple", "__value__": [{"name": "whatcom county sheriff's office", "address_1": "311 grand avenue", "address_2": "", "city": "bellingham", "state_province": "wa", "postal_code": "98225", "url": "http://www.co.whatcom.wa.us/sheriff/"}, {"name": "whatcom county courts", "address_1": "311 grand ave", "address_2": "suite 501", "city": "bellingham", "state_province": "wa", "postal_code": "98225", "url": "http://www.courts.wa.gov/court_dir/orgs/296.html"}]}, {"__class__": "tuple", "__value__": [{"name": "whatcom county courts", "address_1": "311 grand avenue", "address_2": "suite 301", "city": "bellingham", "state_province": "wa", "postal_code": "98225", "url": "http://www.courts.wa.gov/court_dir/orgs/296.html"}, {"name": "whatcom county sheriff's office", "address_1": "311 grand ave", "address_2": "", "city": "bellingham", "state_province": "wa", "postal_code": "98225", "url": "http://www.co.whatcom.wa.us/sheriff/"}]}, {"__class__": "tuple", "__value__": [{"name": "whatcom county courts", "address_1": "311 grand avenue", "address_2": "suite 401", "city": "bellingham", "state_province": "wa", "postal_code": "98225", "url": "http://www.courts.wa.gov/court_dir/orgs/296.html"}, {"name": "whatcom county sheriff's office", "address_1": "311 grand ave", "address_2": "", "city": "bellingham", "state_province": "wa", "postal_code": "98225", "url": "http://www.co.whatcom.wa.us/sheriff/"}]}, {"__class__": "tuple", "__value__": [{"name": "bellingham food bank", "address_1": "1824 ellis street", "address_2": "", "city": "bellingham", "state_province": "wa", "postal_code": "98225", "url": "http://bellinghamfoodbank.org"}, {"name": "bellingham food bank", "address_1": "1175 jersey street", "address_2": "", "city": "bellingham", "state_province": "wa", "postal_code": "98225", "url": "http://bellinghamfoodbank.org"}]}, {"__class__": "tuple", "__value__": [{"name": "hope house", "address_1": "1133 railroad avenue", "address_2": "#100", "city": "bellingham", "state_province": "wa", "postal_code": "98225", "url": "https://www.assumption.org/hope-house.html"}, {"name": "catholic community services (whatcom county)", "address_1": "1133 railroad ave,# 100", "address_2": "", "city": "bellingham", "state_province": "wa", "postal_code": "98225", "url": ""}]}, {"__class__": "tuple", "__value__": [{"name": "whatcom county courts", "address_1": "311 grand avenue", "address_2": "suite 301", "city": "bellingham", "state_province": "wa", "postal_code": "98225", "url": "http://www.courts.wa.gov/court_dir/orgs/296.html"}, {"name": "whatcom county sheriff's office", "address_1": "311 grand ave", "address_2": "", "city": "bellingham", "state_province": "wa", "postal_code": "98225", "url": "http://www.co.whatcom.wa.us/sheriff/"}]}, {"__class__": "tuple", "__value__": [{"name": "whatcom county courts", "address_1": "311 grand avenue", "address_2": "suite 401", "city": "bellingham", "state_province": "wa", "postal_code": "98225", "url": "http://www.courts.wa.gov/court_dir/orgs/296.html"}, {"name": "whatcom county sheriff's office", "address_1": "311 grand ave", "address_2": "", "city": "bellingham", "state_province": "wa", "postal_code": "98225", "url": "http://www.co.whatcom.wa.us/sheriff/"}]}, {"__class__": "tuple", "__value__": [{"name": "whatcom county courts", "address_1": "311 grand avenue", "address_2": "suite 301", "city": "bellingham", "state_province": "wa", "postal_code": "98225", "url": "http://www.courts.wa.gov/court_dir/orgs/296.html"}, {"name": "whatcom county sheriff's office", "address_1": "311 grand ave", "address_2": "", "city": "bellingham", "state_province": "wa", "postal_code": "98225", "url": "http://www.co.whatcom.wa.us/sheriff/"}]}, {"__class__": "tuple", "__value__": [{"name": "depressive and bipolar support alliance whatcom county", "address_1": "800 chestnut str.", "address_2": "suite 1c", "city": "bellingham", "state_province": "wa", "postal_code": "98225", "url": ""}, {"name": "depressive and bipolar support alliance whatcom county", "address_1": "po box 4124", "address_2": "", "city": "bellingham", "state_province": "wa", "postal_code": "98227", "url": "http://www.dbsalliance.org"}]}, {"__class__": "tuple", "__value__": [{"name": "north sound cooling centers", "address_1": "216 4th street", "address_2": "", "city": "lynden", "state_province": "wa", "postal_code": "98264", "url": ""}, {"name": "north sound cooling centers", "address_1": "401 grover street", "address_2": "", "city": "lynden", "state_province": "wa", "postal_code": "98264", "url": ""}]}, {"__class__": "tuple", "__value__": [{"name": "north sound cooling centers", "address_1": "216 4th street", "address_2": "", "city": "lynden", "state_province": "wa", "postal_code": "98264", "url": ""}, {"name": "north sound cooling centers", "address_1": "401 grover street", "address_2": "", "city": "lynden", "state_province": "wa", "postal_code": "98264", "url": ""}]}, {"__class__": "tuple", "__value__": [{"name": "community assistance program", "address_1": "902 adelia street", "address_2": "", "city": "blaine", "state_province": "wa", "postal_code": "98230", "url": "http://blainecap.org"}, {"name": "community assistance program", "address_1": "508 g street", "address_2": "", "city": "blaine", "state_province": "wa", "postal_code": "98230", "url": "http://blainecap.org"}]}, {"__class__": "tuple", "__value__": [{"name": "bellingham food bank", "address_1": "4173 meridian street", "address_2": "", "city": "bellingham", "state_province": "wa", "postal_code": "98226", "url": "http://bellinghamfoodbank.org"}, {"name": "bellingham food bank", "address_1": "1175 jersey st", "address_2": "", "city": "bellingham", "state_province": "wa", "postal_code": "98225", "url": "http://bellinghamfoodbank.org"}]}, {"__class__": "tuple", "__value__": [{"name": "ywca of bellingham", "address_1": "1026 n forest str", "address_2": "", "city": "bellingham", "state_province": "wa", "postal_code": "98225", "url": "http://www.ywcabellingham.org"}, {"name": "ywca of bellingham", "address_1": "1224 north state street", "address_2": "", "city": "bellingham", "state_province": "wa", "postal_code": "98225", "url": "http://www.ywcabellingham.org"}]}, {"__class__": "tuple", "__value__": [{"name": "whatcom county courts", "address_1": "5694 2nd ave.", "address_2": "", "city": "ferndale", "state_province": "wa", "postal_code": "98248", "url": "http://www.courts.wa.gov/court_dir/orgs/296.html"}, {"name": "ferndale community service cooperative - resource center", "address_1": "5694 2nd aven", "address_2": "", "city": "ferndale", "state_province": "wa", "postal_code": "98248", "url": ""}]}, {"__class__": "tuple", "__value__": [{"name": "arc of whatcom county", "address_1": "2602 mcleod road", "address_2": "", "city": "bellingham", "state_province": "wa", "postal_code": "98225", "url": "http://www.arcwhatcom.org"}, {"name": "down syndrome outreach of whatcom county", "address_1": "2602 mcleod road", "address_2": "", "city": "bellingham", "state_province": "wa", "postal_code": "98225", "url": ""}]}, {"__class__": "tuple", "__value__": [{"name": "whatcom county courts", "address_1": "2014 c street", "address_2": "", "city": "bellingham", "state_province": "wa", "postal_code": "98225", "url": "http://www.courts.wa.gov/court_dir/orgs/296.html"}, {"name": "whatcom county courts", "address_1": "1020 n state st", "address_2": "", "city": "bellingham", "state_province": "wa", "postal_code": "98225", "url": "http://www.courts.wa.gov/court_dir/orgs/296.html"}]}, {"__class__": "tuple", "__value__": [{"name": "arc of whatcom county", "address_1": "2602 mcleod rd", "address_2": "", "city": "bellingham", "state_province": "wa", "postal_code": "98225", "url": "http://www.arcwhatcom.org"}, {"name": "down syndrome outreach of whatcom county", "address_1": "2602 mcleod rd", "address_2": "", "city": "bellingham", "state_province": "wa", "postal_code": "98225", "url": ""}]}, {"__class__": "tuple", "__value__": [{"name": "arc of whatcom county", "address_1": "2602 mcleod road", "address_2": "", "city": "bellingham", "state_province": "wa", "postal_code": "98225", "url": "http://www.arcwhatcom.org"}, {"name": "down syndrome outreach of whatcom county", "address_1": "2602 mcleod road", "address_2": "", "city": "bellingham", "state_province": "wa", "postal_code": "98225", "url": ""}]}, {"__class__": "tuple", "__value__": [{"name": "arc of whatcom county", "address_1": "2602 mcleod rd.", "address_2": "", "city": "bellingham", "state_province": "wa", "postal_code": "98225", "url": "http://www.arcwhatcom.org"}, {"name": "down syndrome outreach of whatcom county", "address_1": "2602 mcleod rd", "address_2": "", "city": "bellingham", "state_province": "wa", "postal_code": "98225", "url": ""}]}, {"__class__": "tuple", "__value__": [{"name": "north sound cooling centers", "address_1": "8251 kendall road", "address_2": "", "city": "maple falls", "state_province": "wa", "postal_code": "98266", "url": ""}, {"name": "opportunity council - east whatcom regional resource center", "address_1": "8251 kendall road", "address_2": "", "city": "maple falls", "state_province": "wa", "postal_code": "98266", "url": "https://www.oppco.org/ewrrc"}]}, {"__class__": "tuple", "__value__": [{"name": "whatcom county", "address_1": "311 grand ave.", "address_2": "", "city": "bellingham", "state_province": "wa", "postal_code": "98225", "url": "http://www.co.whatcom.wa.us"}, {"name": "whatcom unified emergency coordination center", "address_1": "311 grand avenue", "address_2": "", "city": "bellingham", "state_province": "wa", "postal_code": "98225", "url": "http://www.whatcomready.org"}]}, {"__class__": "tuple", "__value__": [{"name": "arc of whatcom county", "address_1": "2602 mcleod road", "address_2": "", "city": "bellingham", "state_province": "wa", "postal_code": "98225", "url": "http://www.arcwhatcom.org"}, {"name": "down syndrome outreach of whatcom county", "address_1": "2602 mcleod rd", "address_2": "", "city": "bellingham", "state_province": "wa", "postal_code": "98225", "url": ""}]}, {"__class__": "tuple", "__value__": [{"name": "whatcom county courts", "address_1": "1020 north state street", "address_2": "", "city": "bellingham", "state_province": "wa", "postal_code": "98225", "url": "http://www.courts.wa.gov/court_dir/orgs/296.html"}, {"name": "whatcom county pregnancy clinic", "address_1": "1310 north state street", "address_2": "", "city": "bellingham", "state_province": "wa", "postal_code": "98225", "url": "http://www.whatcomclinic.com"}]}, {"__class__": "tuple", "__value__": [{"name": "whatcom county courts", "address_1": "1020 north state street", "address_2": "", "city": "bellingham", "state_province": "wa", "postal_code": "98225", "url": "http://www.courts.wa.gov/court_dir/orgs/296.html"}, {"name": "whatcom county pregnancy clinic", "address_1": "1310 north state street", "address_2": "", "city": "bellingham", "state_province": "wa", "postal_code": "98225", "url": "http://www.whatcomclinic.com"}]}, {"__class__": "tuple", "__value__": [{"name": "foothills food bank", "address_1": "8255 kendall road", "address_2": "", "city": "maple falls", "state_province": "wa", "postal_code": "98266", "url": "http://www.foothillsfoodbank.org"}, {"name": "food lifeline mobile food program in maple falls", "address_1": "8251 kendall rd", "address_2": "", "city": "maple falls", "state_province": "wa", "postal_code": "98266", "url": ""}]}, {"__class__": "tuple", "__value__": [{"name": "foothills food bank", "address_1": "8255 kendall road", "address_2": "", "city": "maple falls", "state_province": "wa", "postal_code": "98266", "url": "http://www.foothillsfoodbank.org"}, {"name": "food lifeline mobile food program in maple falls", "address_1": "8251 kendall rd", "address_2": "", "city": "maple falls", "state_province": "wa", "postal_code": "98266", "url": ""}]}, {"__class__": "tuple", "__value__": [{"name": "arc of whatcom county", "address_1": "2602 mcleod rd.", "address_2": "", "city": "bellingham", "state_province": "wa", "postal_code": "98225", "url": "http://www.arcwhatcom.org"}, {"name": "down syndrome outreach of whatcom county", "address_1": "2602 mcleod road", "address_2": "", "city": "bellingham", "state_province": "wa", "postal_code": "98225", "url": ""}]}, {"__class__": "tuple", "__value__": [{"name": "usda", "address_1": "1220 north forest street", "address_2": "", "city": "bellingham", "state_province": "wa", "postal_code": "98225", "url": ""}, {"name": "usda", "address_1": "1701 ellis str", "address_2": "suite 221", "city": "bellingham", "state_province": "wa", "postal_code": "98225", "url": ""}]}, {"__class__": "tuple", "__value__": [{"name": "north sound cooling centers", "address_1": "8251 kendall rd.", "address_2": "", "city": "maple falls", "state_province": "wa", "postal_code": "98266", "url": ""}, {"name": "opportunity council - east whatcom regional resource center", "address_1": "8251 kendall road", "address_2": "", "city": "maple falls", "state_province": "wa", "postal_code": "98266", "url": "https://www.oppco.org/ewrrc"}]}, {"__class__": "tuple", "__value__": [{"name": "usda", "address_1": "1220 north forest street", "address_2": "", "city": "bellingham", "state_province": "wa", "postal_code": "98225", "url": ""}, {"name": "usda", "address_1": "1701 ellis str", "address_2": "suite 221", "city": "bellingham", "state_province": "wa", "postal_code": "98225", "url": ""}]}, {"__class__": "tuple", "__value__": [{"name": "ywca of bellingham", "address_1": "1026 n forest st", "address_2": "", "city": "bellingham", "state_province": "wa", "postal_code": "98225", "url": "http://www.ywcabellingham.org"}, {"name": "ywca of bellingham", "address_1": "1224 north state str.", "address_2": "", "city": "bellingham", "state_province": "wa", "postal_code": "98225", "url": "http://www.ywcabellingham.org"}]}, {"__class__": "tuple", "__value__": [{"name": "usda", "address_1": "1220 north forest street", "address_2": "", "city": "bellingham", "state_province": "wa", "postal_code": "98225", "url": ""}, {"name": "usda", "address_1": "1701 ellis street", "address_2": "suite 221", "city": "bellingham", "state_province": "wa", "postal_code": "98225", "url": ""}]}, {"__class__": "tuple", "__value__": [{"name": "usda", "address_1": "1220 north forest street", "address_2": "", "city": "bellingham", "state_province": "wa", "postal_code": "98225", "url": ""}, {"name": "usda", "address_1": "1701 ellis street", "address_2": "suite 221", "city": "bellingham", "state_province": "wa", "postal_code": "98225", "url": ""}]}, {"__class__": "tuple", "__value__": [{"name": "bellingham food bank", "address_1": "4173 meridian st", "address_2": "", "city": "bellingham", "state_province": "wa", "postal_code": "98226", "url": "http://bellinghamfoodbank.org"}, {"name": "bellingham food bank", "address_1": "1175 jersey st", "address_2": "", "city": "bellingham", "state_province": "wa", "postal_code": "98225", "url": "http://bellinghamfoodbank.org"}]}, {"__class__": "tuple", "__value__": [{"name": "law advocates", "address_1": "210 central avenue", "address_2": "", "city": "bellingham", "state_province": "wa", "postal_code": "98225", "url": "http://www.lawadvocates.org"}, {"name": "north sound cooling centers", "address_1": "210 central avenue", "address_2": "", "city": "bellingham", "state_province": "wa", "postal_code": "98225", "url": ""}]}, {"__class__": "tuple", "__value__": [{"name": "we care of whatcom county", "address_1": "po box 28194", "address_2": "", "city": "bellingham", "state_province": "wa", "postal_code": "98228", "url": ""}, {"name": "pflag whatcom", "address_1": "po box 28704", "address_2": "", "city": "bellingham", "state_province": "wa", "postal_code": "98228", "url": "http://www.whatcompflag.org"}]}, {"__class__": "tuple", "__value__": [{"name": "western washington university", "address_1": "516 high st", "address_2": "room 265", "city": "bellingham", "state_province": "wa", "postal_code": "98225", "url": "http://www.wwu.edu"}, {"name": "western washington university", "address_1": "188 east college way", "address_2": "room 453", "city": "bellingham", "state_province": "wa", "postal_code": "98225", "url": "http://www.wwu.edu"}]}], "match": [{"__class__": "tuple", "__value__": [{"name": "new way ministries", "address_1": "205 south british columbia avenue", "address_2": "", "city": "lynden", "state_province": "wa", "postal_code": "98264", "url": "http://www.christianhopeassociation.org"}, {"name": "new way ministries", "address_1": "205 south british columbia ave", "address_2": "", "city": "lynden", "state_province": "wa", "postal_code": "98264", "url": "http://www.christianhopeassociation.org"}]}, {"__class__": "tuple", "__value__": [{"name": "whatcom family ymca", "address_1": "1256 north state str", "address_2": "", "city": "bellingham", "state_province": "wa", "postal_code": "98225", "url": "http://whatcomymca.org"}, {"name": "whatcom family ymca", "address_1": "1256 north state st", "address_2": "", "city": "bellingham", "state_province": "wa", "postal_code": "98225", "url": "http://whatcomymca.org"}]}, {"__class__": "tuple", "__value__": [{"name": "salvation army - bellingham", "address_1": "1515 birchwood ave", "address_2": "", "city": "bellingham", "state_province": "wa", "postal_code": "98225", "url": "https://bellingham.salvationarmy.org"}, {"name": "salvation army - bellingham", "address_1": "1515 birchwood aven", "address_2": "", "city": "bellingham", "state_province": "wa", "postal_code": "98225", "url": "https://bellingham.salvationarmy.org"}]}, {"__class__": "tuple", "__value__": [{"name": "salvation army - bellingham", "address_1": "1515 birchwood ave", "address_2": "", "city": "bellingham", "state_province": "wa", "postal_code": "98225", "url": "https://bellingham.salvationarmy.org"}, {"name": "salvation army - bellingham", "address_1": "1515 birchwood aven", "address_2": "", "city": "bellingham", "state_province": "wa", "postal_code": "98225", "url": "https://bellingham.salvationarmy.org"}]}, {"__class__": "tuple", "__value__": [{"name": "opportunity council in whatcom county", "address_1": "1111 cornwall avenue", "address_2": "suite c", "city": "bellingham", "state_province": "wa", "postal_code": "98225", "url": "http://www.oppco.org"}, {"name": "opportunity council in whatcom county", "address_1": "1111 cornwall aven", "address_2": "suite c", "city": "bellingham", "state_province": "wa", "postal_code": "98225", "url": "http://www.oppco.org"}]}, {"__class__": "tuple", "__value__": [{"name": "whatcom county", "address_1": "332 north commercial street", "address_2": "suite 220", "city": "bellingham", "state_province": "wa", "postal_code": "98225", "url": "http://www.co.whatcom.wa.us"}, {"name": "whatcom county", "address_1": "332 north commercial st", "address_2": "suite 220", "city": "bellingham", "state_province": "wa", "postal_code": "98225", "url": "http://www.co.whatcom.wa.us"}]}, {"__class__": "tuple", "__value__": [{"name": "blaine community/senior center", "address_1": "763 g st", "address_2": "", "city": "blaine", "state_province": "wa", "postal_code": "98230", "url": "https://www.blaineseniorcenter.org"}, {"name": "blaine community/senior center", "address_1": "763 g str.", "address_2": "", "city": "blaine", "state_province": "wa", "postal_code": "98230", "url": "https://www.blaineseniorcenter.org"}]}, {"__class__": "tuple", "__value__": [{"name": "blaine community/senior center", "address_1": "763 g street", "address_2": "", "city": "blaine", "state_province": "wa", "postal_code": "98230", "url": "https://www.blaineseniorcenter.org"}, {"name": "blaine community/senior center", "address_1": "763 g st", "address_2": "", "city": "blaine", "state_province": "wa", "postal_code": "98230", "url": "https://www.blaineseniorcenter.org"}]}, {"__class__": "tuple", "__value__": [{"name": "*required* text", "address_1": "text", "address_2": "text", "city": "text", "state_province": "two character state (all caps)", "postal_code": "99999 or 99999-9999", "url": "http://some.domain.com"}, {"name": "*required* text", "address_1": "text", "address_2": "text", "city": "text", "state_province": "two character state (all caps)", "postal_code": "99999 or 99999-9999", "url": "http://some.domain.com"}]}, {"__class__": "tuple", "__value__": [{"name": "*required* text", "address_1": "text", "address_2": "text", "city": "text", "state_province": "two character state (all caps)", "postal_code": "99999 or 99999-9999", "url": "http://some.domain.com"}, {"name": "*required* text", "address_1": "text", "address_2": "text", "city": "text", "state_province": "two character state (all caps)", "postal_code": "99999 or 99999-9999", "url": "http://some.domain.com"}]}, {"__class__": "tuple", "__value__": [{"name": "seattle goodwill", "address_1": "seattle goodwill industries", "address_2": "1765 6th ave. s.", "city": "seattle", "state_province": "wa", "postal_code": "98134", "url": "https://seattlegoodwill.org/"}, {"name": "seattle goodwill", "address_1": "seattle goodwill industries", "address_2": "1765 6th ave. s.", "city": "seattle", "state_province": "wa", "postal_code": "98134", "url": "https://seattlegoodwill.org/"}]}, {"__class__": "tuple", "__value__": [{"name": "western washington university", "address_1": "career services center", "address_2": "wwu 516 high st", "city": "bellingham", "state_province": "wa", "postal_code": "98225", "url": "http://www.wwu.edu"}, {"name": "western washington university", "address_1": "career services center", "address_2": "wwu 516 high st", "city": "bellingham", "state_province": "wa", "postal_code": "98225", "url": "http://www.wwu.edu"}]}, {"__class__": "tuple", "__value__": [{"name": "salvation army - bellingham", "address_1": "1515 birchwood avenue", "address_2": "", "city": "bellingham", "state_province": "wa", "postal_code": "98225", "url": "https://bellingham.salvationarmy.org"}, {"name": "salvation army - bellingham", "address_1": "1515 birchwood aven", "address_2": "", "city": "bellingham", "state_province": "wa", "postal_code": "98225", "url": "https://bellingham.salvationarmy.org"}]}, {"__class__": "tuple", "__value__": [{"name": "salvation army - bellingham", "address_1": "1515 birchwood avenue", "address_2": "", "city": "bellingham", "state_province": "wa", "postal_code": "98225", "url": "https://bellingham.salvationarmy.org"}, {"name": "salvation army - bellingham", "address_1": "1515 birchwood ave", "address_2": "", "city": "bellingham", "state_province": "wa", "postal_code": "98225", "url": "https://bellingham.salvationarmy.org"}]}, {"__class__": "tuple", "__value__": [{"name": "lummi nation", "address_1": "2665 kwina road", "address_2": "", "city": "bellingham", "state_province": "wa", "postal_code": "98226", "url": "https://www.lummi-nsn.gov"}, {"name": "lummi nation", "address_1": "2616 kwina road", "address_2": "", "city": "bellingham", "state_province": "wa", "postal_code": "98226", "url": "https://www.lummi-nsn.gov"}]}, {"__class__": "tuple", "__value__": [{"name": "salvation army - bellingham", "address_1": "2912 northwest avenue", "address_2": "", "city": "bellingham", "state_province": "wa", "postal_code": "98225", "url": "https://bellingham.salvationarmy.org"}, {"name": "salvation army (bellingham)", "address_1": "2912 northwest ave", "address_2": "", "city": "bellingham", "state_province": "wa", "postal_code": "98225", "url": ""}]}, {"__class__": "tuple", "__value__": [{"name": "planned parenthood", "address_1": "1530 ellis st", "address_2": "", "city": "bellingham", "state_province": "wa", "postal_code": "98225", "url": "http://ppgnhi.org"}, {"name": "planned parenthood (bellingham)", "address_1": "1530 ellis st", "address_2": "", "city": "bellingham", "state_province": "wa", "postal_code": "98225", "url": "https://www.plannedparenthood.org/health-center/washington/bellingham/98225/bellingham-health-center-2454-91780"}]}, {"__class__": "tuple", "__value__": [{"name": "ferndale community service cooperative", "address_1": "5694 2nd avenue", "address_2": "", "city": "ferndale", "state_province": "wa", "postal_code": "98248", "url": "http://www.ferndalecsc.org"}, {"name": "ferndale community service cooperative - resource center", "address_1": "5694 2nd aven", "address_2": "", "city": "ferndale", "state_province": "wa", "postal_code": "98248", "url": ""}]}, {"__class__": "tuple", "__value__": [{"name": "ferndale community service cooperative", "address_1": "5694 2nd avenue", "address_2": "", "city": "ferndale", "state_province": "wa", "postal_code": "98248", "url": "http://www.ferndalecsc.org"}, {"name": "ferndale community service cooperative - resource center", "address_1": "5694 2nd ave", "address_2": "", "city": "ferndale", "state_province": "wa", "postal_code": "98248", "url": ""}]}, {"__class__": "tuple", "__value__": [{"name": "bellingham food bank", "address_1": "4173 meridian street", "address_2": "", "city": "bellingham", "state_province": "wa", "postal_code": "98226", "url": "http://bellinghamfoodbank.org"}, {"name": "satellite food bank at christ the king community church", "address_1": "4173 meridian street", "address_2": "", "city": "bellingham", "state_province": "wa", "postal_code": "98226", "url": ""}]}, {"__class__": "tuple", "__value__": [{"name": "blaine community/senior center", "address_1": "763 g st.", "address_2": "", "city": "blaine", "state_province": "wa", "postal_code": "98230", "url": "https://www.blaineseniorcenter.org"}, {"name": "blaine community/senior center", "address_1": "763 g str.", "address_2": "", "city": "blaine", "state_province": "wa", "postal_code": "98230", "url": "https://www.blaineseniorcenter.org"}]}, {"__class__": "tuple", "__value__": [{"name": "nooksack valley school district", "address_1": "3326 east badger road", "address_2": "", "city": "everson", "state_province": "wa", "postal_code": "98247", "url": "https://www.nv.k12.wa.us"}, {"name": "nooksack valley school", "address_1": "3326 e badger rd", "address_2": "", "city": "everson", "state_province": "wa", "postal_code": "98247", "url": ""}]}, {"__class__": "tuple", "__value__": [{"name": "boys and girls clubs of whatcom county", "address_1": "8800 bender road", "address_2": "", "city": "lynden", "state_province": "wa", "postal_code": "98264", "url": "http://www.whatcomclubs.org"}, {"name": "boys and girls clubs of whatcom county", "address_1": "8800 bender rd.", "address_2": "", "city": "lynden", "state_province": "wa", "postal_code": "98264", "url": "http://www.whatcomclubs.org"}]}, {"__class__": "tuple", "__value__": [{"name": "north sound cooling centers", "address_1": "2095 main str", "address_2": "", "city": "ferndale", "state_province": "wa", "postal_code": "98248", "url": ""}, {"name": "north sound cooling centers", "address_1": "2125 main street", "address_2": "", "city": "ferndale", "state_province": "wa", "postal_code": "98248", "url": ""}]}, {"__class__": "tuple", "__value__": [{"name": "sea mar community health centers", "address_1": "1603 east illinois street", "address_2": "", "city": "bellingham", "state_province": "wa", "postal_code": "98226", "url": "https://www.seamar.org/"}, {"name": "sea mar community health centers", "address_1": "1603 e illinois", "address_2": "", "city": "bellingham", "state_province": "wa", "postal_code": "98226", "url": "https://www.seamar.org/"}]}, {"__class__": "tuple", "__value__": [{"name": "brigid collins family support center", "address_1": "1231 n garden st suite 200", "address_2": "", "city": "bellingham", "state_province": "wa", "postal_code": "98225", "url": "http://www.brigidcollins.org"}, {"name": "brigid collins family support center (bellingham)", "address_1": "1231 n garden st,#200", "address_2": "", "city": "bellingham", "state_province": "wa", "postal_code": "98225", "url": ""}]}, {"__class__": "tuple", "__value__": [{"name": "arc of whatcom county", "address_1": "2602 mcleod road", "address_2": "", "city": "bellingham", "state_province": "wa", "postal_code": "98225", "url": "http://www.arcwhatcom.org"}, {"name": "arc of whatcom county", "address_1": "2602 mcleod rd", "address_2": "", "city": "bellingham", "state_province": "wa", "postal_code": "98225", "url": ""}]}, {"__class__": "tuple", "__value__": [{"name": "arc of whatcom county", "address_1": "2602 mcleod road", "address_2": "", "city": "bellingham", "state_province": "wa", "postal_code": "98225", "url": "http://www.arcwhatcom.org"}, {"name": "arc of whatcom county", "address_1": "2602 mcleod rd", "address_2": "", "city": "bellingham", "state_province": "wa", "postal_code": "98225", "url": ""}]}, {"__class__": "tuple", "__value__": [{"name": "old town christian ministries", "address_1": "1704 north state street", "address_2": "", "city": "bellingham", "state_province": "wa", "postal_code": "98225", "url": ""}, {"name": "old town christian ministries", "address_1": "1704 north state str", "address_2": "", "city": "bellingham", "state_province": "wa", "postal_code": "98225", "url": ""}]}, {"__class__": "tuple", "__value__": [{"name": "compass health (bellingham - mcleod rd)", "address_1": "3645 e mcleod rd", "address_2": "", "city": "bellingham", "state_province": "wa", "postal_code": "98226", "url": ""}, {"name": "compass health (bellingham - mcleod rd)", "address_1": "3645 e mcleod road", "address_2": "", "city": "bellingham", "state_province": "wa", "postal_code": "98226", "url": ""}]}, {"__class__": "tuple", "__value__": [{"name": "north sound cooling centers", "address_1": "2095 main street", "address_2": "", "city": "ferndale", "state_province": "wa", "postal_code": "98248", "url": ""}, {"name": "north sound cooling centers", "address_1": "2125 main st.", "address_2": "", "city": "ferndale", "state_province": "wa", "postal_code": "98248", "url": ""}]}, {"__class__": "tuple", "__value__": [{"name": "north sound cooling centers", "address_1": "2095 main str", "address_2": "", "city": "ferndale", "state_province": "wa", "postal_code": "98248", "url": ""}, {"name": "north sound cooling centers", "address_1": "2125 main st.", "address_2": "", "city": "ferndale", "state_province": "wa", "postal_code": "98248", "url": ""}]}, {"__class__": "tuple", "__value__": [{"name": "sea mar community health centers", "address_1": "1764 iowa street", "address_2": "", "city": "bellingham", "state_province": "wa", "postal_code": "98229", "url": "https://www.seamar.org/"}, {"name": "sea mar community health center (downtown bellingham wic)", "address_1": "1764 iowa st", "address_2": "", "city": "bellingham", "state_province": "wa", "postal_code": "98229", "url": ""}]}, {"__class__": "tuple", "__value__": [{"name": "sea mar community health centers", "address_1": "1764 iowa street", "address_2": "", "city": "bellingham", "state_province": "wa", "postal_code": "98229", "url": "https://www.seamar.org/"}, {"name": "sea mar community health center (downtown bellingham wic)", "address_1": "1764 iowa st", "address_2": "", "city": "bellingham", "state_province": "wa", "postal_code": "98229", "url": ""}]}, {"__class__": "tuple", "__value__": [{"name": "sea mar community health centers", "address_1": "4455 cordata parkway", "address_2": "", "city": "bellingham", "state_province": "wa", "postal_code": "98226", "url": "https://www.seamar.org/"}, {"name": "sea mar community health center (bellingham)", "address_1": "4455 cordata pkwy", "address_2": "", "city": "bellingham", "state_province": "wa", "postal_code": "98226", "url": "https://www.seamar.org/whatcom-medical-bellingham.html"}]}, {"__class__": "tuple", "__value__": [{"name": "sea mar community health centers", "address_1": "4455 cordata parkway", "address_2": "", "city": "bellingham", "state_province": "wa", "postal_code": "98226", "url": "https://www.seamar.org/"}, {"name": "sea mar community health center (bellingham)", "address_1": "4455 cordata pkwy", "address_2": "", "city": "bellingham", "state_province": "wa", "postal_code": "98226", "url": "https://www.seamar.org/whatcom-medical-bellingham.html"}]}, {"__class__": "tuple", "__value__": [{"name": "western washington university", "address_1": "516 high street", "address_2": "room 540", "city": "bellingham", "state_province": "wa", "postal_code": "98225", "url": "http://www.wwu.edu"}, {"name": "western washington university", "address_1": "516 high str.", "address_2": "", "city": "bellingham", "state_province": "wa", "postal_code": "98225", "url": "http://www.wwu.edu"}]}, {"__class__": "tuple", "__value__": [{"name": "western washington university", "address_1": "516 high street", "address_2": "", "city": "bellingham", "state_province": "wa", "postal_code": "98225", "url": "http://www.wwu.edu"}, {"name": "western washington university", "address_1": "516 high str.", "address_2": "old main 265 ms 9006", "city": "bellingham", "state_province": "wa", "postal_code": "98225", "url": "http://www.wwu.edu"}]}, {"__class__": "tuple", "__value__": [{"name": "united way of whatcom county", "address_1": "1500 cornwall ave. ste 203", "address_2": "", "city": "bellingham", "state_province": "wa", "postal_code": "98225", "url": "http://www.unitedwaywhatcom.org"}, {"name": "united way of whatcom county", "address_1": "1500 cornwall avenue", "address_2": "suite 203", "city": "bellingham", "state_province": "wa", "postal_code": "98225", "url": "http://www.unitedwaywhatcom.org"}]}, {"__class__": "tuple", "__value__": [{"name": "lummi nation", "address_1": "2830 kwina rd", "address_2": "", "city": "bellingham", "state_province": "wa", "postal_code": "98226", "url": "https://www.lummi-nsn.gov"}, {"name": "lummi nation", "address_1": "2592 kwina road", "address_2": "", "city": "bellingham", "state_province": "wa", "postal_code": "98226", "url": "https://www.lummi-nsn.gov"}]}, {"__class__": "tuple", "__value__": [{"name": "new way ministries", "address_1": "205 south british columbia avenue", "address_2": "", "city": "lynden", "state_province": "wa", "postal_code": "98264", "url": "http://www.christianhopeassociation.org"}, {"name": "new way ministries", "address_1": "205 south bc avenue", "address_2": "suite 105", "city": "lynden", "state_province": "wa", "postal_code": "98264", "url": "http://www.christianhopeassociation.org"}]}, {"__class__": "tuple", "__value__": [{"name": "foothills food bank", "address_1": "8255 kendall road", "address_2": "", "city": "maple falls", "state_province": "wa", "postal_code": "98266", "url": "http://www.foothillsfoodbank.org"}, {"name": "foothills food bank (saint peter\u2019s church)", "address_1": "east whatcom regional resource center,8255 kendal road", "address_2": "", "city": "maple falls", "state_province": "wa", "postal_code": "98266", "url": ""}]}, {"__class__": "tuple", "__value__": [{"name": "new way ministries", "address_1": "205 south british columbia ave", "address_2": "", "city": "lynden", "state_province": "wa", "postal_code": "98264", "url": "http://www.christianhopeassociation.org"}, {"name": "new way ministries", "address_1": "205 south bc ave.", "address_2": "suite 105", "city": "lynden", "state_province": "wa", "postal_code": "98264", "url": "http://www.christianhopeassociation.org"}]}, {"__class__": "tuple", "__value__": [{"name": "catholic community services of western washington in whatcom county", "address_1": "1133 railroad avenue", "address_2": "suite 100", "city": "bellingham", "state_province": "wa", "postal_code": "98225", "url": "http://www.ccsww.org"}, {"name": "catholic community services (whatcom county)", "address_1": "1133 railroad ave,# 100", "address_2": "", "city": "bellingham", "state_province": "wa", "postal_code": "98225", "url": ""}]}, {"__class__": "tuple", "__value__": [{"name": "new way ministries", "address_1": "205 south british columbia ave", "address_2": "", "city": "lynden", "state_province": "wa", "postal_code": "98264", "url": "http://www.christianhopeassociation.org"}, {"name": "new way ministries", "address_1": "205 south bc avenue", "address_2": "suite 105", "city": "lynden", "state_province": "wa", "postal_code": "98264", "url": "http://www.christianhopeassociation.org"}]}, {"__class__": "tuple", "__value__": [{"name": "lummi nation", "address_1": "2616 kwina road", "address_2": "", "city": "bellingham", "state_province": "wa", "postal_code": "98226", "url": "https://www.lummi-nsn.gov"}, {"name": "lummi nation", "address_1": "2830 kwina rd", "address_2": "", "city": "bellingham", "state_province": "wa", "postal_code": "98226", "url": "https://www.lummi-nsn.gov"}]}, {"__class__": "tuple", "__value__": [{"name": "lummi nation", "address_1": "2616 kwina road", "address_2": "", "city": "bellingham", "state_province": "wa", "postal_code": "98226", "url": "https://www.lummi-nsn.gov"}, {"name": "lummi nation", "address_1": "2830 kwina rd", "address_2": "", "city": "bellingham", "state_province": "wa", "postal_code": "98226", "url": "https://www.lummi-nsn.gov"}]}, {"__class__": "tuple", "__value__": [{"name": "lummi nation", "address_1": "2665 kwina road", "address_2": "", "city": "bellingham", "state_province": "wa", "postal_code": "98226", "url": "https://www.lummi-nsn.gov"}, {"name": "lummi nation", "address_1": "2830 kwina rd", "address_2": "", "city": "bellingham", "state_province": "wa", "postal_code": "98226", "url": "https://www.lummi-nsn.gov"}]}, {"__class__": "tuple", "__value__": [{"name": "northwest youth services", "address_1": "1020 north state str", "address_2": "", "city": "bellingham", "state_province": "wa", "postal_code": "98225", "url": "http://www.nwys.org/"}, {"name": "northwest youth services", "address_1": "1020 n. state street", "address_2": "", "city": "bellingham", "state_province": "wa", "postal_code": "98225", "url": "http://www.nwys.org/"}]}, {"__class__": "tuple", "__value__": [{"name": "brigid collins family support center", "address_1": "1231 north garden street", "address_2": "suite 200", "city": "bellingham", "state_province": "wa", "postal_code": "98225", "url": "http://www.brigidcollins.org"}, {"name": "brigid collins family support center", "address_1": "1231 n garden st suite 200", "address_2": "", "city": "bellingham", "state_province": "wa", "postal_code": "98225", "url": "http://www.brigidcollins.org"}]}, {"__class__": "tuple", "__value__": [{"name": "unity care northwest", "address_1": "6060 portal way", "address_2": "", "city": "ferndale", "state_province": "wa", "postal_code": "98248", "url": "http://unitycarenw.org"}, {"name": "unity care nw (ferndale health center)", "address_1": "6060 portal way", "address_2": "", "city": "ferndale", "state_province": "wa", "postal_code": "98248", "url": ""}]}, {"__class__": "tuple", "__value__": [{"name": "catholic community services of western washington in whatcom county", "address_1": "1133 railroad ave no \u00a0100", "address_2": "", "city": "bellingham", "state_province": "wa", "postal_code": "98225", "url": "http://www.ccsww.org"}, {"name": "catholic community services (whatcom county)", "address_1": "1133 railroad ave,# 100", "address_2": "", "city": "bellingham", "state_province": "wa", "postal_code": "98225", "url": ""}]}, {"__class__": "tuple", "__value__": [{"name": "unity care northwest", "address_1": "220 unity street", "address_2": "", "city": "bellingham", "state_province": "wa", "postal_code": "98225", "url": "http://unitycarenw.org"}, {"name": "unity care nw (bellingham health center)", "address_1": "220 unity st", "address_2": "", "city": "bellingham", "state_province": "wa", "postal_code": "98225", "url": ""}]}, {"__class__": "tuple", "__value__": [{"name": "catholic community services of western washington in whatcom county", "address_1": "1133 railroad ave no \u00a0100", "address_2": "", "city": "bellingham", "state_province": "wa", "postal_code": "98225", "url": "http://www.ccsww.org"}, {"name": "catholic community services (whatcom county)", "address_1": "1133 railroad ave,# 100", "address_2": "", "city": "bellingham", "state_province": "wa", "postal_code": "98225", "url": ""}]}, {"__class__": "tuple", "__value__": [{"name": "unity care northwest", "address_1": "1616 cornwall avenue", "address_2": "", "city": "bellingham", "state_province": "wa", "postal_code": "98225", "url": "http://unitycarenw.org"}, {"name": "unity care nw (bellingham, cornwall ave)", "address_1": "1616 cornwall ave,ste. 205", "address_2": "", "city": "bellingham", "state_province": "wa", "postal_code": "98225", "url": ""}]}, {"__class__": "tuple", "__value__": [{"name": "saint paul's episcopal church", "address_1": "2116 walnut str.", "address_2": "", "city": "bellingham", "state_province": "wa", "postal_code": "98225", "url": "http://stpaulsbellingham.org"}, {"name": "st. paul episcopal church - alms ministry", "address_1": "2117 walnut st", "address_2": "", "city": "bellingham", "state_province": "wa", "postal_code": "98225", "url": ""}]}, {"__class__": "tuple", "__value__": [{"name": "new way ministries", "address_1": "205 south british columbia avenue", "address_2": "", "city": "lynden", "state_province": "wa", "postal_code": "98264", "url": "http://www.christianhopeassociation.org"}, {"name": "new way ministries", "address_1": "205 south bc ave.", "address_2": "suite 105", "city": "lynden", "state_province": "wa", "postal_code": "98264", "url": "http://www.christianhopeassociation.org"}]}, {"__class__": "tuple", "__value__": [{"name": "bellingham public library", "address_1": "cs 9710", "address_2": "", "city": "bellingham", "state_province": "wa", "postal_code": "98227", "url": "http://www.bellinghampubliclibrary.org"}, {"name": "bellingham public library", "address_1": "210 central aven", "address_2": "", "city": "bellingham", "state_province": "wa", "postal_code": "98227", "url": ""}]}, {"__class__": "tuple", "__value__": [{"name": "bellingham public library", "address_1": "cs 9710", "address_2": "", "city": "bellingham", "state_province": "wa", "postal_code": "98227", "url": "http://www.bellinghampubliclibrary.org"}, {"name": "bellingham public library", "address_1": "210 central ave", "address_2": "", "city": "bellingham", "state_province": "wa", "postal_code": "98227", "url": ""}]}, {"__class__": "tuple", "__value__": [{"name": "bellingham public library", "address_1": "cs 9710", "address_2": "", "city": "bellingham", "state_province": "wa", "postal_code": "98227", "url": "http://www.bellinghampubliclibrary.org"}, {"name": "bellingham public library", "address_1": "210 central ave", "address_2": "", "city": "bellingham", "state_province": "wa", "postal_code": "98227", "url": ""}]}, {"__class__": "tuple", "__value__": [{"name": "project hope", "address_1": "205 south british columbia avenue", "address_2": "suite 105", "city": "lynden", "state_province": "wa", "postal_code": "98264", "url": "https://www.projecthopelynden.org"}, {"name": "project hope", "address_1": "205 s british columbia ave.", "address_2": "", "city": "lynden", "state_province": "wa", "postal_code": "98264", "url": "https://www.projecthopelynden.org/project-hope-food-bank/"}]}, {"__class__": "tuple", "__value__": [{"name": "united way of whatcom county", "address_1": "1500 cornwall ave. ste 203", "address_2": "", "city": "bellingham", "state_province": "wa", "postal_code": "98225", "url": "http://www.unitedwaywhatcom.org"}, {"name": "united way of whatcom county", "address_1": "1500 cornwall avenue", "address_2": "suite 203", "city": "bellingham", "state_province": "wa", "postal_code": "98225", "url": "http://www.unitedwaywhatcom.org"}]}, {"__class__": "tuple", "__value__": [{"name": "catholic community services of western washington in whatcom county", "address_1": "1133 railroad avenue", "address_2": "suite 100", "city": "bellingham", "state_province": "wa", "postal_code": "98225", "url": "http://www.ccsww.org"}, {"name": "catholic community services of western washington in whatcom county", "address_1": "1133 railroad ave no \u00a0100", "address_2": "", "city": "bellingham", "state_province": "wa", "postal_code": "98225", "url": "http://www.ccsww.org"}]}, {"__class__": "tuple", "__value__": [{"name": "unity care northwest", "address_1": "220 unity street", "address_2": "", "city": "bellingham", "state_province": "wa", "postal_code": "98225", "url": "http://unitycarenw.org"}, {"name": "unity care nw (bellingham health center)", "address_1": "220 unity st", "address_2": "", "city": "bellingham", "state_province": "wa", "postal_code": "98225", "url": ""}]}, {"__class__": "tuple", "__value__": [{"name": "unity care northwest", "address_1": "220 unity street", "address_2": "", "city": "bellingham", "state_province": "wa", "postal_code": "98225", "url": "http://unitycarenw.org"}, {"name": "unity care nw (bellingham health center)", "address_1": "220 unity st", "address_2": "", "city": "bellingham", "state_province": "wa", "postal_code": "98225", "url": ""}]}, {"__class__": "tuple", "__value__": [{"name": "catholic community services of western washington in whatcom county", "address_1": "1133 railroad avenue", "address_2": "suite 100", "city": "bellingham", "state_province": "wa", "postal_code": "98225", "url": "http://www.ccsww.org"}, {"name": "catholic community services of western washington in whatcom county", "address_1": "1133 railroad ave no \u00a0100", "address_2": "", "city": "bellingham", "state_province": "wa", "postal_code": "98225", "url": "http://www.ccsww.org"}]}, {"__class__": "tuple", "__value__": [{"name": "hope house", "address_1": "1133 railroad avenue", "address_2": "#100", "city": "bellingham", "state_province": "wa", "postal_code": "98225", "url": "https://www.assumption.org/hope-house.html"}, {"name": "catholic community services (whatcom county)", "address_1": "1133 railroad ave,# 100", "address_2": "", "city": "bellingham", "state_province": "wa", "postal_code": "98225", "url": ""}]}, {"__class__": "tuple", "__value__": [{"name": "arc of whatcom county", "address_1": "2602 mcleod road", "address_2": "", "city": "bellingham", "state_province": "wa", "postal_code": "98225", "url": "http://www.arcwhatcom.org"}, {"name": "down syndrome outreach of whatcom county", "address_1": "2602 mcleod road", "address_2": "", "city": "bellingham", "state_province": "wa", "postal_code": "98225", "url": ""}]}, {"__class__": "tuple", "__value__": [{"name": "arc of whatcom county", "address_1": "2602 mcleod rd", "address_2": "", "city": "bellingham", "state_province": "wa", "postal_code": "98225", "url": "http://www.arcwhatcom.org"}, {"name": "down syndrome outreach of whatcom county", "address_1": "2602 mcleod rd", "address_2": "", "city": "bellingham", "state_province": "wa", "postal_code": "98225", "url": ""}]}, {"__class__": "tuple", "__value__": [{"name": "arc of whatcom county", "address_1": "2602 mcleod road", "address_2": "", "city": "bellingham", "state_province": "wa", "postal_code": "98225", "url": "http://www.arcwhatcom.org"}, {"name": "down syndrome outreach of whatcom county", "address_1": "2602 mcleod road", "address_2": "", "city": "bellingham", "state_province": "wa", "postal_code": "98225", "url": ""}]}, {"__class__": "tuple", "__value__": [{"name": "arc of whatcom county", "address_1": "2602 mcleod rd.", "address_2": "", "city": "bellingham", "state_province": "wa", "postal_code": "98225", "url": "http://www.arcwhatcom.org"}, {"name": "down syndrome outreach of whatcom county", "address_1": "2602 mcleod rd", "address_2": "", "city": "bellingham", "state_province": "wa", "postal_code": "98225", "url": ""}]}, {"__class__": "tuple", "__value__": [{"name": "project hope", "address_1": "205 south british columbia avenue", "address_2": "suite 105", "city": "lynden", "state_province": "wa", "postal_code": "98264", "url": "https://www.projecthopelynden.org"}, {"name": "project hope", "address_1": "205 s british columbia ave", "address_2": "", "city": "lynden", "state_province": "wa", "postal_code": "98264", "url": "https://www.projecthopelynden.org/project-hope-food-bank/"}]}, {"__class__": "tuple", "__value__": [{"name": "blue skies for children", "address_1": "2505 cedarwood avenue", "address_2": "suite 5", "city": "bellingham", "state_province": "wa", "postal_code": "98225", "url": "http://www.blueskiesforchildren.org"}, {"name": "blue skies for children", "address_1": "2505 cedarwood ave suite 5", "address_2": "", "city": "bellingham", "state_province": "wa", "postal_code": "98225", "url": "http://www.blueskiesforchildren.org"}]}, {"__class__": "tuple", "__value__": [{"name": "arc of whatcom county", "address_1": "2602 mcleod road", "address_2": "", "city": "bellingham", "state_province": "wa", "postal_code": "98225", "url": "http://www.arcwhatcom.org"}, {"name": "down syndrome outreach of whatcom county", "address_1": "2602 mcleod rd", "address_2": "", "city": "bellingham", "state_province": "wa", "postal_code": "98225", "url": ""}]}, {"__class__": "tuple", "__value__": [{"name": "arc of whatcom county", "address_1": "2602 mcleod rd.", "address_2": "", "city": "bellingham", "state_province": "wa", "postal_code": "98225", "url": "http://www.arcwhatcom.org"}, {"name": "down syndrome outreach of whatcom county", "address_1": "2602 mcleod road", "address_2": "", "city": "bellingham", "state_province": "wa", "postal_code": "98225", "url": ""}]}, {"__class__": "tuple", "__value__": [{"name": "bellingham public library", "address_1": "1117 12th street", "address_2": "", "city": "bellingham", "state_province": "wa", "postal_code": "98225", "url": "http://www.bellinghampubliclibrary.org"}, {"name": "bellingham public library", "address_1": "cs 9710", "address_2": "", "city": "bellingham", "state_province": "wa", "postal_code": "98227", "url": "http://www.bellinghampubliclibrary.org"}]}]}