{"distinct": [{"__class__": "tuple", "__value__": [{"name": "whatcom family ymca", "address_1": "1256 north state str", "address_2": "", "city": "bellingham", "state_province": "wa", "postal_code": "98225", "url": "http://whatcomymca.org"}, {"name": "whatcom family ymca", "address_1": "1256 north state st", "address_2": "", "city": "bellingham", "state_province": "wa", "postal_code": "98225", "url": "http://whatcomymca.org"}]}, {"__class__": "tuple", "__value__": [{"name": "whatcom county", "address_1": "332 north commercial street", "address_2": "suite 220", "city": "bellingham", "state_province": "wa", "postal_code": "98225", "url": "http://www.co.whatcom.wa.us"}, {"name": "whatcom county", "address_1": "332 north commercial st", "address_2": "suite 220", "city": "bellingham", "state_province": "wa", "postal_code": "98225", "url": "http://www.co.whatcom.wa.us"}]}, {"__class__": "tuple", "__value__": [{"name": "blaine community/senior center", "address_1": "763 g st", "address_2": "", "city": "blaine", "state_province": "wa", "postal_code": "98230", "url": "https://www.blaineseniorcenter.org"}, {"name": "blaine community/senior center", "address_1": "763 g str.", "address_2": "", "city": "blaine", "state_province": "wa", "postal_code": "98230", "url": "https://www.blaineseniorcenter.org"}]}, {"__class__": "tuple", "__value__": [{"name": "whatcom family ymca", "address_1": "1256 north state str", "address_2": "", "city": "bellingham", "state_province": "wa", "postal_code": "98225", "url": "http://whatcomymca.org"}, {"name": "whatcom family ymca", "address_1": "1256 north state street", "address_2": "", "city": "bellingham", "state_province": "wa", "postal_code": "98225", "url": "http://whatcomymca.org"}]}, {"__class__": "tuple", "__value__": [{"name": "whatcom hospice", "address_1": "3001 squalicum parkway", "address_2": "suite 11", "city": "bellingham", "state_province": "wa", "postal_code": "98225", "url": "http://whatcomhospice.org"}, {"name": "whatcom hospice", "address_1": "2901 squalicum parkway", "address_2": "", "city": "bellingham", "state_province": "wa", "postal_code": "98225", "url": "http://whatcomhospice.org"}]}, {"__class__": "tuple", "__value__": [{"name": "northwest youth services", "address_1": "1020 north state street", "address_2": "", "city": "bellingham", "state_province": "wa", "postal_code": "98225", "url": "http://www.nwys.org/"}, {"name": "northwest youth services", "address_1": "1020 north state str", "address_2": "", "city": "bellingham", "state_province": "wa", "postal_code": "98225", "url": "http://www.nwys.org/"}]}, {"__class__": "tuple", "__value__": [{"name": "volunteer center of whatcom county", "address_1": "1419 cornwall avenue", "address_2": "", "city": "bellingham", "state_province": "wa", "postal_code": "98225", "url": "http://www.whatcomvolunteer.org"}, {"name": "volunteer center of whatcom county", "address_1": "1111 cornwall avenue", "address_2": "", "city": "bellingham", "state_province": "wa", "postal_code": "98225", "url": "http://www.whatcomvolunteer.org"}]}, {"__class__": "tuple", "__value__": [{"name": "ferndale food bank", "address_1": "1671 main street", "address_2": "wta transfer station property", "city": "ferndale", "state_province": "wa", "postal_code": "98248", "url": "http://www.ferndalefoodbank.org"}, {"name": "ferndale food bank", "address_1": "1671 main st", "address_2": "", "city": "ferndale", "state_province": "wa", "postal_code": "98248", "url": ""}]}, {"__class__": "tuple", "__value__": [{"name": "lighthouse mission ministries", "address_1": "910 west holly street", "address_2": "", "city": "bellingham", "state_province": "wa", "postal_code": "98225", "url": "http://www.thelighthousemission.org"}, {"name": "lighthouse mission ministries", "address_1": "910 west holly str", "address_2": "", "city": "bellingham", "state_province": "wa", "postal_code": "98225", "url": "http://www.thelighthousemission.org"}]}, {"__class__": "tuple", "__value__": [{"name": "arc of whatcom county", "address_1": "2602 mcleod road", "address_2": "", "city": "bellingham", "state_province": "wa", "postal_code": "98225", "url": "http://www.arcwhatcom.org"}, {"name": "arc of whatcom county", "address_1": "2602 mcleod rd", "address_2": "", "city": "bellingham", "state_province": "wa", "postal_code": "98225", "url": "http://www.arcwhatcom.org"}]}, {"__class__": "tuple", "__value__": [{"name": "journey housing and payee services", "address_1": "1515 cornwall avenue", "address_2": "", "city": "bellingham", "state_province": "wa", "postal_code": "98225", "url": "https://journeyhousingandpayee.org"}, {"name": "united way of whatcom county", "address_1": "1500 cornwall avenue", "address_2": "suite 203", "city": "bellingham", "state_province": "wa", "postal_code": "98225", "url": "http://www.unitedwaywhatcom.org"}]}, {"__class__": "tuple", "__value__": [{"name": "law advocates", "address_1": "311 grand avenue", "address_2": "5th floor", "city": "bellingham", "state_province": "wa", "postal_code": "98225", "url": "http://www.lawadvocates.org"}, {"name": "whatcom county", "address_1": "311 grand ave", "address_2": "", "city": "bellingham", "state_province": "wa", "postal_code": "98225", "url": "http://www.co.whatcom.wa.us"}]}, {"__class__": "tuple", "__value__": [{"name": "whatcom county courts", "address_1": "311 grand avenue", "address_2": "suite 501", "city": "bellingham", "state_province": "wa", "postal_code": "98225", "url": "http://www.courts.wa.gov/court_dir/orgs/296.html"}, {"name": "whatcom county sheriff's office", "address_1": "311 grand ave", "address_2": "", "city": "bellingham", "state_province": "wa", "postal_code": "98225", "url": "http://www.co.whatcom.wa.us/sheriff/"}]}, {"__class__": "tuple", "__value__": [{"name": "whatcom county courts", "address_1": "311 grand avenue", "address_2": "suite 501", "city": "bellingham", "state_province": "wa", "postal_code": "98225", "url": "http://www.courts.wa.gov/court_dir/orgs/296.html"}, {"name": "whatcom county sheriff's office", "address_1": "311 grand ave", "address_2": "", "city": "bellingham", "state_province": "wa", "postal_code": "98225", "url": "http://www.co.whatcom.wa.us/sheriff/"}]}, {"__class__": "tuple", "__value__": [{"name": "whatcom county courts", "address_1": "433 cherry street", "address_2": "", "city": "sumas", "state_province": "wa", "postal_code": "98295", "url": "http://www.courts.wa.gov/court_dir/orgs/296.html"}, {"name": "whatcom county courts", "address_1": "435 martin street", "address_2": "suite 4000", "city": "blaine", "state_province": "wa", "postal_code": "", "url": "http://www.courts.wa.gov/court_dir/orgs/296.html"}]}, {"__class__": "tuple", "__value__": [{"name": "whatcom county courts", "address_1": "205 4th street", "address_2": "", "city": "lynden", "state_province": "wa", "postal_code": "98264", "url": "http://www.courts.wa.gov/court_dir/orgs/296.html"}, {"name": "whatcom county courts", "address_1": "435 martin street", "address_2": "suite 4000", "city": "blaine", "state_province": "wa", "postal_code": "", "url": "http://www.courts.wa.gov/court_dir/orgs/296.html"}]}, {"__class__": "tuple", "__value__": [{"name": "*required* text", "address_1": "text", "address_2": "text", "city": "text", "state_province": "two character state (all caps)", "postal_code": "99999 or 99999-9999", "url": "http://some.domain.com"}, {"name": "*required* text", "address_1": "text", "address_2": "text", "city": "text", "state_province": "two character state (all caps)", "postal_code": "99999 or 99999-9999", "url": "http://some.domain.com"}]}, {"__class__": "tuple", "__value__": [{"name": "*required* text", "address_1": "text", "address_2": "text", "city": "text", "state_province": "two character state (all caps)", "postal_code": "99999 or 99999-9999", "url": "http://some.domain.com"}, {"name": "*required* text", "address_1": "text", "address_2": "text", "city": "text", "state_province": "two character state (all caps)", "postal_code": "99999 or 99999-9999", "url": "http://some.domain.com"}]}], "match": [{"__class__": "tuple", "__value__": [{"name": "new way ministries", "address_1": "205 south british columbia avenue", "address_2": "", "city": "lynden", "state_province": "wa", "postal_code": "98264", "url": "http://www.christianhopeassociation.org"}, {"name": "new way ministries", "address_1": "205 south british columbia ave", "address_2": "", "city": "lynden", "state_province": "wa", "postal_code": "98264", "url": "http://www.christianhopeassociation.org"}]}, {"__class__": "tuple", "__value__": [{"name": "salvation army - bellingham", "address_1": "1515 birchwood ave", "address_2": "", "city": "bellingham", "state_province": "wa", "postal_code": "98225", "url": "https://bellingham.salvationarmy.org"}, {"name": "salvation army - bellingham", "address_1": "1515 birchwood aven", "address_2": "", "city": "bellingham", "state_province": "wa", "postal_code": "98225", "url": "https://bellingham.salvationarmy.org"}]}, {"__class__": "tuple", "__value__": [{"name": "salvation army - bellingham", "address_1": "1515 birchwood ave", "address_2": "", "city": "bellingham", "state_province": "wa", "postal_code": "98225", "url": "https://bellingham.salvationarmy.org"}, {"name": "salvation army - bellingham", "address_1": "1515 birchwood aven", "address_2": "", "city": "bellingham", "state_province": "wa", "postal_code": "98225", "url": "https://bellingham.salvationarmy.org"}]}, {"__class__": "tuple", "__value__": [{"name": "opportunity council in whatcom county", "address_1": "1111 cornwall avenue", "address_2": "suite c", "city": "bellingham", "state_province": "wa", "postal_code": "98225", "url": "http://www.oppco.org"}, {"name": "opportunity council in whatcom county", "address_1": "1111 cornwall aven", "address_2": "suite c", "city": "bellingham", "state_province": "wa", "postal_code": "98225", "url": "http://www.oppco.org"}]}, {"__class__": "tuple", "__value__": [{"name": "blaine community/senior center", "address_1": "763 g street", "address_2": "", "city": "blaine", "state_province": "wa", "postal_code": "98230", "url": "https://www.blaineseniorcenter.org"}, {"name": "blaine community/senior center", "address_1": "763 g st", "address_2": "", "city": "blaine", "state_province": "wa", "postal_code": "98230", "url": "https://www.blaineseniorcenter.org"}]}, {"__class__": "tuple", "__value__": [{"name": "blaine food bank", "address_1": "500 c street", "address_2": "", "city": "blaine", "state_province": "wa", "postal_code": "98230", "url": "https://www.blainefoodbank.org"}, {"name": "blaine food bank", "address_1": "500 c st", "address_2": "", "city": "blaine", "state_province": "wa", "postal_code": "98230", "url": "https://www.blainefoodbank.org/"}]}, {"__class__": "tuple", "__value__": [{"name": "salvation army - bellingham", "address_1": "1515 birchwood avenue", "address_2": "", "city": "bellingham", "state_province": "wa", "postal_code": "98225", "url": "https://bellingham.salvationarmy.org"}, {"name": "salvation army - bellingham", "address_1": "1515 birchwood aven", "address_2": "", "city": "bellingham", "state_province": "wa", "postal_code": "98225", "url": "https://bellingham.salvationarmy.org"}]}, {"__class__": "tuple", "__value__": [{"name": "whatcom hospice", "address_1": "3001 squalicum parkway", "address_2": "suite 11", "city": "bellingham", "state_province": "wa", "postal_code": "98225", "url": "http://whatcomhospice.org"}, {"name": "whatcom hospice", "address_1": "2901 squalicum parkway", "address_2": "", "city": "bellingham", "state_province": "wa", "postal_code": "98225", "url": "http://whatcomhospice.org"}]}, {"__class__": "tuple", "__value__": [{"name": "united way of whatcom county", "address_1": "1500 cornwall ave. ste 203", "address_2": "", "city": "bellingham", "state_province": "wa", "postal_code": "98225", "url": "http://www.unitedwaywhatcom.org"}, {"name": "united way of whatcom county", "address_1": "1500 cornwall ave", "address_2": "suite 203", "city": "bellingham", "state_province": "wa", "postal_code": "98225", "url": "http://www.unitedwaywhatcom.org"}]}, {"__class__": "tuple", "__value__": [{"name": "planned parenthood", "address_1": "1530 ellis st", "address_2": "", "city": "bellingham", "state_province": "wa", "postal_code": "98225", "url": "http://ppgnhi.org"}, {"name": "planned parenthood (bellingham)", "address_1": "1530 ellis st", "address_2": "", "city": "bellingham", "state_province": "wa", "postal_code": "98225", "url": "https://www.plannedparenthood.org/health-center/washington/bellingham/98225/bellingham-health-center-2454-91780"}]}, {"__class__": "tuple", "__value__": [{"name": "whatcom county", "address_1": "311 grand avenue", "address_2": "", "city": "bellingham", "state_province": "wa", "postal_code": "98225", "url": "http://www.co.whatcom.wa.us"}, {"name": "whatcom county courts", "address_1": "311 grand avenue", "address_2": "suite 501", "city": "bellingham", "state_province": "wa", "postal_code": "98225", "url": "http://www.courts.wa.gov/court_dir/orgs/296.html"}]}, {"__class__": "tuple", "__value__": [{"name": "whatcom county", "address_1": "311 grand avenue", "address_2": "", "city": "bellingham", "state_province": "wa", "postal_code": "98225", "url": "http://www.co.whatcom.wa.us"}, {"name": "whatcom county courts", "address_1": "311 grand avenue", "address_2": "suite 301", "city": "bellingham", "state_province": "wa", "postal_code": "98225", "url": "http://www.courts.wa.gov/court_dir/orgs/296.html"}]}, {"__class__": "tuple", "__value__": [{"name": "volunteer center of whatcom county", "address_1": "1419 cornwall avenue", "address_2": "", "city": "bellingham", "state_province": "wa", "postal_code": "98225", "url": "http://www.whatcomvolunteer.org"}, {"name": "volunteer center of whatcom county", "address_1": "1111 cornwall avenue", "address_2": "", "city": "bellingham", "state_province": "wa", "postal_code": "98225", "url": "http://www.whatcomvolunteer.org"}]}, {"__class__": "tuple", "__value__": [{"name": "arc of whatcom county", "address_1": "2602 mcleod road", "address_2": "", "city": "bellingham", "state_province": "wa", "postal_code": "98225", "url": "http://www.arcwhatcom.org"}, {"name": "arc of whatcom county", "address_1": "2602 mcleod rd", "address_2": "", "city": "bellingham", "state_province": "wa", "postal_code": "98225", "url": "http://www.arcwhatcom.org"}]}, {"__class__": "tuple", "__value__": [{"name": "opportunity council in whatcom county", "address_1": "1111 cornwall aven", "address_2": "suite c", "city": "bellingham", "state_province": "wa", "postal_code": "98225", "url": "http://www.oppco.org"}, {"name": "opportunity council (whatcom & san juan)", "address_1": "1111 cornwall ave,suite c", "address_2": "", "city": "bellingham", "state_province": "wa", "postal_code": "98225", "url": "https://www.oppco.org/"}]}, {"__class__": "tuple", "__value__": [{"name": "whatcom county", "address_1": "311 grand avenue", "address_2": "", "city": "bellingham", "state_province": "wa", "postal_code": "98225", "url": "http://www.co.whatcom.wa.us"}, {"name": "whatcom county courts", "address_1": "311 grand ave", "address_2": "suite 501", "city": "bellingham", "state_province": "wa", "postal_code": "98225", "url": "http://www.courts.wa.gov/court_dir/orgs/296.html"}]}, {"__class__": "tuple", "__value__": [{"name": "bellingham food bank", "address_1": "4173 meridian street", "address_2": "", "city": "bellingham", "state_province": "wa", "postal_code": "98226", "url": "http://bellinghamfoodbank.org"}, {"name": "lifeline connections", "address_1": "4120 meridian street", "address_2": "220", "city": "bellingham", "state_province": "wa", "postal_code": "98226", "url": "https://lifelineconnections.org/"}]}, {"__class__": "tuple", "__value__": [{"name": "whatcom county sheriff's office", "address_1": "311 grand avenue", "address_2": "", "city": "bellingham", "state_province": "wa", "postal_code": "98225", "url": "http://www.co.whatcom.wa.us/sheriff/"}, {"name": "whatcom county", "address_1": "311 grand ave", "address_2": "", "city": "bellingham", "state_province": "wa", "postal_code": "98225", "url": "http://www.co.whatcom.wa.us"}]}, {"__class__": "tuple", "__value__": [{"name": "whatcom county", "address_1": "311 grand avenue", "address_2": "", "city": "bellingham", "state_province": "wa", "postal_code": "98225", "url": "http://www.co.whatcom.wa.us"}, {"name": "whatcom county sheriff's office", "address_1": "311 grand ave", "address_2": "", "city": "bellingham", "state_province": "wa", "postal_code": "98225", "url": "http://www.co.whatcom.wa.us/sheriff/"}]}, {"__class__": "tuple", "__value__": [{"name": "whatcom county courts", "address_1": "po box 2914", "address_2": "", "city": "ferndale", "state_province": "wa", "postal_code": "98248", "url": "http://www.courts.wa.gov/court_dir/orgs/296.html"}, {"name": "whatcom county courts", "address_1": "po box 9", "address_2": "", "city": "sumas", "state_province": "wa", "postal_code": "98295", "url": "http://www.courts.wa.gov/court_dir/orgs/296.html"}]}, {"__class__": "tuple", "__value__": [{"name": "whatcom county courts", "address_1": "po box 315", "address_2": "", "city": "everson", "state_province": "wa", "postal_code": "98247", "url": "http://www.courts.wa.gov/court_dir/orgs/296.html"}, {"name": "whatcom county courts", "address_1": "po box 9", "address_2": "", "city": "sumas", "state_province": "wa", "postal_code": "98295", "url": "http://www.courts.wa.gov/court_dir/orgs/296.html"}]}, {"__class__": "tuple", "__value__": [{"name": "pioneer human services", "address_1": "2026 division street", "address_2": "", "city": "bellingham", "state_province": "wa", "postal_code": "98226", "url": "http://pioneerhumanservices.org"}, {"name": "pioneer human services", "address_1": "2030 division st", "address_2": "", "city": "bellingham", "state_province": "wa", "postal_code": "98226", "url": "http://pioneerhumanservices.org"}]}, {"__class__": "tuple", "__value__": [{"name": "whatcom county parks and recreation department", "address_1": "3373 mount baker highway", "address_2": "", "city": "bellingham", "state_province": "wa", "postal_code": "98226", "url": "http://www.co.whatcom.wa.us/1787/parks-recreation"}, {"name": "whatcom county parks and recreation department", "address_1": "3373 mt baker hwy", "address_2": "", "city": "bellingham", "state_province": "wa", "postal_code": "98226", "url": "http://www.co.whatcom.wa.us/1787/parks-recreation"}]}, {"__class__": "tuple", "__value__": [{"name": "whatcom county courts", "address_1": "po box 9", "address_2": "", "city": "sumas", "state_province": "wa", "postal_code": "98295", "url": "http://www.courts.wa.gov/court_dir/orgs/296.html"}, {"name": "whatcom county pregnancy clinic", "address_1": "po box 1663", "address_2": "", "city": "bellingham", "state_province": "wa", "postal_code": "98227", "url": "http://www.whatcomclinic.com"}]}, {"__class__": "tuple", "__value__": [{"name": "sea mar community health centers", "address_1": "4455 cordata parkway", "address_2": "", "city": "bellingham", "state_province": "wa", "postal_code": "98226", "url": "https://www.seamar.org/"}, {"name": "sea mar community health center (bellingham)", "address_1": "4455 cordata pkwy", "address_2": "", "city": "bellingham", "state_province": "wa", "postal_code": "98226", "url": "https://www.seamar.org/whatcom-medical-bellingham.html"}]}]}