name,id,services,service_id,address,organization,organization_id,alternate_name,transportation,latitude,longitude,description,phones,x-details,schedule
Al Boe Wheelchair Warehouse,rec3nRq2lkvM462Em,,,4141 W. Maplewood Ave.,Al Boe Wheelchair Warehouse (Bellingham Lions Club),recD9PwAL49zQ4xkx,,,,,,,,
Alternative Humane Society,rec85x33NRMla8NGS,,,PO Box 2321,Alternative Humane Society,recgjwjMcre8nG7yu,,,,,,,,
Alzheimer Society of Washington Support Center,recpwqe5OWDrmGz57,,,1301 Fraser St. ,Alzheimer Society of Washington Support Center,recovKcxA2AA9ix72,,,,,,,,
American Red Cross Whatcom County Chapter,recCVIFJjaE2eFtV4,,,2111 King St.,American Red Cross- Whatcom County Chapter,recQ6JGoLlkW6yjal,,,,,,,,
Arne Hanna Aquatic Center,recEUzbjFAt8GbyJf,"Arne Hanna Aquatic Center,Free Shower Program","recRiBDECdKnWV8TO, recHCNSE21sbBALWw",1114 Potter Ave.,,,,,,,,,,"recWJK0Qs7lM5x5lE,recna416lxzekZKnE"
Art Bergh Recovery Residence,rec3rboaUnwocLNc9,,,6395 Portal Way ,Art Bergh Recovery Residence ,rec6YImNayUKAVGyD,,,,,,,,
Arthritis Foundation,recIEiy4KDwJRx5d6,,,1329 N. State St. ,Arthritis Foundation,recE5nqc8Vv1fKSb9,,,,,,,,
Assistance League of Bellingham,rechmGkdrv0tTgG9L,,,2817 Meridian St. ,Operation School Bell - Assistance League of Bellingham,rec6MDaAgsnK38ELS,,,,,,,,
Assumption Catholic Church,recDL0332MB4DHuGZ,Bellingham Community Meal ,rec6RTBPysbvtP9mI,2116 Cornwall Ave.,Bellingham Community Meal,reckuV76kppAeaxSH,,,,,,,,
Attorney General of Washington,recAtOsvUo94HxFtt,,,103 E. Holly St.,Attorney General of Washington,recGm9ryV5tTB5sIa,,,,,,,,
Base Camp,rectAHmwB8Zo2nq19,,,1530 Cornwall Ave.,,,,,,,,,,
Belair Clinic,recE67AzI3kAPgf6V,,,1130 N. State St.,Belair Clinic,recooMTDA5ZKiCMR0,,,,,,,,
Bellingham Childcare and Learning Center,recufVfPOWX0pKGIm,,,2600 Squalicum Pkwy.,Bellingham Childcare and Learning Center,recZUucgdSh5elm01,,,,,,,,
Bellingham City Hall,recFkHuASNudaIctX,,,,Home Rehabilitation Loan Program,recTEcGxe1W1IUiS0,,,,,,,,
Bellingham Community Services Office (DSHS),rectPhCnrZMP8Rl6q,"Basic Food,Housing and Essential Needs,""Aged, Blind, or Disabled Program"",Temporary Assistance for Needy Families,Pregnant Woman Assistance Program,Refugee Cash Assistance,Division of Child Support,Division of Vocational Rehabilitation","recS6lAfPGhoud8Zl, recrM2Ipp11NkSM5h, recuoDC3fNSiL6Y9y, recoafNrFKTr1MM19, recwljg57zR408jBi, recHfNnbpUDNuEHis, reczqW5sznapW5ou0, rec3gbfCH2e8YzAQp",4101 Meridian St.,"DSHS (Washington State Department of Social and Health Services),Answers Counseling","recgasOSzMjIX2vGR, rec3Z3GXx1xLDP8zz",DSHS,,,,,(877) 501-2233,,recYTufqoz2XnOGnm
Bellingham DCFS Office,recP4GGsJY0XWmnch,Child Protective Services,recpsDQcHNFDR6l1D,1720 Ellis St.,,,,,,,,(360) 594-6700,,recuw7LAV4JLeegWE
Bellingham Food Bank,recejO96jD3mCyzED,Bellingham Food Bank,recDmxOz8FG1FIcUL,1824 Ellis St.,Bellingham Food Bank,recNRzOVEkBpYoXvb,,,,,,,,recsz9NWjOZScRGNq
Bellingham Parks and Recreation,recHfAgtO79fqJFZT,Bellingham Playbook,rec3DH4OZoMcFeMFC,210 Lottie St.,Bellingham Parks and Recreation,recPSK8F1783zlqzD,,,,,,,,rec6Iuiv7W46Ztz9a
Bellingham Public Library Barkley Branch,recfQJFd1jOYzGZ7M,"Computers and Technology Access at BPL,WiFi Hotspot Lending at BPL,Meeting Rooms at BPL ","recWt6b0hIBFFqXDT, recKxVFqSjeyphVDw, recD7CN0xo8Km2WFl",3111 Newmarket St.,Bellingham Public Library,recMldsZhSR1yrGqR,,,,,,(360) 778-7290,,"recyBQf6g1C2rxpzN,recnafp7eKmVdIbc0"
Bellingham Public Library Central Branch,rec5f7nhKCUfzZqJU,"CAST,Computers and Technology Access at BPL,Tech Help at BPL,WiFi Hotspot Lending at BPL,Meeting Rooms at BPL ,Nonprofit Resources at BPL","recwt9lxXjNRwshoz, recWt6b0hIBFFqXDT, recm30wvLLz5KhCOc, recKxVFqSjeyphVDw, recD7CN0xo8Km2WFl, recw8gwdvcjHYB5qI",210 Central Ave.,Bellingham Public Library,recMldsZhSR1yrGqR,,,,,,(360) 778-7323,,"recl6JZjeTGts6KRR,rec8iMHtBI1sjJdms"
Bellingham Public Library Fairhaven Branch,recNKoWIhIX6tkaz3,"Computers and Technology Access at BPL,WiFi Hotspot Lending at BPL,Meeting Rooms at BPL ","recWt6b0hIBFFqXDT, recKxVFqSjeyphVDw, recD7CN0xo8Km2WFl",1117 12th Street,Bellingham Public Library,recMldsZhSR1yrGqR,,,,,,(360) 778-7188,,"recyBQf6g1C2rxpzN,recnafp7eKmVdIbc0"
Bellingham Senior Activity Center,recUctT4EkShF0HvU,,,315 Halleck St.,Bellingham Senior Activity Center,recxDACr76XzQDpdd,,,,,,,,
Bellingham Technical College,recoG2ljRBrNDW23C,,,3028 Lindbergh Ave.,Bellingham Technical College,recfLdKjyoHndoAhS,,,,,,,,
Bellingham Vet Center,recyXiMEo2QbCz1O5,,,,Bellingham Vet Center,rec5k0E05kRtsZIG7,,,,,,,,
Bellingham Whatcom County Housing Authority,rec9jMTw2Se7oKXZH,,,208 Unity St.,Bellingham Whatcom County Housing Authority,recrG9pMJsPHIaVSr,,,,,,,,
Big Brothers Big Sisters of Island County,recGuae2Mxm2F7gf3,,,913 E Whidbey Ave.,Big Brothers Big Sisters -Island Co.,reca0cHvvpGUKM8eb,,,,,,,,
Birchwood Timberlake House,reczFmkGEj0zCVjiJ,,,2624 Birchwood Ave.,Birchwood Timberlake House ,recNad6Cz9PvbE3Yl,,,,,,,,
Blaine Clothing Bank,recAUUN0oqMLk9ycL,,,502 C St.,,,,,,,,,,
Blaine Food Bank,rec0DV1eARliMWTQ4,Blaine Food Bank,recjusb3lLuXQcidY,500 C St.,Blaine Food Bank,recODRs6fVnZMg4Eh,,,,,,,,"recrC2J8W8I54nrXm,rectC2b2uNR6zEa18"
Blaine Library,reccnrX6G9gzJaqJg,"WCLS WiFi and Laptops,WCLS Printing Services,WCLS Meeting Spaces,WCLS Learning Resources","reciyozRCGNWRL3DB, recSVnRKM9Ai5noGb, recvR36NcoHbu14gL, recFCC2bifwA5cJgl",610 3rd St.,Whatcom County Library System,recSTUXGET8dHOpKy,,,,,,(360) 305-3637,,"reckzN4Te9fQxj0Rw,recOzaFEDkGt2zP4c,recy2hxy1MzH7fLsd"
Blaine Middle School,recq0CcgzebnuSHv1,Blaine Family Service Center,recYSHMxIdyK7m1rH,975 H St.,,,,,,,"The Family Service Center is located on the south side of the middle school gym (corner of H and Mitchell Streets). Follow the walkway along the South side of the gymnasium (closest to the elementary school), enter the first blue door to your left. ",,,
Blaine School District,recZnkpG9WBkyfBej,,,765 H St.,,,,,,,,,,
Blue Skies for Children,recpD00YzHSaqiVat,"Our Little Wishes Enrichment Program,Our One-Time Little Wishes Program,Our Little Wishes Instrument Loaner Program,Blue Skies Shoe Distribution Program,Blue Skies Back to School Backpack Distribution Program,Blue Skies Winter Warm-Up Distribution Program,Foster Grads Program,Swim to Live Program,""The Evan J. Sobjack Memorial Fund, Legends of Mt. Baker ""","recdHaCEskbFcCs8G, recIeIMhlbXI0k3Ev, recVnnTE6B8siosxr, recLGDVTOGCJgJPWR, recv9M0IDwNHP44rO, recyHeAnRpl2r4uwL, recPbef8R7bgCI321, recYIg4K2N7jjYbzj, recEStXVKErK65voe",2505 Cedarwood Ave.,Blue Skies for Children,rec7sW8SKpiIGB0Pv,,,,,,,,
Boys and Girls Club of Oak Harbor,recLJliQyKEWivDrT,,,98 NE Barron Dr.,Boys & Girls Club of Oak Harbor,recRkuAit2iyr6b28,,,,,,,,
Brigid Collins Family Support Center,recHQ2Ay9nJj1f852,"Parent Child Assistance Program,Parent Child Interaction Therapy,Parenting Education (Brigid Collins),Stewards of Children","recGUAWidwJEHtWNi, recXHmlE1MYnt8ta5, recdNg6ltUZtU4T5d, recfybf64lvklT3eu",1231 N. Garden St.,Brigid Collins Family Support Center,recwkhSGNR5Q1MUM1,,,,,,,,
CADA,recJwtvuK8arrC9t6,,,275 SE Pioneer Way ,CADA,rec7G4xEs9YdDs2Tw,,,,,,,,
Carl Cozier Elementary School,recLXnLjGb04w060W,Bellingham Family Resource Centers,rec1wq5iiGhDsXfFM,1330 Lincoln St.,,,,,,,,(360) 676-5085,,recFr9oMvSYpMCHBz
Cascade Connections,recerhEufnUYTLOiq,,,1611 North State St.,Cascade Connections,recEJYiP9d7EzXXNw,,,,,,,,
Cascade Job Corps and Career Academy,recjXh1geqiW3C3kV,,,1950 Northern State Rd.,Cascade Job Corps College and Career Academy,recsPqtEm1PENiIzs,,,,,,,,
Cascade Natural Gas,rec9iVEJw13qMGfwQ,,,1600 Iowa St.,,,,,,,,,,
Catholic Community Services,recFGxfZl87vKpJVN,,,1133 Railroad Ave.,Catholic Community Services,rec1IacwMFCAFfpP5,,,,,,,,
Catholic Community Services Recovery Center,rec9znKXhOJ7lqpng,,,515 Lakeway Dr.,,,,,,,,,,
Catholic Housing Services,recuXSXRAfPihStIc,,,110 E. Chestnut St.,Catholic Housing Services,recLpXvPG6ctVJ1qg,,,,,,,,
Catholic Long Term and Home Care,reca92GpAsL8iecOG,,,1742 Iowa St.,,,,,,,,,,
Christ the King Community Church Bellingham,recE9kn7XXnbHYcue,Bellingham Food Bank,recDmxOz8FG1FIcUL,4173 Meridian St. ,"Kids in Motion ,Bellingham Food Bank","reccoX57Ox4B2Bhtb, recNRzOVEkBpYoXvb",,,,,,,,recYlP3E2tFAltjHk
City Gate Apartments,rec1pWijGvOEFrfTL,,,607 E. Holly St.,City Gate Apartments (Pioneer Human Services),recVY83BBeVLHRQ76,,,,,,,,
ClearPoint Credit Counseling Solutions,recX2FRkumpTP7NcH,,,9725 3rd Ave. NE ,ClearPoint Credit Counseling Solutions ,recTLOhVxn4aoualU,,,,,,,,
Command Center Inc.,recFEQAc4nMWfXiBB,,,1840 Iron St. ,Command Center Inc ,recUsRpcYgcDjC9Md,,,,,,,,
Compass Health,reconbclENA4ancUB,,,3645 E. McLeod Rd.,Compass Health ,recufz2FRyBUOgRMp,,,,,,,,
Conservation Northwest,recLcbTGzlcTaZg90,,,1208 Bay St.,Conservation Northwest ,recDS1Y5pOoIy5bux,,,,,,,,
Cordata Elementary School,recE7dS25ChXrRRMJ,,,,,,,,,,Food Bank at Tuesday 5:30p to 6:30p ,,,
Deming Library,recKOhsOL9EJLPsgt,"WCLS WiFi and Laptops,WCLS Printing Services,WCLS Meeting Spaces,WCLS Learning Resources","reciyozRCGNWRL3DB, recSVnRKM9Ai5noGb, recvR36NcoHbu14gL, recFCC2bifwA5cJgl",5044 Mt. Baker Hwy.,Whatcom County Library System,recSTUXGET8dHOpKy,,,,,,(360) 592-2422,,"reckzN4Te9fQxj0Rw,recOzaFEDkGt2zP4c,recy2hxy1MzH7fLsd"
Department of Labor and Industries,recLzgX0dPLhHY4F4,,,1720 Ellis St.,Department of Labor & Industries-WA ,recnjFpe2amDGFaEp,,,,,,,,
Disability Rights Washington,recM3LKQmcE3oefx2,,,315 5th Ave.,Disability Rights Washington  ,recz6iCxGREL0v6xG,,,,,,,,
DSHS Home and Community Services Office,recNIwXXXKCspwafW,Aging and Long-Term Support Administration,recMlrpBFlK6qKgG9,2219 Rimland Dr.,,,,,,,,(360) 812-4940,,rec2VdTv9rOAkaWd4
DSHS Island County,recABLTdUQFugKCJM,,,275 SE Pioneer Way ,"""DSHS, Island County """,recypdpoW6LsGltjX,,,,,,,,
DVSAS,recgPapfEDynKRlX8,"DVSAS Support Groups,DVSAS Advocacy Counseling,DVSAS 24-Hour Helpline,Legal Assistance at DVSAS,Ask an Advocate at DVSAS,DVSAS Safe Housing Program,DVSAS Professional Trainings","recCn4eNawTHwgiMv, recOyMxPQoRGBOz1S, rece2AuKYnuuRLQwz, recwkiFGqCygzgsqU, recnoxVknPXefnYVN, recgSMLQoVMgi1bAK, recOgfavccEovQw2o",,Domestic Violence and Sexual Assault Services (DVSAS),recz8xRe1VHPr90xt,,,,,,,,
East Whatcom Regional Resource Center,rec3XVu5BUJq31pR7,"East Whatcom Regional Resource Center,WTA Bus Passes (Opportunity Council),Food Lifeline Mobile Pantry","reczhHHeqzh0vEIPJ, recDWFJ5m38nsln87, rec2Ee2YjJxmAKtRb",8251 Kendall Rd.,Food Lifeline Mobile Pantry ,recPGcBV9IkRFxmSs,,,,,,,,"reco0npaEa6LE40dY,rect8OVobB6ib9h7t,reckCVd7xnm1P6nKU,recW6B6CKg7Qg3xYW"
Employment Solution Inc.,recLU9epmbe3X0d3y,,,1200 Dupont St.,Employment Solution Inc. ,recBtcG1FkpHGwVua,,,,,,,,
Evergreen Supported Living,recgbLJjIuMCcIpid,,,1970 Frazier St.,Evergreen Supported Living ,recUiNubBcQ1fl6HU,,,,,,,,
Evergreen Wellness Advocates,recquMvePwnYMJyVx,,,115 Unity St. ,"""Evergreen Wellness Advocates
""",recM1fLAwFVE2vZjF,,,,,,,,
Everson Library,recaCa2dWt6HIhApJ,"WCLS WiFi and Laptops,WCLS Printing Services,WCLS Learning Resources","reciyozRCGNWRL3DB, recSVnRKM9Ai5noGb, recFCC2bifwA5cJgl",104 Kirsch Dr.,Whatcom County Library System,recSTUXGET8dHOpKy,,,,,,(360) 966-5100,,"reckzN4Te9fQxj0Rw,recOzaFEDkGt2zP4c,recy2hxy1MzH7fLsd"
Everson Senior Activity Center,rec6u6HGPiI3Cprzh,,,111 W. Main St.,Everson Senior Activity Center ,recrVJujZgG7CzMpr,,,,,,,,
Everson Seventh Day Adventist Community Services Center,recavW4aMw7kS8JIs,"ESL/ELL Classes (A Watered Garden),Conversational Spanish Classes (A Watered Garden),GED Class (A Watered Garden),U.S. Citizenship Class (A Watered Garden),Making SMILIES Learning Pathways for Children of Adult Learners,Basic Computer Skills (A Watered Garden),Community Garden (A Watered Garden),Nutrition Class (A Watered Garden)","recoZMx9U1BGBXsI3, reca9lZVefH2EOQI8, recpOPupUC7LU2xad, rec6DDFGSHdQYNmjs, recmXNIbNr1WR9MaL, rec8klWCHCng4pXT7, recUVsoDTgd0CRrEv, rec5XTp7vznI5i5Sx",700 Strandell St.,A Watered Garden Family Learning Center,recYT1TV8l7wUBqjp,,,,,,,,recuqWr5If7WHSIqL
Express Employment Professionals,rec60ycvo4sjtnGKp,,,4152 Meridian St.,Express Employment Professionals ,recWGVDGFKxSoPOaX,,,,,,,,
Fairhaven Community Garden,rec6kGe8tITFNUd2s,City of Bellingham Community Garden Program,recHE1hsxQpgYNUdh,10th St. and Wilson Ave.,,,,,,,,,,
Faith Lutheran Church,recXgbHyxorTa9FPY,Maple Alley Inn,recqfK6GGfZdeH5eQ,2750 McLeod Rd,,,,,,,,,,recO2O2ZfsFUMx6Ca
Ferndale Food Bank,reclyWch0xv72HteA,Ferndale Food Bank,rec6vSx3uQczWhdjT,1671 Main St.,Ferndale Food Bank ,recIiFZKHYrPCA028,,,,,,,,reczrbiZmgUGZqHyA
Ferndale Library,rec83sWvihhL1npE4,"WCLS WiFi and Laptops,WCLS Printing Services,WCLS Meeting Spaces,WCLS Learning Resources","reciyozRCGNWRL3DB, recSVnRKM9Ai5noGb, recvR36NcoHbu14gL, recFCC2bifwA5cJgl",2125 Main St.,Whatcom County Library System,recSTUXGET8dHOpKy,,,,,,(360) 384-3647,,"recMqIKScmVteIj0D,recszWufl5l8B5ocL,recQOIsRVRQCfIXQS,recmoLWHQCrDLxfin"
Ferndale Resource Center,recZJrxDBana9aAPn,"Ferndale Other Bank,Ferndale Resource Center","rec5l7pShFpXTkMNR, recNZJpssJbVqm4wq",5694 2nd Ave.,Ferndale Community Services,rec1j2QGts8EXLdvy,,,,,Entrance is on the north side of the building (closest to the railroad tracks) next to the blue clothing donation bin.,,,"rec2JSEGN5D8pc5Jr,recbujGVGZOs4UMvE"
Ferndale Senior Center,recsWqwa6q1L00bsH,,,1999 Cherry St.,Ferndale Senior Center,recCXiSMTaoL9kzyC,,,,,,,,
First Baptist Church,recM7OQjbqPRXaHFl,Loaves and Fishes Community Meal,recNOt56RgByZtd84,110 Flora St.,Loaves and Fishes Community Meal,recZePMSi8UoJH7Jt,,,,,,,,
Foothills Food Bank,recVbgUaA5EsTnSVZ,Foothills Food Bank,recpJ3hCfDgdoWAFl,8255 Kendall Rd.,Foothills Food Bank ,rec28tJSHcdaJwgpf,,,,,,,,recahJpq5BnGBSDu0
Frank Haskell Lions Eye Clinic,recQdpB9sBjcG7FWr,,,800 E. Chestnut St.,Frank Haskell Lions Eye Clinic ,recaUqvNVV3Ed46pg,,,,,,,,
Friends of Friends Medical Support Fund,recNOhd02YSgBlH2K,,,PO Box 812,Friends of Friends Medical Support Fund  ,rec3JATidD8CMkp6b,,,,,,,,
Good Cheer Clinton Thrift Store & the Rack,recW61dLjFv4CfqCO,,,11042 WA-525 ,Good Cheer Clinton Thrift Store & The Rack ,recFpiq4A6sBNh0WN,,,,,,,,
Good Cheer Food Bank and Distribution Center,recaTdPOUea4rAW71,,,2812 Grimm Rd.,Good Cheer Food Bank /Distribution Center ,rec4dvXjPwg6vFwJS,,,,,,,,
Good Cheer Thrift Store Langley,reckZMjLM9BXTJ0ql,,,114 Anthes Ave.,Good Cheer Thrift Store Langley ,recNzLGXxjOl9Cu13,,,,,,,,
Goodwill Job Training and Education Center,recIzFKiYp5kbt2Rn,,,1115 E. Sunset Dr.,Goodwill Job Training and Education Center ,recxxcdIX2aTRilaD,,,,,,,,
Habitat for Humanity HomeStore Bellingham,rec9y7BgzimL4FfNU,,,1825 Cornwall Ave.,Habitat For Humanity and HomeStore - Whatcom County,rechQSVPfXipoPwaa,,,,,,,,
Habitat for Humanity Store Island County,rec6FQ0KfUyPWDx7p,,,1592 Main St. ,Habitat for Humanity Store - Island Co. Freeland,recfFsfXfGYo6nhyw,,,,,,,,
Harmony Elementary School,reclvpDYkiwxuN3vJ,Foothills Food Bank,recpJ3hCfDgdoWAFl,5060 Sand Rd.,Foothills Food Bank ,rec28tJSHcdaJwgpf,,,,,,,,recXGIfEwR4YprJB3
Hearing Speech and Deafness Center,rectGyrGXwuQnoCKn,,,114 W. Magnolia St.,Hearing Speech and Deafness Center ,recPviuPsKEabfghp,,,,,,,,
Helen's House,recEra8NChTyM9Yl5,,,4226 Pickett Rd.,Helen’s House,rec4NhvLMPfxELyiV,,,,,,,,
Help House Food Bank,recjtByXGIrbmT1e1,,,1091 SE Hathaway St.,Help House Food Bank ,recQ6rJbSFbIPTmv3,,,,,,,,
Helping Hand South Whidbey,recpSh9rLFpR2jss7,,,18341 State Route 525,Helping Hand South Whidbey ,recx2blulDMhCTmiz,,,,,,,,
Hillcrest Church,recsPp0834Px8yf4l,,,1400 Larabee Ave.,Hillcrest Chapel ,recUOZgQZh9mk8CdI,,,,,,,,
Hope House,recx5oAc79QMtPF1g,Hope House,recBoqqr9A4AMopso,207 Kentucky St.,Hope House,recw4uRrvGQJMPPwC,,,,,,,,"reckAJuGqPjqojbHH,recG6IwMetoG0CRWQ"
HOPE Therapeutic Riding Center,recZmnGEOMAxkMT6K,,,819 Camano Ave. ,HOPE Therapeutic Riding Center ,rec2PZDJ87EttooKm,,,,,,,,
Ideal Option,receAfD15pc9ZbHdr,,,,Ideal Option,recBEZXdzWgkZJGjq,,,,,,,,
Interfaith Coalition,recMbzoBqjKh27jN7,,,910 14th St.,Interfaith Coalition,recxT5X75m9oN4qrL,,,,,Located in St. James Presbyterian Church,,,
Island County Habitat for Humanity,rec9zAqtooi5gdBKt,,,PO Box 2279,Habitat for Humanity - Island County,recdzYsqdXFCksDsm,,,,,,,,
Island County Health Department,recGcRAT3DxgO8Amg,,,6th and Main St.,Island County Health Dept.,recx35MkUWKrW1Zue,,,,,,,,
Island Library,recJhMsDNQxFoNtNM,"WCLS WiFi and Laptops,WCLS Printing Services,WCLS Learning Resources","reciyozRCGNWRL3DB, recSVnRKM9Ai5noGb, recFCC2bifwA5cJgl",2144 S. Nugent Rd.,Whatcom County Library System,recSTUXGET8dHOpKy,,,,,,(360) 758-7145,,"recxTqlnaMOcn5qQU,recqJkuvhk24RtLZN,recTXd1ATr5fTPYRh"
Jesus Christ Chief Cornerstone Ministries,recQ3EKk3hc4VGLkW,,,4534 Haxton Way,Jesus Christ Chief Cornerstone Ministries ,recjaQ2UtpIaY18kf,,,,,,,,
Juvenile Community Justice Center,recJUfvMA02a2iQlW,,,311 Grand Ave.,Juvenile Community Justice Center ,recqmqJjhyNEeJH8J,,,,,,,,
Kelly Temporary Services,recR2bUD8sMpKZz9N,,,2219 Rimland Dr.,Kelly Temporary Services ,reccad9IDsoQO2oKy,,,,,,,,
Kids Korner,rec409bb546p0Dgnu,,,1903 Alabama St.,Kids Korner ,recn8PDyDMtnRrK8S,,,,,,,,
Kulshan Community Land Trust,recrLcsVl5loRrLsS,,,1303 Commercial St. ,Kulshan Community Land Trust ,recB0K89rx1H2EIuf,,,,,,,,
Kulshan Pediatric Dentistry,recutgDNJHVcyFMQT,,,2210 Kulshan View Dr. ,Kulshan Pediatric Dentistry,recUFHQDBFi7yMp3S,,,,,,,,
Labor Ready,recjSo6mIfDDmqFyo,,,1530 Birchwood Ave.,Labor Ready,rec4PCzdExedjWKV0,,,,,,,,
Lake Padden Park,recP4HtufM84UgPF4,,,4882 Samish Way,,,,,,,,,,
Lake Whatcom Center,recegMbNci3FYnl3J,,,3600 Meridian St. ,Lake Whatcom Residential and Treatment Center ,recfEAg4Cri4INP4b,,,,,,,,
Lakeway Community Garden,recJAX81rsyysili1,City of Bellingham Community Garden Program,recHE1hsxQpgYNUdh,Lakeway Dr. and Woburn St.,,,,,,,,,,
Laurel Community Baptist Church,rec8CoFrZJ4letysR,,,162 W. Laurel Rd.,,,,,,,,,,
Law Advocates,rec91Q9fw9jB4NdKp,,,1415 Commercial St.,Law Advocates  ,rectRSHDv3rkspLVq,,,,,,,,
Lifeline Connections,recLoRFOIklrKuLNo,,,4120 Meridian St.,Lifeline Connections,rec5T1ETpFh2T6Xau,,,,,,,,
Lighthouse Mission Ministries,recODmiKdGVrlA8qn,,,910 W. Holly St.,Lighthouse Mission  ,recZtFec1gf2I4H2W,,,,,,,,
Little Cheerful,recTJSKrNWQJ00YEb,,,133 East Holly St.,Little Cheerful Cafe Soup Kitchen ,recPNKf9G82fNwxPu,,,,,,,,
Love INC,recaclc2TnO9Xl4Uj,,,1998 Midway Ln.,Love INC. ,recHoJGeLtDUa9dgm,,,,,,,,
Lummi Children's Services,rec4g3WmfZTTgyE7c,,,2828 Kwina Rd.,Lummi Children’s Services ,recgqDuZC4K6s7QEF,,,,,,,,
Lummi Community Services,recEwG8LaOXW7bnXE,,,,Lummi Community Services ,recIPQstWy17s1SLp,,,,,,,,
Lummi Food Bank,recq09YuR2MlJhQVW,Lummi Food Bank,recq7lt1krSJ5hh3t,2830 Kwina Rd. ,Lummi Food Bank  ,rec7BGtgsuosZ2Odd,,,,,,,,rectugDVQjKANKyoq
Lummi Housing,recCA6KC8cm8wp7Ba,,,,Lummi Housing ,recIKNmlUeVS9XVeD,,,,,,,,
Lummi Tribal Health Center,recM4Ej8LZvqJLiHl,"Lummi Tribal Health Center,Lummi Tribal Dental Clinic,Lummi Tribal WIC Program","recgLdQ6t4HcOhGfe, rec9CUsIrwUijwL3Q, recOPW3y15b5WDF2a",2592 Kwina Rd.,Lummi Tribal Health Center,recJdHHCi3VZHLL5U,,,,,,,,rect2V3SmWz2OQ42h
Lummi Victims of Crime,recVvWY0cVQgpTjrU,,,2616 Kwina Rd.,Lummi Victims of Crime - LVOC ,recriZwdVx6qdBNTf,,,,,,,,
Lummi Youth Wellness Center,recxp6IeV5WSaxW72,,,2530 Kwina Rd.,,,,,,,,,,
Lydia Place,recb0Ujj1T74APMCg,,,PO Box 28487,Lydia Place  ,recVZf2v2xHyDESHr,,,,,,,,
Lynden Library,rececZBNbdde9S8un,"WCLS WiFi and Laptops,WCLS Printing Services,WCLS Meeting Spaces,WCLS Learning Resources","reciyozRCGNWRL3DB, recSVnRKM9Ai5noGb, recvR36NcoHbu14gL, recFCC2bifwA5cJgl",216 4th St.,Whatcom County Library System,recSTUXGET8dHOpKy,,,,,,(360) 354-4883,,"recMqIKScmVteIj0D,recszWufl5l8B5ocL,recQOIsRVRQCfIXQS,recmoLWHQCrDLxfin"
Lynden Middle School,recUYr21Dde2cHjoc,Lynden Family Community Services,recAYosLzDjRyW6IA,516 Main St.,,,,,,,,,,
Lynden Senior Community Center,recQs2bAsm8c0Slwd,,,401 Grover St.,Lynden Senior Community Center ,recVTDjSqaY2qQrNw,,,,,,,,
Manpower,rec7SYyeKWeO35Uzg,,,216 W. Champion St.,Manpower  ,recCetadKWrOF0ZnV,,,,,,,,
Maplewood House,recNEucqPVZzuNdjT,,,2710 W. Maplewood Ave.,Maplewood House ,recrGriJRIZcUX5eU,,,,,,,,
Max Higbee Recreational Center,rec8iZwwhcKqtYtA3,,,1210 Bay St.,Max Higbee Recreational Center,recLVtZ05L6cil4ot,,,,,,,,
Meals on Wheels,recsnL4l7bILpx7C4,,,315 Halleck St.,Meals on Wheels/Congregate Meals ,rec8tUBk0tXpG4F9z,,,,,,,,
Meridian School District,recuL3LLJU9Ryz55g,,,214 W. Laurel Rd.,,,,,,,,,,
Missing Persons Information Center,rec5xKp9dyRbcsqGM,,,PO Box 42634,Missing Persons Information Center ,rec3Cc7dIcj3kZUzm,,,,,,,,
Mount Baker Planned Parenthood,reca9vxKtwBlGNaiC,,,1530 Ellis St.,Mount Baker Planned Parenthood Clinic ,recicnGbOCRcI7XbV,,,,,,,,
Mt. Baker Educational Resource Center,recNAiUzHH97Wc7ur,Mt. Baker Educational Resource Center,recautfI9XE1i6IcW,4888 Deming Rd.,,,,,,,,,,
NAMI of Whatcom County,rechUchh2BltYOwHc,,,1212 Billy Frank Jr St.,NAMI of Whatcom County (National Alliance on Mental Illness),recYz2qEs82xw0Y1f,,,,,,,,
New Leaf,recjCvjzc5BwRcZcK,,,660 SE Fidalgo Ave. ,New Leaf ,rec4xUSwHSgtlXHFl,,,,,,,,
New Way Ministries,recbYLnU0yCxsrbmk,,,205 S. BC Ave.,New Way Ministries ,recTesaCeBC4kYQuG,,,,,,,,
Nooksack Behavioral Health,rec0aJWNCpC7x4yuX,Nooksack Behavioral Health,recALecAwen5rJ9H3,2505 Sulwhanon Dr.,Nooksack Indian Health Department,recy5vdesj7mlBzsJ,,,,,,,,recXxx9RWLlfXfb5g
Nooksack Chemical Dependency,rec77rqXAcHEGxiIu,Nooksack Genesis II Chemical Dependency Program,recIHTIvvRaLMpIgH,2505 Sulwhanon Dr.,,,,,,,Modular Building A,,,recXxx9RWLlfXfb5g
Nooksack Food Bank,recgzvAtTP5vylrmt,Nooksack Food Bank,recAkwRRS00mZJ7Cp,5061 Deming Rd.,Nooksack Food Bank ,recK2yPXUIFyxwQET,,,,,,,,recCvnMNjJ1MzboE9
Nooksack Indian Health Department,recSkx5RKjbG7OWVs,"Nooksack Tribal Clinic,Nooksack Tribal Dental Clinic,Nooksack WIC Program","recMFrybmgyjtmbkI, recTpdXyDQAm3c0rj, recrWLOWHWS9rf3oA",2510 Sulwhanon Dr.,Nooksack Indian Health Department,recy5vdesj7mlBzsJ,Nooksack Tribal Health Center,,,,,(360) 966-2106,,recXxx9RWLlfXfb5g
Nooksack Tribal Education Department,rec887ToP9ALJUP0h,,,5604 Mission Rd.,Nooksack Tribal Education Department ,recfOmKSHlFsWpdng,,,,,,,,
Nooksack Valley Food Bank Everson,recg2lXT0j7W9in0o,Nooksack Valley Food Bank,recwwyme6oppFzCcy,100 E. 2nd St. ,Nooksack Valley Food Bank ,recI0LUDbtKCYP4Ar,,,,,,,,"recqUZlRRljEIARe1,rec7uYO9qN2y40xOC"
Nooksack Valley Food Bank Sumas,recmevwYs6iQnytfX,,,134 Harrisson St.,Nooksack Valley Food Bank ,recI0LUDbtKCYP4Ar,,,,,,,,reck8jWKoLSij4n47
North Fork Library,recNkSEnqS3v8aYzK,"WCLS WiFi and Laptops,WCLS Printing Services,WCLS Meeting Spaces,WCLS Learning Resources","reciyozRCGNWRL3DB, recSVnRKM9Ai5noGb, recvR36NcoHbu14gL, recFCC2bifwA5cJgl",7506 Kendall Rd.,Whatcom County Library System,recSTUXGET8dHOpKy,,,,,,(360) 599-2020,,"recHZjr9SH5KURvCM,reccIfEltWZnHwNHf,recAm6AFyV86al3KY"
Northwest Clean Air Agency,recs5hhimt3ljNPul,,,1600 S 2nd St.,Northwest Clean Air Agency ,recmM9AuQPZAJ07fW,,,,,,,,
Northwest Drive Library Express,recHHAvBL00szx41b,"WCLS WiFi and Laptops,WCLS Printing Services,WCLS Learning Resources","reciyozRCGNWRL3DB, recSVnRKM9Ai5noGb, recFCC2bifwA5cJgl",5205 Northwest Dr.,Whatcom County Library System,recSTUXGET8dHOpKy,,,,,Holds pick-up and returns only,(360) 305-3600,,recLExpD7hGarA5lD
Northwest Justice Project,rec3tydrs6h0LIHfl,,,1814 Cornwall Ave.,Northwest Justice Project ,recGOruj9ehsrJgEC,,,,,,,,
Northwest Regional Council,rectp5HFkYTZI3c3S,,,,Northwest Regional Council,recXK02AeJb4uZ44f,,,,,,,,
Northwest Therapeutic Riding Center,recGknO4QZ1HS2gpk,,,1884 Kelly Rd.,Northwest Therapeutic Riding Center,recKp59CYPcRWH3pV,,,,,,,,
Oak Harbor Head Start and Early Head Start,recvrezKlXSUgAxzJ,,,600 Cherokee St. ,"""Head Start and Early Head Start, Oak Harbor""",recK3cuJ7YcRuS6yx,,,,,,,,
Office of Mobile and Manufactured Homes,recUAaYbgJYU6wt9L,,,PO Box 42525 ,Office of Mobile and Manufactured Housing,recCNgbIM97pcLzlL,,,,,,,,
Opportunity Council Administration Building,recN8rppdFwWOCGGn,Whatcom Volunteer Center,recoiyyynahtkwbAa,1419 Cornwall Ave.,,,,,,,,,,
Opportunity Council Community Resource Center,recTrJGLa6PeBNJOh,"Kinship Care,Opportunity Council Community Resource Center,Basic Food Outreach,Opportunity Council Homeless Housing Programs,Energy Assistance (Opportunity Council),Supportive Services for Veteran Families,Needs Based Ferry Passes,WTA Bus Passes (Opportunity Council)","rec3Mxgz3o6eg79Uk, recXb1NEhx3Qe9Vsh, recaQZTZfOfLMhDHm, recdeUXIxvbwZWAkk, recCISeJ3E2YM3q3G, recJaQJrJCKLDw4m1, rec92qGXi2EpoDOqn, recDWFJ5m38nsln87",1111 Cornwall Ave.,Opportunity Council,recDx6bdruXoWzLPy,,,,,,,,recXpOVvgTqk3dTdE
Opportunity Council Early Learning and Family Services,recr9zO51MLCurR5R,"Early Support for Infants and Toddlers (Opportunity Council),Single Entry Access to Services,Child Care Aware of NW Washington,Head Start,Early Head Start,Child Care Nutrition Program,Emergency Child Care Voucher","rec2JX5keEvajZwaS, recjJSMGLXf7pskpq, recdwiBfwj4N45Vj0, recrD7Y4506oaNPqB, recCiTWs5rXdzYEO8, recaYPPrUyLqlssAM, recVUWypipwF8GsoU",1111 Cornwall Ave,,,,,,,Suite 200,,,recXpOVvgTqk3dTdE
Opportunity Council Island County,recWjF3zNlQrFZGYf,,,,Opportunity Council Island County Back Pack Program,recX8cyOeGij7sby0,,,,,,,,
Our Treehouse,recSFM5rq4Tq2GxOT,,,,Our Treehouse,rectXosprYbexdw3A,,,,,,,,
Oxford House Connelly,rec3yuLVIDnaMTj2U,,,2804 Connelly Ave.,Oxford House Connelly,rec62WASA6llt56QI,,,,,,,,
Oxford House Journey,recu0pdUKvGstku96,,,2412 Yew Street Rd.,Oxford House Journey,recx00gSqoGTMDpky,,,,,,,,
Oxford House View Ridge,recSE0iIkEUBtTC1N,,,2323 View Ridge Dr. ,Oxford House View Ridge,recubitjPhkExHShn,,,,,,,,
PeaceHealth at Cordata Main,recKyKfOfXUghHXnB,"PeaceHealth Pediatrics,PeaceHealth Family Medicine,PeaceHealth Immediate Primary and Urgent Care,PeaceHealth Primary Care","recF2AaSyFDQJPp0P, recgCcVSvQuAUhNUw, rece0BpNwKgcnwriJ, recVn6xE5quFkjYpK",4545 Cordata Pkwy.,PeaceHealth,recHPMygwYXm5vTh5,,,,,,,,"recoMedGKJLrrF0a8,recMcbGHCsf4IOS4P"
PeaceHealth OB/GYN at Cordata South,rech4TtOw5nAPiTIr,PeaceHealth Women's Health,recSOkIm5nD6MNRBX,4465 Cordata Pkwy.,,,,,,,,(360) 752-5280,,recKEQCofnFv2GDji
PeaceHealth Same-Day Care at Fairhaven Plaza Clinic,recucNtaaaEgx3nzE,PeaceHealth Immediate Primary and Urgent Care,rece0BpNwKgcnwriJ,3125 Old Fairhaven Pkwy.,,,,,,,,(360) 788-8388,,recV7yke7Eze1CFQp
Point Roberts Library,receEKvGVc30wwl9c,"WCLS WiFi and Laptops,WCLS Printing Services,WCLS Meeting Spaces,WCLS Learning Resources","reciyozRCGNWRL3DB, recSVnRKM9Ai5noGb, recvR36NcoHbu14gL, recFCC2bifwA5cJgl",1431 Gulf Rd.,Whatcom County Library System,recSTUXGET8dHOpKy,,,,,,(360) 945-6545,,"recJho7IDnLPvdgqY,recWvWF9jDu6i2FhC,rec7HP794TOEYxSZr"
Pregnancy Care Clinic of South Whidbey,rec0W1zjYZdtr8Va4,,,6th St. and Cascade Ave.,Pregnancy Care Clinic of South Whidbey,recvhnvqOVOiJoKoR,,,,,,,,
Project Hope,recIgoDRUs3aJySBy,"Project Hope Food Bank,Project Hope Community Assistance","rec93UAu9WegCbNMZ, recbesc3BBk2Nej0n",205 S. BC Ave.,Project Hope Lynden ,recEeLmHcipShs7qC,,,,,,,,"rec9wt6qRXJ7Ob8KL,recsdgOyzFmG2Bac0"
RE Store,rec9RzrsruFLBWAn9,,,2309 Meridian St.,RE Store,rec8eQqGy5GxjGJb2,,,,,,,,
Readiness to Learn South Whidbey,recf1CFQ1UFVCg3fM,,,5380 Maxwelton Rd.,Readiness to Learn South Whidbey,recCE9okcskoQ6pRk,,,,,,,,
Rebound of Whatcom County,rec7HAOieizMfiZAy,,,316 E. McLeod Rd. ,Rebound of Whatcom County,recNzTmiGcrCoGQ6B,,,,,,,,
ReSources,recJmeyC74D2A4Y2v,,,2309 Meridian St.,ReSources,recT84vXPkCJWm8mM,,,,,,,,
Rooted Emerging,rectuxUPAiyIoTeLl,,,PO Box 1559,Rooted Emerging,reck1qQkbDC5PxyKn,,,,,,,,
Salvation Army,recFlii0Yprl3Pz1l,Salvation Army Food Bank,recwftv25wZ8qzf72,1515 Birchwood Ave.,Salvation Army,recmBwlkTAXZcHKtv,,,,,,,,recQaH5t6MjUmQ2ll
Sea Mar Bellingham Behavioral Health Clinic,rec00C2t3ObHjQ8Hh,"Sea Mar Bellingham Behavioral Health Clinic,Sea Mar Bellingham Behavioral Health Child and Family Services","rechF6BSKH4uXfw2G, rec1qjP7ip0VLRbAb",3350 Airport Dr.,Sea Mar Community Health Center,recl6mRA3eQbvB4c0,,,,,,(360) 734-5458,,recfiyiWZlOeF4VOn
Sea Mar Bellingham Dental Clinic,recC0VmnoPeYD72Ui,Sea Mar Bellingham Dental Clinic,recIElh8NBtdk27PR,4455 Cordata Pkwy.,Sea Mar Community Health Center,recl6mRA3eQbvB4c0,,,,,,(360) 788-7101,,recBU3KwdT1qF2h8l
Sea Mar Bellingham Downtown,rec4qtAjumj47YcJU,"Sea Mar Maternity Support Services,Sea Mar WIC and Nutrition Program","recXYeySt2Ok8Z3Pr, receBZf3I56QFF2tT",1764 Iowa St.,Sea Mar Community Health Center,recl6mRA3eQbvB4c0,,,,,,"(360) 788-7149,(360) 778-4280",,recUaQk8bRA1VdWNt
Sea Mar Bellingham Medical Clinic,recQxwmhToj2HVfIk,"Sea Mar Bellingham Medical Clinic,Sea Mar Health Education,Sea Mar WIC and Nutrition Program,Sea Mar Healthcare for the Homeless Program,Sea Mar Migrant and Seasonal Farmworker Promotores Program","recHo6GKlaO4X3X5g, recvDkuJngJDfZfmb, receBZf3I56QFF2tT, recbWbFHQlJh9FMgv, recmaI0Sm7cCnGnBL",4455 Cordata Pkwy.,Sea Mar Community Health Center,recl6mRA3eQbvB4c0,,,,,,"(360) 671-3225,(360) 788-7150",,"recxikS7S4COr7xod,recfYKqG07il1WFX1"
Sea Mar Everson Medical Clinic,recjbb8IshEXfJPBF,"Sea Mar Everson Medical Clinic,Sea Mar Health Education","recXX36aooau1koPd, recvDkuJngJDfZfmb",6884 Hannegan Rd.,Sea Mar Community Health Center,recl6mRA3eQbvB4c0,,,,,,(360) 354-0766,,"recR8XVhBbAsq5ERy,rec1pvkwT73vQa3b2"
Sea Mar Ferndale,rec2iRj9NEWsSS1lH,"Sea Mar Maternity Support Services,Sea Mar WIC and Nutrition Program","recXYeySt2Ok8Z3Pr, receBZf3I56QFF2tT",6046 Portal Way,,,,,,,,"(360) 788-7149,(360) 778-4214",,recbCDJv3n7uPKqh5
Sea Mar Oak Harbor Dental Clinic,reckZMHKlhHZBn2qg,,,31775 State Route 20,Sea Mar Oak Harbor Dental Clinic,recmMl9MgixrJvy6G,,,,,,,,
Sean Humphrey House,recXSTHTnoQkfcJBz,,,1630 H St.,Sean Humphrey House,recwXhBDoZ23Xg5g1,,,,,,,,
Second WakeUp House,recu3KFA292zUj9A6,,,1714 Grant St.,Second WakeUp House,rec6SZq2IFYEOgbqL,,,,,,,,
Shuksan Middle School,recRUBkxEjOvC7ac0,Bellingham Family Resource Centers,rec1wq5iiGhDsXfFM,2717 Alderwood Ave.,,,,,,,,,,recKaMYkOyIOSSSBk
Skagit County Community Action,recILq4OxlxhHtWPC,,,330 Pacific Pl.,Skagit County Community Action Agency,recvkfDsIKTyYSQLw,,,,,,,,
Skookum Kids,recT3SjvM0PNNMSsi,,,PO Box 4148,Skookum Kids,recxiHG9GAsw5Ug9u,,,,,,,,
Social Security Administration,rec10Sh354ys0Ri6R,,,710 Alabama St.,Supplemental Security Income (SSI),recUc5L1tzijuXAHO,,,,,,,,
South Whatcom Library,recliChaaabzFCPlJ,"WCLS WiFi and Laptops,WCLS Printing Services,WCLS Meeting Spaces,WCLS Learning Resources","reciyozRCGNWRL3DB, recSVnRKM9Ai5noGb, recvR36NcoHbu14gL, recFCC2bifwA5cJgl",10 Barn View Ct.,Whatcom County Library System,recSTUXGET8dHOpKy,,,,,,(360) 305-3632,,"recWijEWFStXLQeF3,recxoo2Xk98MVZBKs,recN2tIQEFYYL45Ed"
South Whidbey Commons,recl5kZJXNoAJVDI9,,,124 2nd St.,South Whidbey Commons,recO5bhpQhVXMiK3r,,,,,,,,
Southside Food Bank,rec4mD0Lfe5j6zVcc,Southside Food Bank,recdMgKEvRLwnQpxn,1504 Larrabee Ave.,Southside Food Bank,recJXL6eox05CKK7G,,,,,,,,recIv6O6Pfaj67m4E
St Paul’s Episcopal Old Parish Hall,recLuBamaRIf03Pka,Maple Alley Inn,recqfK6GGfZdeH5eQ,2117 Walnut St.,,,,,,,,,,recXrPY79idN5Atsw
St. Joseph Medical Center,reciMcRIFF83bOfEl,"PeaceHealth Behavioral Health,PeaceHealth Nutrition Services,Pregnancy and Childbirth Care at PeaceHealth,PeaceHealth Women's Health,PeaceHealth Emergency Medicine","recE1ZaWvdLUBCvLx, rec2XXFJ0qhZ3p5GX, recxACMoZHAbVIKY9, recSOkIm5nD6MNRBX, recSJOG0p7meedh6w",2901 Squalicum Pkwy.,PeaceHealth,recHPMygwYXm5vTh5,,,,,,,,
St. Joseph's Catholic Church Outreach,recbjldyaqCmIt0S4,,,5781 Hendrickson Ave.,St. Joseph’s Catholic Church Outreach,recTMdtkwA6fvP8ut,,,,,,,,
St. Martin's Clothing Bank,recj59ONa63BQlDGz,,,,,,,,,,,,,
St. Paul's Episcopal Church,recsAWvbjhXJPG0Cs,,,,St Paul’s Episcopal Church Alms Ministry,recVYnGCvgG0lECKS,,,,,,,,
St. Vincent De Paul,recrZoGIRA8ZQUcD5,,,1110 14th St.,St. Vincent De Paul-Sacred Heart Church,rec5d2MnTkPTGsDMR,,,,,,,,
Stanwood-Camano Community Resource Center,recaWBccpCzS09EH1,,,9612 271 St. NW,Stanwood-Camano Community Resource Center,recNauXcd2euzszGn,,,,,,,,
Stanwood-Camano Food Bank,rece6iuKGpuc7yUSc,,,27030 102nd Ave. NW,Stanwood-Camano Food Bank ,recIpJZZOMOW9XFWY,,,,,,,,
Stepping Stones Clean and Sober Housing Office,rec548dyGJPNXIAel,,,2820 Eldridge Ave.,Stepping Stones Clean and Sober Housing,rech1qPrEr26T4zKR,,,,,,,,
Sumas Community Senior Center,recqXY7udALShvBJy,,,461 2nd St.,Sumas Community Senior Center,recRtdLilVN3vMIih,,,,,,,,
Sumas Food Bank,recxEdEkEURKC7wuU,Sumas Food Bank,recN3phqA54ZdLXKY,735 Cherry St. ,,,,,,,,,,recpMtZQMJtj8Kwmw
Sumas Library,recTOOu5QbeWSiOGx,"WCLS WiFi and Laptops,WCLS Printing Services,WCLS Learning Resources","reciyozRCGNWRL3DB, recSVnRKM9Ai5noGb, recFCC2bifwA5cJgl",461 2nd St.,Whatcom County Library System,recSTUXGET8dHOpKy,,,,,"(SUMAS LIBRARY BUILDING IS CLOSED UNTIL FURTHER NOTICE DUE TO FLOOD DAMAGE)
",(360) 988-2501,,reciOo3UR61cE0h4x
Sun Community Services,recIZhRvZpQYUy8Di,,,515 E. Chestnut St.,Sun Community Services,recCpBS6x4CKnHCQw,,,,,,,,
Sven Hoyt Community Garden,recUyouo9eY8UNZBC,City of Bellingham Community Garden Program,recHE1hsxQpgYNUdh,32nd St. between Taylor Ave. and Donovan Ave.,,,,,,,,,,
The Arc of Whatcom County Dan Godwin Community Center,rec3Y8N3GL0vq1Xbk,"Parent Coalition,Parent to Parent Support Programs,Self-Advocacy Program,Down Syndrome Outreach Program,Medicaid Personal Care Parent Training,The Arc Legislative Advocacy","rec0jKHecPZ6QQR2b, reckelWWiNb23PCw7, reck4hxVBp4gzdwuU, recLoMDqchARs7VJq, recLXASC6UpckVMcN, recqzOuVCAxuxHNLl",2602 McLeod Rd.,The Arc of Whatcom County,recgdgE4uVZ9DalkK,,,,,,,,
The CAP Center,recscVoMVjkmmApaE,Blaine Clothing Bank,rec3hQjRkVVbyeJeQ,508 G St.,Blaine Community Assistance Program,recUZEfFGb1AwIpuH,,,,,,,,
The Ground Floor,recEMeiJRuqCfaoEB,,,,Northwest Youth Services ,recCF1bANXnZ7YPiL,,,,,,,,
The PAD,recFy51orOu37OfWC,,,1020 N. State St.,,,,,,,,,,
The Sergey Foundation,recVFpwXmXO3aU8xn,,,PO Box 955,The Sergey Foundation,recxp7t4EDBRAA1Sg,,,,,,,,
Toddler Learning Center,rec4VxjHeW7cFbG2e,,,950 SE Regatta Dr.,Toddler Learning Center,recq2wZuOfZJhdLiZ,,,,,,,,
United Church of Ferndale,recuHKiMDgFJUhEGs,,,2034 N. Washington St.,,,,,,,,,,
United Way of Island County,recBM77xuHh1qaufP,,,350 SE Pioneer Way ,United Way of Island County,recuKvU62FY5F47Rx,,,,,,,,
"Unity Care NW Bellingham Adult Dental, Behavioral Health, Donations, and Administration",recyD91eCUAUKXjRQ,"Unity Care NW Adult Dental Care,Unity Care NW Behavioral Health","recYIr4WnBjfwvlxT, recKn7l3eLepC3Z5l",1616 Cornwall Ave.,Unity Care NW,recQCprmXVCo7MQQ3,,,,,,,,recEoyiAhN5Nm65rj
Unity Care NW Bellingham Medical and Children's Dental Services,recY6YzwSjwo2hFur,"Unity Care NW Primary and Preventative Health Care,Unity Care NW Children's Medical Care,Unity Care NW Children's Dental Care","recW5u7LQOuUjzUay, recouXi1tWCvLXApS, recxj6W8dqtqUtocb",220 Unity St.,Unity Care NW,recQCprmXVCo7MQQ3,,,,,,,,"rectONJRvbURUiNth,rec50yfKX5qQ0jLMw"
Unity Care NW Bellingham Pharmacy,recuWuETnxqL71xrY,,,218 Unity St.,Unity Care NW,recQCprmXVCo7MQQ3,,,,,,(360) 752-7406,,"recv8U7pGv1q4mtBV,recS2gbUC5tNwOEKm"
Unity Care NW Ferndale,recAGaqcekgErU5Ft,"Unity Care NW Primary and Preventative Health Care,Unity Care NW Children's Medical Care,Unity Care NW Adult Dental Care,Unity Care NW Children's Dental Care,Unity Care NW Behavioral Health","recW5u7LQOuUjzUay, recouXi1tWCvLXApS, recYIr4WnBjfwvlxT, recxj6W8dqtqUtocb, recKn7l3eLepC3Z5l",6060 Portal Way ,Unity Care NW,recQCprmXVCo7MQQ3,,,,,,(360) 676-6177,,recTI8LhZczbEV86k
University of Washington School of Dentistry Clinic,recLgz6GLuQB6VyHo,,,1959 NE Pacific St.,Dental Care for Persons with Disabilities ,recuouEfx6UlEuwK5,,,,,,,,
Urgent Care Point Roberts Clinic,receLuisD4Z5WISO8,,,2030 Benson Rd.,,,,,,,,,,
Veterans Community Based Outpatient Clinic,recBAyE4bQcPjgRk0,,,307 S. 13th St. ,Veterans Community Based Outpatient Clinic,recNzYO20DaLJXTRV,,,,,,,,
Veterans of Foreign Wars Post 1585,reczd2kUYh14v6ZGT,,,625 N. State St.,"""Veterans of Foreign Wars, Post #1585""",recfzbJsASXkuiDIv,,,,,,,,
Violence Intervention Professionals,recy4wt26i6N7UZw5,,,2130 James St.,Violence Intervention Professionals,reclemujri83PcnTq,,,,,,,,
Walk-In Health Clinic,recQgQR7BAP5R2Y53,,,2220 Cornwall Ave.,,,,,,,,,,
Washington Access Fund,recWzNGeUrKp54qp5,,,1437 South Jackson St.,Washington Access Fund,recTdU3VFUiMEbCsH,,,,,,,,
Washington Homeownership Resource Center,recllNyufQwnjiMtl,,,17544 Midvale Ave. N,Washington Homeownership Resource Center,recMR9I3JbjhsoxBA,,,,,,,,
Washington Landlord Association,rec6DB8aQ6s2A9XGz,,,3301 Rucker Ave.,Washington Landlord Association,recqBe1bcVujfuNtZ,,,,,,,,
Washington Poison Center,recN9oMNd12cypxSK,,,155 NE 100th St.,Washington Poison Center,recBFNhbdpNtgQhKH,,,,,,,,
Washington State Coalition Against Domestic Violence,reca6i3mjmR8LO3qv,,,500 Union St.,Washington State Coalition Against Domestic Violence,recX7si4SzTSJE8d3,,,,,,,,
Washington State Department of Ecology,recYRThLnOeg7u3va,,,15700 Dayton Ave. N,Hazardous Substance Information Website,reckF5tqL4V65HnqN,,,,,,,,
Washington State Department of Licensing Bellingham,recESm7q2v637X3TC,,,4180 Cordata Pkwy. ,Washington State Department of Licensing,rec30PJ2zNWDg0lSM,,,,,,,,
Washington State Housing Finance Commission,recQVhxThHxs55HGp,,,1000 Second Ave.,Washington State Housing Finance Commission,recPyrx3dlS7nNYm0,,,,,,,,
Washington Talking Book and Braille Library,recljyXeXeXmStMzS,,,2021 9th Ave.,Washington Talking Book and Braille Library,reckhrPEUTnBcA1Tb,,,,,,,,
Washington Women in Need,recdY27ulEiXMGceE,,,232 5th Ave. S,Washington Women In Need,recO9UgPxc06hAAnN,,,,,,,,
We Care of Whatcom County,recuGYZbDyyQSAkzK,,,3550 Meridian St.,We Care of Whatcom County,recIjUGOaAuPway3u,,,,,,,,
Welcome Valley Senior Center,rec6vcV4VlOOMTFkB,,,5103 Mosquito Lake Rd.,Welcome Valley Senior Center,recbk5OBL53FFzmUY,,,,,,,,
Westcoast Counseling and Treatment Center,rec3SsvdsSwc7k97N,,,1200 Dupont St.,Westcoast Counseling and Treatment Center,recyxohr7BkoUDV1M,,,,,,,,
Western Washington University Career Services Center,rec795skHjlVam7MA,,,,,,,,,,,,,
Western Washington University Speech-Language-Hearing Clinic,recMQ5dmmOZjtjd00,,,,,,,,,,,,,
Whatcom Center for Early Learning,rec2oFnO3LN1mI5sv,"Early Support for Infants and Toddlers (WCEL),Sensational Toddlers,WCEL Friends Playgroup,WCEL Drop-in Playgroups","recfqzjPPAYPKBEeK, recQfEAbROvOLL6OV, rec8XkFW1fAWlRUHj, recT9ihPj4yjEh6YC",2001 H St.,Whatcom Center for Early Learning,recZR9OfxDfayGV8M,,,,,,,,
Whatcom Community College,rec4Fg8AZt22EHGdJ,,,237 West Kellogg Rd.,Whatcom Community College,recyTpr0XxNXAilp9,,,,,,,,
Whatcom County Behavioral Health Triage Center,recn7ssUVR49PRPAu,,,2030 Division St.,Whatcom County Behavioral Health Triage Center,rec482zJywsE2HaB9,,,,,,,,
Whatcom County Health Department ,receYX7V2zWpvn7tU,Whatcom County Veterans Program,recFkhdookFG38kns,509 Girard St.,Whatcom County Health Department ,recsJOY2XgLE7ar6o,,,,,"Administration, Environmental Health, Human Services, and Vital Records.",(360) 778-6000,,rech4SffgmAzpe0hY
Whatcom County Health Department - State Street,recYvoWMV4zK72ick,"Nurse-Family Partnership,Syringe Services Program","rectOFcdCMsUeuVaf, recppZxbCHF4LlOUR",1500 N State St.,Whatcom County Health Department ,recsJOY2XgLE7ar6o,,,,,"Family and Child Health, Healthy Communities, Clinic Services, and Needle Exchange.","(360) 778-6100,(360) 778-6102",,recDMPZrQYnHBpU6i
Whatcom County Pregnancy Clinic,recQHwC88KVqHrFyd,,,1310 N. State St.,Whatcom County Pregnancy Clinic,recbj7qhLkJMEF30H,,,,,,,,
Whatcom Dispute Resolution Center,recfBgUX5xxQykVFt,,,13 Prospect St. ,Whatcom Dispute and Resolution Center,recIdOvt1EPPtMVFl,,,,,,,,
Whatcom Family and Community Network,reckvW0TVqx4WLuTX,,,1231 N. Garden St.,Whatcom Family and Community Network,recm7v6OkRFOMpVKg,,,,,,,,
Whatcom Financial Services,recGrF6BCszmk95EM,,,1706 Front St. ,,,,,,,,,,
Whatcom Homeless Service Center,recFRA3kSat2EWTTx,Whatcom Homeless Service Center,recB9YdPIbozfLOlF,1111 Cornwall Ave.,,,,,,,,,,
Whatcom Homeschool Association,recR85sLyDVQR3Jn4,,,PO Box 5747 ,Whatcom Homeschool Association ,recdzNFKTIITHTJ07,,,,,,,,
Whatcom Hospice Foundation,reclnGbOa7GLlE3q0,,,2800 Douglas Ave.,Whatcom Hospice Foundation,rec3HyTzXSE8VcnGP,,,,,,,,
Whatcom Human Rights Taskforce,rec6mqtbpR0nTUeuR,,,PO Box 2444,Whatcom Human Rights Task Force,recEh35Me2cAM6uv7,,,,,,,,
Whatcom Humane Society,rec05C7cPV6a0GYHG,,,2172 Division St.,Whatcom Humane Society ,rec304ONdBixb2oWO,,,,,,,,
Whatcom Land Trust,rece5Q4ui3w0kk9eH,,,110 Central Ave.,Whatcom Land Trust,recZQefHKF0m81AS6,,,,,,,,
Whatcom Self-Help Homes,recZVPFHXDDMrBXHo,,,5373 Guide Meridian,Whatcom Self-Help Homes,recWtSIO4TvZyJoeE,,,,,,,,
Whatcom Voice of the Animals Pet Food Bank,rec0YbMjOmk6Bs3mi,,,1824 Ellis St.,,,,,,,,,,
Whidbey Animal Improvement Foundation (WAIF),recW6SG6lUSzoe4HL,,,20168 State Route 20,Whidbey Animal Improvement Foundation (WAIF),recteThmwqRIGKDiy,,,,,,,,
Windy Acres Farm,recJk8uSSvbggjDPi,,,721 Van Wyck Rd.,Animals as Natural Therapy-Windy Acres Farm,recvmi2DlsrTNSnpx,,,,,,,,
WorkSource Whatcom,recmoIRJu7nAP26rc,,,101 Prospect St.,WorkSource Whatcom,rec7CfN4sm5BVl5Dp,,,,,,,,
WorkSource Whidbey,recupckJu1rP7fsl8,,,265 NE Kettle St. ,Worksource Whidbey,recRCJMPggEeqsPEL,,,,,,,,
YWCA Bellingham,recLXkhciDxoM3g9I,,,1026 N. Forest St.,,,,,,,,,,